slug,identifier,name,type,usage,frequency,dme_channel,dme_rx_frequency,dme_tx_frequency,dme_bias,vor_slaved_variation,localizer_heading,glide_slope_angle,reception_range,latitude,longitude,elevation,region,airport,airport_runway,country
5f-dme-cy,5F,Fox Creek DME,DME,ENROUTE,110000,37X,1061000,998000,,,,,125,54.37861,-116.75194,2800,CY,,,CA
6g-dme-cy,6G,Red Deer DME,DME,ENROUTE,113800,85X,1109000,1172000,,,,,125,52.18119,-113.88266,2974,CY,,,CA
aat-dme-vo,AAT,Agatti DME,DME,ENROUTE,115900,106X,1130000,1193000,,,,,40,10.82825,72.17939,43,VO,,,IN
abm-dme-oi,ABM,Abumusa Island DME,DME,ENROUTE,115400,101X,1125000,1188000,,,,,130,25.87792,55.02306,32,OI,,,AE
adk-dme-pa,ADK,Mount Moffett DME,DME,ENROUTE,114000,87X,1111000,1174000,,,,,130,51.87107,-176.67427,329,PA,,,US
afe-dme-pa,AFE,Kake DME,DME,ENROUTE,114400,91X,1115000,1178000,,,,,125,56.96392,-133.91189,170,PA,,,US
agd-dme-ed,AGD,Altenburg DME,DME,ENROUTE,115300,100X,1124000,1187000,,,,,40,50.98269,12.51228,650,ED,,,DE
ago-dme-ur,AGO,Agoy DME,DME,ENROUTE,116800,115X,1139000,1202000,,,,,130,44.13889,39.02500,131,UR,,,RU
ahr-dme-zm,AHR,Arvaikheer DME,DME,ENROUTE,115600,103X,1127000,1190000,,,,,40,46.25778,102.79056,6004,ZM,,,MN
aix-dme-pa,AIX,Nanwak (Mekoryuk) DME,DME,ENROUTE,112900,76X,1100000,1163000,,,,,125,60.38515,-166.21476,38,PA,,,US
ajd-dme-rj,AJD,Awaji DME,DME,ENROUTE,115600,103X,1127000,1190000,,,,,130,34.27030,134.71294,884,RJ,,,JP
akw-dme-pa,AKW,Klawock DME,DME,ENROUTE,115800,105X,1129000,1192000,,,,,130,55.56842,-133.08095,30,PA,,,US
ald-dme-ed-edja,ALD,Allgau (Memmingen/Allgau) DME,DME,TERMINAL,117200,119X,1143000,1206000,,,,,25,47.98870,10.23123,2145,ED,EDJA,,DE
alf-dme-ed,ALF,Alster DME,DME,ENROUTE,115800,105X,1129000,1192000,,,,,40,53.63529,9.99416,66,ED,,,DE
ane-dme-es,ANE,Arlanda (Stockholm) DME,DME,ENROUTE,113300,80X,1104000,1167000,,,,,40,59.69397,18.05986,120,ES,,,SE
ank-dme-lt,ANK,Ankara DME,DME,ENROUTE,114900,96X,1120000,1183000,,,,,130,39.95328,32.82833,2835,LT,,,TR
ant-dme-ef,ANT,Antoni DME,DME,ENROUTE,113700,84X,1108000,1171000,,,,,130,60.86301,25.12682,314,EF,,,FI
anw-dme-es,ANW,Arlanda (Stockholm) DME,DME,ENROUTE,112050,57Y,1081000,1144000,,,,,40,59.71328,17.85258,176,ES,,,SE
ao-dme-uu,AO,Algasovo DME,DME,ENROUTE,115300,100X,1124000,1187000,,,,,130,53.68000,41.68000,492,UU,,,RU
ap-dme-nz,AP,Taupo DME,DME,ENROUTE,116700,114X,1138000,1201000,,,,,125,-38.74321,176.07429,1335,NZ,,,NZ
apg-dme-sb,APG,Alto Paraiso De Goias DME,DME,ENROUTE,112300,70X,1094000,1157000,,,,,130,-14.11941,-47.52655,4413,SB,,,BR
arm-dme-yb,ARM,Armidale DME,DME,ENROUTE,112600,73X,1097000,1160000,,,,,40,-30.52772,151.61539,3559,YB,,,AU
ase-dme-es,ASE,Arlanda (Stockholm) DME,DME,ENROUTE,114450,91Y,1115000,1052000,,,,,40,59.63719,17.95736,145,ES,,,SE
asp-dme-k5,ASP,Au Sable (Oscoda) DME,DME,ENROUTE,116100,108X,1132000,1195000,,,,,130,44.44913,-83.39428,625,K5,,,US
asw-dme-es,ASW,Arlanda (Stockholm) DME,DME,ENROUTE,113750,84Y,1108000,1045000,,,,,40,59.58769,17.81969,234,ES,,,SE
aug-dme-ed,AUG,Augsburg DME,DME,ENROUTE,115900,106X,1130000,1193000,,,,,125,48.42511,10.93764,1548,ED,,,DE
aye-dme-ym,AYE,Ayers Rock DME,DME,ENROUTE,117100,118X,1142000,1205000,,,,,130,-25.17146,130.97477,1757,YM,,,AU
bac-dme-lr,BAC,Bacau DME,DME,ENROUTE,117400,121X,1145000,1208000,,,,,130,46.50139,26.91806,700,LR,,,RO
bah-dme-uk,BAH,Bakhmach DME,DME,ENROUTE,116700,114X,1138000,1201000,,,,,130,51.06500,32.88667,520,UK,,,UA
bai-dme-lr,BAI,Baisoara DME,DME,ENROUTE,117950,126Y,1150000,1087000,,,,,130,46.49111,23.23667,6000,LR,,,RO
bak-dme-es,BAK,Backa DME,DME,ENROUTE,112700,74X,1098000,1161000,,,,,130,57.55517,11.97683,337,ES,,,SE
bar-dme-zm,BAR,Baruun-Urt DME,DME,ENROUTE,116700,114X,1138000,1201000,,,,,40,46.67000,113.28583,3346,ZM,,,MN
bde-dme-k3,BDE,Baudette DME,DME,ENROUTE,111600,53X,1077000,1014000,,,,,40,48.72280,-94.60729,1083,K3,,,US
bel-dme-ek,BEL,Bella DME,DME,ENROUTE,114650,93Y,1117000,1054000,,,,,130,55.79111,12.09583,135,EK,,,DK
bfd-dme-k6,BFD,Bradford DME,DME,ENROUTE,116600,113X,1137000,1200000,,,,,40,41.78639,-78.61935,2110,K6,,,US
bg-dme-uh,BG,Bogorodskoye DME,DME,ENROUTE,114600,93X,1117000,1180000,,,,,40,52.37889,140.44583,197,UH,,,RU
bge-dme-es,BGE,Bunge DME,DME,ENROUTE,116600,113X,1137000,1200000,,,,,130,57.85192,19.02961,131,ES,,,SE
bj-dme-uu,BJ,Bely DME,DME,ENROUTE,114200,89X,1113000,1176000,,,,,40,55.85417,32.93889,787,UU,,,RU
bku-dme-ug,BKU,Bakuriani DME,DME,ENROUTE,110600,43X,1067000,1004000,,,,,130,41.69472,43.54333,9000,UG,,,GE
bl-dme-us,BL,Khoroshenkoye DME,DME,ENROUTE,108200,19X,1043000,980000,,,,,130,53.54556,50.58528,591,US,,,RU
bla-dme-en,BLA,Blaenga DME,DME,ENROUTE,115200,99X,1123000,1186000,,,,,40,60.65496,11.72881,2161,EN,,,NO
blc-dme-eg,BLC,Blackbushe DME,DME,ENROUTE,116200,109X,1133000,1196000,,,,,40,51.32340,-0.84486,341,EG,,,GB
bm-dme-nz,BM,Blenheim DME,DME,ENROUTE,117900,126X,1150000,1213000,,,,,125,-41.50528,174.03194,120,NZ,,,NZ
bml-dme-k6,BML,Berlin DME,DME,ENROUTE,116550,112Y,1136000,1073000,,,,,130,44.63353,-71.18619,1730,K6,,,US
bnd-dme-ed,BND,Bremen DME,DME,ENROUTE,113650,83Y,1107000,1044000,,,,,40,53.04405,8.78214,33,ED,,,DE
bqm-dme-k5,BQM,Bowman (Louisville) DME,DME,ENROUTE,112200,59X,1083000,1020000,,,,,25,38.23022,-85.66474,542,K5,,,US
brc-dme-ld,BRC,Brac DME,DME,ENROUTE,115450,101Y,1125000,1062000,,,,,130,43.28248,16.62245,2564,LD,,,HR
brg-dme-k2,BRG,Belen DME,DME,ENROUTE,114750,94Y,1118000,1055000,,,,,130,34.64972,-106.83306,5190,K2,,,US
brm-dme-yb,BRM,Broome DME,DME,ENROUTE,115300,100X,1124000,1187000,,,,,125,-17.94681,122.23478,43,YB,,,AU
bs-dme-rp,BS,Basco DME,DME,ENROUTE,116000,107X,1131000,1194000,,,,,125,20.44948,121.97447,309,RP,,,PH
bsn-dme-lf,BSN,Boursonne DME,DME,ENROUTE,114850,95Y,1119000,1056000,,,,,130,49.18831,3.05653,632,LF,,,FR
btm-dme-ug,BTM,Batumi DME,DME,ENROUTE,108400,21X,1045000,982000,,,,,130,41.60639,41.60167,100,UG,,,GE
bua-dme-k3,BUA,Buffalo DME,DME,ENROUTE,109400,31X,1055000,992000,,,,,25,45.55220,-103.45637,3014,K3,,,US
bul-dme-zm,BUL,Bulgan DME,DME,ENROUTE,115900,106X,1130000,1193000,,,,,40,48.85417,103.48417,4331,ZM,,,MN
bur-dme-zm,BUR,Bor-Undur DME,DME,ENROUTE,116800,115X,1139000,1202000,,,,,40,46.23250,109.39694,4429,ZM,,,MN
buu-dme-k5,BUU,Burbun (Burlington) DME,DME,ENROUTE,114500,92X,1116000,1179000,,,,,25,42.68932,-88.30178,772,K5,,,US
bv-dme-gc,BV,La Palma DME,DME,ENROUTE,112400,71X,1095000,1158000,,,,,130,28.60161,-17.75658,197,GC,,,ES
bvk-dme-pa,BVK,Buckland DME,DME,ENROUTE,113100,78X,1102000,1165000,,,,,130,65.97886,-161.14571,24,PA,,,US
bwg-dme-k5,BWG,Bowling Green DME,DME,ENROUTE,117900,126X,1150000,1213000,,,,,130,36.92874,-86.44343,568,K5,,,US
cai-dme-tv,CAI,Canouan (St. Vincent) DME,DME,ENROUTE,111400,51X,1075000,1012000,,,,,130,12.69623,-61.33924,98,TV,,,VC
cal-dme-sb,CAL,Caldas Novas DME,DME,ENROUTE,113200,79X,1103000,1166000,,,,,150,-17.72494,-48.61331,2300,SB,,,BR
cat-dme-rp,CAT,Caticlan DME,DME,ENROUTE,113400,81X,1105000,1168000,,,,,150,11.92437,121.95721,80,RP,,,PH
cba-dme-gm,CBA,Anfa DME,DME,ENROUTE,116900,116X,1140000,1203000,,,,,130,33.52150,-7.67719,365,GM,,,MA
cct-dme-k5,CCT,Central City DME,DME,ENROUTE,109800,35X,1059000,996000,,,,,40,37.38242,-87.26370,452,K5,,,US
ceu-dme-ge,CEU,Ceuta DME,DME,ENROUTE,117750,124Y,1148000,1085000,,,,,40,35.89250,-5.30528,1,GE,,,ES
cgi-dme-k3,CGI,Cape Girardeau DME,DME,ENROUTE,112900,76X,1100000,1163000,,,,,40,37.22754,-89.57241,340,K3,,,US
cgn-dme-lf,CGN,Charles-De-Gaulle (Paris) DME,DME,ENROUTE,115350,100Y,1124000,1061000,,,,,25,49.01992,2.50011,385,LF,,,FR
chu-dme-lr,CHU,Dealul Ciuhii DME,DME,ENROUTE,109200,29X,1053000,990000,,,,,130,46.18306,24.82056,2500,LR,,,RO
ci-dme-nz,CI,Chatham (Chatham Islands) DME,DME,ENROUTE,116200,109X,1133000,1196000,,,,,130,-43.95702,-176.56634,50,NZ,,,NZ
cis-dme-mn,CIS,Corn Island DME,DME,ENROUTE,114400,91X,1115000,1178000,,,,,130,12.17417,-83.05778,45,MN,,,NI
cni-dme-lr,CNI,Cenei DME,DME,ENROUTE,115600,103X,1127000,1190000,,,,,130,45.71611,20.90750,300,LR,,,RO
cnt-dme-k2,CNT,Currant DME,DME,ENROUTE,114950,96Y,1120000,1057000,,,,,130,38.66833,-115.59889,4805,K2,,,US
cod-dme-ed,COD,Cochstedt DME,DME,ENROUTE,113350,80Y,1104000,1041000,,,,,40,51.85390,11.42334,598,ED,,,DE
com-dme-ym,COM,Cooma DME,DME,ENROUTE,114000,87X,1111000,1174000,,,,,125,-36.35431,148.95769,3117,YM,,,AU
csx-dme-k3,CSX,Cardinal DME,DME,ENROUTE,116450,111Y,1135000,1072000,,,,,130,38.75274,-90.36096,530,K3,,,US
ctw-dme-k5,CTW,Newcomerstown DME,DME,ENROUTE,111800,55X,1079000,1016000,,,,,40,40.22921,-81.47648,1180,K5,,,US
cva-dme-ls,CVA,Corvatsch DME,DME,ENROUTE,112050,57Y,1081000,1144000,,,,,130,46.41806,9.82167,10987,LS,,,CH
cvo-dme-sb,CVO,Curvelo DME,DME,ENROUTE,113400,81X,1105000,1168000,,,,,150,-18.74764,-44.45483,2288,SB,,,BR
cza-dme-ep,CZA,Czaplinek DME,DME,ENROUTE,117000,117X,1141000,1204000,,,,,130,53.50778,16.30111,591,EP,,,PL
czf-dme-pa,CZF,Cape Romanzof DME,DME,ENROUTE,116750,114Y,1138000,1075000,,,,,130,61.77601,-166.04344,428,PA,,,US
dar-dme-lp,DAR,Arouca DME,DME,ENROUTE,114900,96X,1120000,1183000,,,,,130,40.93333,-8.22528,2395,LP,,,PT
dar-dme-zm,DAR,Darkhan DME,DME,ENROUTE,115700,104X,1128000,1191000,,,,,40,49.49278,105.99250,3150,ZM,,,MN
dbe-dme-ut,DBE,Dushanbe DME,DME,ENROUTE,114200,89X,1113000,1176000,,,,,130,38.54178,68.82194,2461,UT,,,TJ
dcp-dme-rc,DCP,Pingtung DME,DME,ENROUTE,113500,82X,1106000,1169000,,,,,125,22.67139,120.42725,190,RC,,,TW
dcs-dme-eg,DCS,Dean Cross DME,DME,ENROUTE,115200,99X,1123000,1186000,,,,,130,54.72194,-3.34056,700,EG,,,GB
ddd-dme-k3,DDD,Port City DME,DME,ENROUTE,116500,112X,1136000,1199000,,,,,40,41.36630,-91.14928,543,K3,,,US
dfo-dme-sf,DFO,Stanley DME,DME,ENROUTE,113300,80X,1104000,1167000,,,,,125,-51.68450,-57.77754,88,SF,,,FK
dgg-dme-pa,DGG,Red Dog DME,DME,ENROUTE,108600,23X,1047000,984000,,,,,125,68.03249,-162.90417,950,PA,,,US
dht-dme-lp,DHT,Monte Da Guia DME,DME,ENROUTE,113600,83X,1107000,1170000,,,,,130,38.52000,-28.62944,427,LP,,,PT
di-dme-fm,DI,Antsiranana DME,DME,ENROUTE,112100,58X,1082000,1019000,,,,,40,-12.34938,49.29502,374,FM,,,MG
dia-dme-ep,DIA,Dzialyn DME,DME,ENROUTE,117950,126Y,1150000,1087000,,,,,130,53.07944,21.17556,492,EP,,,PL
dkk-dme-k6,DKK,Dunkirk DME,DME,ENROUTE,116200,109X,1133000,1196000,,,,,130,42.49040,-79.27410,681,K6,,,US
dlz-dme-zm,DLZ,Dalanzadgad DME,DME,ENROUTE,115300,100X,1124000,1187000,,,,,40,43.59833,104.42861,4823,ZM,,,MN
dml-dme-lp,DML,Alcaria Ruiva DME,DME,ENROUTE,114500,92X,1116000,1179000,,,,,130,37.70075,-7.76364,1181,LP,,,PT
dmn-dme-ed,DMN,Munich DME,DME,ENROUTE,116000,107X,1131000,1194000,,,,,40,48.36688,11.79401,1480,ED,,,DE
dmr-dme-lp,DMR,Marao DME,DME,ENROUTE,114600,93X,1117000,1180000,,,,,130,41.24806,-7.88639,4692,LP,,,PT
dms-dme-ed,DMS,Munich DME,DME,ENROUTE,115000,97X,1121000,1184000,,,,,40,48.34069,11.77817,1505,ED,,,DE
dmt-dme-lp,DMT,Montargil DME,DME,ENROUTE,110800,45X,1069000,1006000,,,,,130,39.07722,-8.18750,800,LP,,,PT
dmt-dme-sb,DMT,Diamantina DME,DME,ENROUTE,112400,71X,1095000,1158000,,,,,150,-18.23165,-43.64827,4449,SB,,,BR
dmu-dme-lp,DMU,Muro DME,DME,ENROUTE,113800,85X,1109000,1172000,,,,,130,41.81278,-8.19528,4560,LP,,,PT
dnd-dme-ed,DND,Wax DME,DME,ENROUTE,115400,101X,1125000,1188000,,,,,40,51.12950,13.75757,761,ED,,,DE
dnr-dme-ut,DNR,Dangara DME,DME,ENROUTE,114100,88X,1112000,1175000,,,,,130,38.26316,69.22186,7615,UT,,,TJ
dom-dme-td,DOM,Douglas Charles DME,DME,ENROUTE,116400,111X,1135000,1198000,,,,,150,15.55056,-61.29556,63,TD,,,DM
dre-dme-ep,DRE,Drezdenko DME,DME,ENROUTE,115300,100X,1124000,1187000,,,,,130,52.81694,15.83250,197,EP,,,PL
dsk-dme-um,DSK,Dashki DME,DME,ENROUTE,114250,89Y,1113000,1050000,,,,,40,54.24583,27.48044,1200,UM,,,BY
duc-dme-k4,DUC,Duncan DME,DME,ENROUTE,111000,47X,1071000,1008000,,,,,40,34.38436,-97.91694,1089,K4,,,US
dud-dme-eg,DUD,Dundonald DME,DME,ENROUTE,115450,101Y,1125000,1062000,,,,,130,55.55889,-4.60167,506,EG,,,GB
dut-dme-pa,DUT,Dutch Harbor DME,DME,ENROUTE,113900,86X,1110000,1173000,,,,,125,53.90498,-166.54881,272,PA,,,US
e3-dme-cy,E3,Wabasca DME,DME,ENROUTE,110400,41X,1065000,1002000,,,,,125,55.96333,-113.82333,1820,CY,,,CA
eaa-dme-pa,EAA,Eagle DME,DME,ENROUTE,114250,89Y,1113000,1050000,,,,,125,64.77778,-141.14064,853,PA,,,US
ecb-dme-k5,ECB,Newcombe DME,DME,ENROUTE,110400,41X,1065000,1002000,,,,,40,38.15836,-82.91006,1070,K5,,,US
efd-dme-ed,EFD,Erfurt DME,DME,ENROUTE,112050,57Y,1081000,1144000,,,,,40,50.98261,10.95772,1075,ED,,,DE
eko-dme-en,EKO,Ekofisk-L DME,DME,ENROUTE,115300,100X,1124000,1187000,,,,,130,56.54227,3.22368,268,EN,,,NO
elo-dme-k3,ELO,Ely DME,DME,ENROUTE,109600,33X,1057000,994000,,,,,40,47.82190,-91.83014,1489,K3,,,US
elz-dme-k6,ELZ,Wellsville DME,DME,ENROUTE,111400,51X,1075000,1012000,,,,,40,42.08965,-77.99956,2297,K6,,,US
emo-dme-lb,EMO,Emona DME,DME,ENROUTE,113650,83Y,1107000,1044000,,,,,130,42.75306,27.75861,1800,LB,,,BG
enw-dme-k5,ENW,Kenosha DME,DME,ENROUTE,109200,29X,1053000,990000,,,,,25,42.59906,-87.93173,734,K5,,,US
erb-dme-en,ERB,Ertsrudberget DME,DME,ENROUTE,116250,109Y,1133000,1070000,,,,,40,60.28248,11.54748,1446,EN,,,NO
ese-dme-ek,ESE,Esebo DME,DME,ENROUTE,116600,113X,1137000,1200000,,,,,130,55.52250,8.55861,54,EK,,,DK
ewa-dme-k7,EWA,Kewanee DME,DME,ENROUTE,113800,85X,1109000,1172000,,,,,40,32.36767,-88.45717,342,K7,,,US
fah-dme-k5,FAH,Falls (Sheboygan) DME,DME,ENROUTE,110000,37X,1061000,998000,,,,,40,43.76879,-87.84877,744,K5,,,US
far-dme-lp,FAR,Faro DME,DME,ENROUTE,111200,49X,1073000,1010000,,,,,25,37.00881,-7.92581,100,LP,,,PT
fdn-dme-fm,FDN,Tolagnaro DME,DME,ENROUTE,115300,100X,1124000,1187000,,,,,40,-25.03767,46.95306,98,FM,,,MG
fen-dme-es,FEN,Fengersfors DME,DME,ENROUTE,115350,100Y,1124000,1061000,,,,,130,58.91692,12.29683,608,ES,,,SE
fhd-dme-ed,FHD,Friedrichshafen DME,DME,ENROUTE,112600,73X,1097000,1160000,,,,,40,47.66752,9.50504,1354,ED,,,DE
fhh-dme-ed,FHH,Hahn DME,DME,ENROUTE,117350,120Y,1144000,1081000,,,,,40,49.94165,7.26060,1668,ED,,,DE
flp-dme-k4,FLP,Flippin DME,DME,ENROUTE,116050,107Y,1131000,1068000,,,,,130,36.29965,-92.45839,782,K4,,,US
frd-dme-ed,FRD,Fred DME,DME,ENROUTE,115900,106X,1130000,1193000,,,,,40,50.02981,8.56821,440,ED,,,DE
fre-dme-lo,FRE,Freistadt DME,DME,ENROUTE,113500,82X,1106000,1169000,,,,,130,48.43178,14.12983,2014,LO,,,AT
frl-dme-es,FRL,Farila DME,DME,ENROUTE,116500,112X,1136000,1199000,,,,,130,61.81822,15.84586,1233,ES,,,SE
frm-dme-k3,FRM,Fairmont DME,DME,ENROUTE,110200,39X,1063000,1000000,,,,,40,43.64598,-94.42255,1164,K3,,,US
fro-dme-eh,FRO,Lelystad DME,DME,ENROUTE,111400,51X,1075000,1012000,,,,,130,52.45257,5.50806,1,EH,,,NL
frt-dme-eh,FRT,Haastrecht DME,DME,ENROUTE,117150,118Y,1142000,1079000,,,,,130,52.00435,4.76913,1,EH,,,NL
fu-dme-ng,FU,Funafuti DME,DME,ENROUTE,113300,80X,1104000,1167000,,,,,130,-8.52458,179.19752,39,NG,,,TV
fue-dme-gc,FUE,Fuerteventura DME,DME,ENROUTE,108000,17X,1041000,978000,,,,,40,28.38246,-13.86617,98,GC,,,ES
gam-dme-pa,GAM,Gambell DME,DME,ENROUTE,114500,92X,1116000,1179000,,,,,130,63.78187,-171.73678,30,PA,,,US
gbd-dme-rj,GBD,Goboh DME,DME,ENROUTE,116900,116X,1140000,1203000,,,,,130,33.91010,135.10618,1118,RJ,,,JP
gco-dme-k5,GCO,Chicago DME,DME,ENROUTE,108250,19Y,1043000,1106000,,,,,40,41.99409,-87.90233,646,K5,,,US
gfc-dme-en,GFC,Gullfaks DME,DME,ENROUTE,113650,83Y,1107000,1044000,,,,,130,61.21472,2.27361,312,EN,,,NO
gg-dme-uu,GG,Gagarin DME,DME,ENROUTE,112200,59X,1083000,1020000,,,,,130,55.55500,35.02194,689,UU,,,RU
ghm-dme-k7,GHM,Graham (Centerville) DME,DME,ENROUTE,111600,53X,1077000,1014000,,,,,40,35.83392,-87.45176,775,K7,,,US
gl-dme-uw,GL,Golitsyno DME,DME,ENROUTE,110800,45X,1069000,1006000,,,,,40,53.62778,44.12278,591,UW,,,RU
glo-dme-eg,GLO,Green Lowther DME,DME,ENROUTE,109650,33Y,1057000,1120000,,,,,130,55.39000,-3.73667,2408,EG,,,GB
glw-dme-uu,GLW,Glotayevo DME,DME,ENROUTE,113500,82X,1106000,1169000,,,,,130,55.16278,37.79861,689,UU,,,RU
gmn-dme-ei,GMN,Gormanston DME,DME,ENROUTE,112900,76X,1100000,1163000,,,,,130,53.64681,-6.23492,100,EI,,,IE
gnp-dme-k4,GNP,Glenpool (Tulsa) DME,DME,ENROUTE,110600,43X,1067000,1004000,,,,,25,35.92090,-95.96865,810,K4,,,US
gog-dme-k2,GOG,Goodsprings DME,DME,ENROUTE,112050,57Y,1081000,1144000,,,,,130,35.89425,-115.49608,6202,K2,,,US
grv-dme-k6,GRV,Grantsville DME,DME,ENROUTE,112300,70X,1094000,1157000,,,,,40,39.63503,-79.05053,2640,K6,,,US
gsb-dme-lo,GSB,Gaisberg DME,DME,ENROUTE,109450,31Y,1055000,1118000,,,,,130,47.80511,13.11161,4280,LO,,,AT
gte-dme-yb,GTE,Groote Eylandt DME,DME,ENROUTE,114800,95X,1119000,1182000,,,,,125,-13.97536,136.45496,63,YB,,,AU
gtg-dme-ei,GTG,Glenteig DME,DME,ENROUTE,114150,88Y,1112000,1049000,,,,,130,52.85308,-6.14553,1000,EI,,,IE
gth-dme-k4,GTH,Guthrie DME,DME,ENROUTE,114500,92X,1116000,1179000,,,,,40,33.77828,-100.33620,1941,K4,,,US
gud-dme-ug,GUD,Gudauri DME,DME,ENROUTE,110800,45X,1069000,1006000,,,,,130,42.49167,44.49611,8900,UG,,,GE
gun-dme-en,GUN,Gunnarberget DME,DME,ENROUTE,116900,116X,1140000,1203000,,,,,40,77.64922,15.07936,2578,EN,,,SJ
gup-dme-sb,GUP,Gurupi DME,DME,ENROUTE,114200,89X,1113000,1176000,,,,,40,-11.73631,-49.13649,1181,SB,,,BR
gvr-dme-k5,GVR,Hanover (Madison) DME,DME,ENROUTE,114650,93Y,1117000,1054000,,,,,130,38.75834,-85.47064,806,K5,,,US
gx-dme-cy,GX,Gillam DME,DME,ENROUTE,114400,91X,1115000,1178000,,,,,125,56.35722,-94.70361,511,CY,,,CA
gzp-dme-lt,GZP,Gazipasa DME,DME,ENROUTE,114200,89X,1113000,1176000,,,,,130,36.30439,32.29750,217,LT,,,TR
hab-dme-k7,HAB,Hamilton DME,DME,ENROUTE,110400,41X,1065000,1002000,,,,,40,34.19877,-88.01162,802,K7,,,US
had-dme-ed,HAD,Hannover DME,DME,ENROUTE,113950,86Y,1110000,1047000,,,,,25,52.46875,9.69551,186,ED,,,DE
hay-dme-lt,HAY,Haymana DME,DME,ENROUTE,111800,55X,1079000,1016000,,,,,130,39.43664,32.50950,4275,LT,,,TR
hbd-dme-ed,HBD,Hannover DME,DME,ENROUTE,116900,116X,1140000,1203000,,,,,40,52.45526,9.65927,211,ED,,,DE
hbt-dme-pa,HBT,Borland (Sand Point) DME,DME,ENROUTE,113200,79X,1103000,1166000,,,,,130,55.31582,-160.51950,130,PA,,,US
hdw-dme-eg,HDW,Haverfordwest DME,DME,ENROUTE,116750,114Y,1138000,1075000,,,,,40,51.83201,-4.97012,201,EG,,,GB
hei-dme-en,HEI,Heidrun DME,DME,ENROUTE,115050,97Y,1121000,1058000,,,,,130,65.32556,7.31586,263,EN,,,NO
hgg-dme-es,HGG,Landvetter DME,DME,ENROUTE,113950,86Y,1110000,1047000,,,,,40,57.57936,12.31211,675,ES,,,SE
hig-dme-le,HIG,San Sebastian DME,DME,ENROUTE,113200,79X,1103000,1166000,,,,,25,43.38628,-1.79578,394,LE,,,ES
hk-dme-nz,HK,Hokitika DME,DME,ENROUTE,117500,122X,1146000,1209000,,,,,125,-42.72934,170.95622,150,NZ,,,NZ
hl-dme-nz,HL,Henley (Dunedin) DME,DME,ENROUTE,115700,104X,1128000,1191000,,,,,125,-45.94588,170.16193,131,NZ,,,NZ
hle-dme-k1,HLE,Hailey DME,DME,ENROUTE,108800,25X,1049000,986000,,,,,125,43.32979,-114.24372,4973,K1,,,US
hls-dme-eg,HLS,Lashenden DME,DME,ENROUTE,115950,106Y,1130000,1067000,,,,,40,51.15429,0.65060,72,EG,,,GB
hnd-dme-ut,HND,Khujand DME,DME,ENROUTE,114300,90X,1114000,1177000,,,,,130,40.21403,69.70150,1476,UT,,,TJ
hoc-dme-ls,HOC,Hochwald DME,DME,ENROUTE,113200,79X,1103000,1166000,,,,,130,47.46656,7.66544,2425,LS,,,CH
hot-dme-es,HOT,Hoting DME,DME,ENROUTE,115700,104X,1128000,1191000,,,,,130,64.23425,15.93328,2153,ES,,,SE
hr-dme-gc,HR,El Hierro DME,DME,ENROUTE,113200,79X,1103000,1166000,,,,,40,27.81606,-17.88644,98,GC,,,ES
hrk-dme-k5,HRK,Horlick (Racine) DME,DME,ENROUTE,117700,124X,1148000,1211000,,,,,25,42.76217,-87.81473,663,K5,,,US
hsa-dme-oi,HSA,Hesa (Esfahan) DME,DME,ENROUTE,113450,81Y,1105000,1042000,,,,,40,32.93258,51.56011,5256,OI,,,IR
huw-dme-k3,HUW,Hutton DME,DME,ENROUTE,111600,53X,1077000,1014000,,,,,40,36.87138,-91.89999,1222,K3,,,US
hvn-dme-k6,HVN,New Haven DME,DME,ENROUTE,109800,35X,1059000,996000,,,,,25,41.26231,-72.88518,6,K6,,,US
hyd-dme-rj,HYD,Yokosuka DME,DME,ENROUTE,116200,109X,1133000,1196000,,,,,130,35.25559,139.58746,502,RJ,,,JP
hyr-dme-k5,HYR,Hayward DME,DME,ENROUTE,113400,81X,1105000,1168000,,,,,40,46.01901,-91.44639,1208,K5,,,US
idq-dme-k1,IDQ,Cottonwood DME,DME,ENROUTE,115650,103Y,1127000,1064000,,,,,130,46.06547,-116.46475,5731,K1,,,US
ijx-dme-k5,IJX,Jacksonville DME,DME,ENROUTE,108600,23X,1047000,984000,,,,,25,39.77652,-90.23861,614,K5,,,US
ikk-dme-k5,IKK,Kankakee DME,DME,ENROUTE,111600,53X,1077000,1014000,,,,,40,41.07438,-87.85016,618,K5,,,US
ikm-dme-uu,IKM,Kamenka DME,DME,ENROUTE,111600,53X,1077000,1014000,,,,,130,55.22194,36.99500,689,UU,,,RU
iko-dme-uu,IKO,Kostino DME,DME,ENROUTE,113200,79X,1103000,1166000,,,,,130,56.30222,37.71139,787,UU,,,RU
ili-dme-pa,ILI,Iliamna DME,DME,ENROUTE,114400,91X,1115000,1178000,,,,,125,59.74753,-154.91015,209,PA,,,US
irn-dme-ut,IRN,Istaravshan DME,DME,ENROUTE,113900,86X,1110000,1173000,,,,,130,40.06058,68.94569,2251,UT,,,TJ
isi-dme-lr,ISI,Iasi DME,DME,ENROUTE,113500,82X,1106000,1169000,,,,,130,47.23431,27.57942,300,LR,,,RO
isq-dme-k5,ISQ,Schoolcraft Co. (Manistique) DME,DME,ENROUTE,114850,95Y,1119000,1056000,,,,,40,45.97634,-86.17344,680,K5,,,US
ith-dme-k6,ITH,Ithaca DME,DME,ENROUTE,111800,55X,1079000,1016000,,,,,40,42.49503,-76.45973,1112,K6,,,US
iv-dme-cy,IV,Island Lake DME,DME,ENROUTE,116000,107X,1131000,1194000,,,,,125,53.85333,-94.65333,806,CY,,,CA
izb-dme-ep,IZB,Izbica DME,DME,ENROUTE,117400,121X,1145000,1208000,,,,,130,50.87750,23.14944,787,EP,,,PL
izd-dme-lw,IZD,Izdeglavje DME,DME,ENROUTE,108000,17X,1041000,978000,,,,,25,41.34306,20.82056,2815,LW,,,MK
jap-dme-ld,JAP,Japetic DME,DME,ENROUTE,117650,123Y,1147000,1084000,,,,,130,45.74449,15.60818,2927,LD,,,HR
jbt-dme-rc-rcfn,JBT,Jhihben (Taitung) DME,DME,TERMINAL,108200,19X,1043000,980000,,,,,25,22.70903,121.09436,65,RC,RCFN,,TW
jed-dme-ep,JED,Jedrzejow DME,DME,ENROUTE,115600,103X,1127000,1190000,,,,,130,50.64722,20.25111,984,EP,,,PL
jir-dme-oi,JIR,Jiroft DME,DME,ENROUTE,112600,73X,1097000,1160000,,,,,125,28.73083,57.67186,2751,OI,,,IR
jns-dme-ef,JNS,Josie (Joensuu) DME,DME,ENROUTE,115700,104X,1128000,1191000,,,,,130,62.66050,29.61052,413,EF,,,FI
jps-dme-sb,JPS,Joao Pessoa DME,DME,ENROUTE,114000,87X,1111000,1174000,,,,,150,-7.14650,-34.94788,265,SB,,,BR
jrm-dme-oi,JRM,Jahrom DME,DME,ENROUTE,113800,85X,1109000,1172000,,,,,40,28.58508,53.58419,3374,OI,,,IR
jxn-dme-k5,JXN,Jackson DME,DME,ENROUTE,115450,101Y,1125000,1062000,,,,,40,42.25924,-84.45855,994,K5,,,US
ka-dme-uu,KA,Tunoshna (Yaroslavl) DME,DME,ENROUTE,109400,31X,1055000,992000,,,,,40,57.56250,40.17361,394,UU,,,RU
kad-dme-ef-efhk,KAD,Kadis (Helsinki) DME,DME,TERMINAL,117500,122X,1146000,1209000,,,,,25,60.14700,25.08107,138,EF,EFHK,,FI
kal-dme-lb,KAL,Kalotina DME,DME,ENROUTE,117550,122Y,1146000,1083000,,,,,130,42.94917,22.87500,3200,LB,,,BG
kbd-dme-ed,KBD,Karlsruhe/Baden-Baden DME,DME,ENROUTE,115800,105X,1129000,1192000,,,,,130,48.78023,8.08849,483,ED,,,DE
kg-dme-uu,KG,Krasnaya Gorbatka DME,DME,ENROUTE,110600,43X,1067000,1004000,,,,,130,55.86806,41.78417,492,UU,,,RU
khm-dme-oi,KHM,Gheshm Island DME,DME,ENROUTE,117100,118X,1142000,1205000,,,,,40,26.76308,55.90767,31,OI,,,IR
kk-dme-nz,KK,Kerikeri DME,DME,ENROUTE,116100,108X,1132000,1195000,,,,,125,-35.26247,173.91119,556,NZ,,,NZ
kka-dme-pa,KKA,Koyuk DME,DME,ENROUTE,113600,83X,1107000,1170000,,,,,130,64.93641,-161.15513,119,PA,,,US
kla-dme-ef,KLA,Kantola (Kuusamo) DME,DME,ENROUTE,114400,91X,1115000,1178000,,,,,130,65.99173,29.23584,923,EF,,,FI
klb-dme-ut,KLB,Kulob DME,DME,ENROUTE,114400,91X,1115000,1178000,,,,,130,37.98447,69.80172,2067,UT,,,TJ
kmi-dme-ep,KMI,Kmiecin DME,DME,ENROUTE,116800,115X,1139000,1202000,,,,,130,54.20167,19.14472,98,EP,,,PL
knd-dme-va,KND,Kandla DME,DME,ENROUTE,117700,124X,1148000,1211000,,,,,40,23.11142,70.10381,112,VA,,,IN
kni-dme-ef,KNI,Kainuu (Kajaani) DME,DME,ENROUTE,114900,96X,1120000,1183000,,,,,130,64.28254,27.65577,447,EF,,,FI
kns-dme-ef,KNS,Kaunis (Ivalo) DME,DME,ENROUTE,115800,105X,1129000,1192000,,,,,40,68.45400,27.45151,1374,EF,,,FI
ko-dme-uu,KO,Karmanovo DME,DME,ENROUTE,116400,111X,1135000,1198000,,,,,130,55.83333,34.85944,787,UU,,,RU
kor-dme-lo,KOR,Koralpe DME,DME,ENROUTE,109400,31X,1055000,992000,,,,,130,46.78734,14.97103,7041,LO,,,AT
krd-dme-ee,KRD,Kardla DME,DME,ENROUTE,117600,123X,1147000,1210000,,,,,40,58.99208,22.83097,100,EE,,,EE
krn-dme-ep,KRN,Karnice DME,DME,ENROUTE,117800,125X,1149000,1212000,,,,,130,51.94639,20.44472,591,EP,,,PL
ksn-dme-uk,KSN,Koshany DME,DME,ENROUTE,108600,23X,1047000,984000,,,,,130,50.94597,30.97781,480,UK,,,UA
kt-dme-nz,KT,Kaitaia DME,DME,ENROUTE,115800,105X,1129000,1192000,,,,,125,-35.02939,173.24117,270,NZ,,,NZ
ktb-dme-ut,KTB,Bokhtar DME,DME,ENROUTE,114500,92X,1116000,1179000,,,,,130,37.85972,68.86192,1378,UT,,,TJ
ktg-dme-rc,KTG,Hengchun DME,DME,ENROUTE,112700,74X,1098000,1161000,,,,,130,22.04378,120.73058,58,RC,,,TW
ktz-dme-um,KTZ,Khatzezhyna DME,DME,ENROUTE,115450,101Y,1125000,1062000,,,,,40,53.91511,27.28122,1100,UM,,,BY
ku-dme-un,KU,Biysk DME,DME,ENROUTE,111000,47X,1071000,1008000,,,,,130,52.46472,85.41389,689,UN,,,RU
ku-dme-uu,KU,Skuratovo DME,DME,ENROUTE,115200,99X,1123000,1186000,,,,,130,53.57333,37.05500,886,UU,,,RU
kvr-dme-uk,KVR,Kryvyi Rih DME,DME,ENROUTE,116000,107X,1131000,1194000,,,,,40,48.05100,33.21214,430,UK,,,UA
ky-dme-uu,KY,Kromy DME,DME,ENROUTE,110200,39X,1063000,1000000,,,,,130,52.71444,35.74472,886,UU,,,RU
kzl-dme-un,KZL,Kyzyl DME,DME,ENROUTE,112300,70X,1094000,1157000,,,,,130,51.59361,94.20944,2165,UN,,,RU
lap-dme-ls,LAP,La Praz DME,DME,ENROUTE,110650,43Y,1067000,1130000,,,,,130,46.67611,6.41333,4244,LS,,,CH
laz-dme-ur,LAZ,Lazarevskoye DME,DME,ENROUTE,117400,121X,1145000,1208000,,,,,130,43.90917,39.33694,131,UR,,,RU
lhi-dme-yb,LHI,Lord Howe DME,DME,ENROUTE,114300,90X,1114000,1177000,,,,,125,-31.52900,159.07258,43,YB,,,AU
lin-dme-ep,LIN,Linin DME,DME,ENROUTE,113100,78X,1102000,1165000,,,,,130,51.93278,21.15861,492,EP,,,PL
ljt-dme-k5,LJT,Timmerman (Milwaukee) DME,DME,ENROUTE,115650,103Y,1127000,1064000,,,,,40,43.10977,-88.03728,737,K5,,,US
lld-dme-ed-eddp,LLD,Schkeuditz South (Leipzig-Halle) DME,DME,TERMINAL,112150,58Y,1082000,1145000,,,,,125,51.41499,12.23019,489,ED,EDDP,,DE
lme-dme-ek,LME,Lemme DME,DME,ENROUTE,115350,100Y,1124000,1061000,,,,,130,55.99278,8.35444,76,EK,,,DK
lmx-dme-k2,LMX,Alamo DME,DME,ENROUTE,113650,83Y,1107000,1044000,,,,,130,37.36234,-115.19306,3712,K2,,,US
lnd-dme-ed,LND,Schkeuditz North (Leipzig-Halle) DME,DME,ENROUTE,113500,82X,1106000,1169000,,,,,125,51.43431,12.22571,446,ED,,,DE
lnr-dme-k5,LNR,Lone Rock DME,DME,ENROUTE,116050,107Y,1131000,1068000,,,,,40,43.29440,-90.13315,1185,K5,,,US
lp-dme-uu,LP,Chulkovo DME,DME,ENROUTE,109200,29X,1053000,990000,,,,,130,55.55278,38.03556,787,UU,,,RU
lpz-dme-sl,LPZ,La Paz DME,DME,ENROUTE,114100,88X,1112000,1175000,,,,,130,-16.50778,-68.16917,13314,SL,,,BO
lrd-dme-ed,LRD,Lahr DME,DME,ENROUTE,108050,17Y,1041000,1104000,,,,,40,48.36414,7.82752,559,ED,,,DE
lse-dme-k5,LSE,La Crosse DME,DME,ENROUTE,108400,21X,1045000,982000,,,,,25,43.87613,-91.25599,649,K5,,,US
lsj-dme-ld,LSJ,Losinj DME,DME,ENROUTE,108450,21Y,1045000,1108000,,,,,130,44.51590,14.49102,722,LD,,,HR
luk-dme-ld,LUK,Lukavec DME,DME,ENROUTE,109850,35Y,1059000,1122000,,,,,40,45.69054,15.99247,471,LD,,,HR
lwv-dme-k5,LWV,Lawrenceville DME,DME,ENROUTE,108800,25X,1049000,986000,,,,,25,38.76987,-87.60383,430,K5,,,US
mag-dme-zm,MAG,Mandalgobi DME,DME,ENROUTE,115800,105X,1129000,1192000,,,,,40,45.74417,106.26556,4626,ZM,,,MN
maj-dme-pk,MAJ,Majuro (Marshall Is.) DME,DME,ENROUTE,116700,114X,1138000,1201000,,,,,125,7.06536,171.26884,4,PK,,,MH
mbl-dme-es,MBL,Morbylanga DME,DME,ENROUTE,115600,103X,1127000,1190000,,,,,130,56.27297,16.40903,114,ES,,,SE
mbt-dme-rp,MBT,Masbate DME,DME,ENROUTE,115700,104X,1128000,1191000,,,,,25,12.36923,123.63051,55,RP,,,PH
mcm-dme-ei,MCM,Mohercrom DME,DME,ENROUTE,114400,91X,1115000,1178000,,,,,40,53.91033,-6.90128,1100,EI,,,IE
mer-dme-ym,MER,Merimbula DME,DME,ENROUTE,117700,124X,1148000,1211000,,,,,125,-36.91453,149.89927,90,YM,,,AU
mgr-dme-k7,MGR,Moultrie DME,DME,ENROUTE,108800,25X,1049000,986000,,,,,40,31.08227,-83.80422,286,K7,,,US
mhd-dme-ed,MHD,Moenchengladbach DME,DME,ENROUTE,112500,72X,1096000,1159000,,,,,40,51.23491,6.49197,151,ED,,,DE
mll-dme-ge,MLL,Melilla DME,DME,ENROUTE,117400,121X,1145000,1208000,,,,,40,35.30739,-2.95542,394,GE,,,ES
mmj-dme-k6,MMJ,Montour (Pittsburgh) DME,DME,ENROUTE,112000,57X,1081000,1018000,,,,,40,40.48800,-80.19383,1193,K6,,,US
mnd-dme-ed,MND,Mannheim DME,DME,ENROUTE,113550,82Y,1106000,1043000,,,,,25,49.47064,8.51598,341,ED,,,DE
mod-dme-ed,MOD,Muenster/Osnabrueck DME,DME,ENROUTE,114050,87Y,1111000,1048000,,,,,40,52.13797,7.68724,200,ED,,,DE
moe-dme-ay,MOE,Momote DME,DME,ENROUTE,113500,82X,1106000,1169000,,,,,125,-2.06167,147.42667,69,AY,,,PG
mor-dme-ay,MOR,Moro DME,DME,ENROUTE,114600,93X,1117000,1180000,,,,,40,-6.36287,143.25418,2780,AY,,,PG
mrn-dme-uu,MRN,Maryino DME,DME,ENROUTE,112500,72X,1096000,1159000,,,,,130,55.71139,38.22833,591,UU,,,RU
ms-dme-vt,MS,Mae Sot (Tak) DME,DME,ENROUTE,116700,114X,1138000,1201000,,,,,125,16.70194,98.53979,643,VT,,,TH
mto-dme-k5,MTO,Mattoon DME,DME,ENROUTE,109400,31X,1055000,992000,,,,,40,39.47789,-88.28621,714,K5,,,US
mts-dme-rc,MTS,Matsu DME,DME,ENROUTE,112700,74X,1098000,1161000,,,,,125,26.20111,119.96861,59,RC,,,TW
mtw-dme-k5,MTW,Manitowoc DME,DME,ENROUTE,111000,47X,1071000,1008000,,,,,25,44.12850,-87.67992,650,K5,,,US
mud-dme-ag,MUD,Munda DME,DME,ENROUTE,113800,85X,1109000,1172000,,,,,125,-8.33108,157.25491,94,AG,,,SB
mzr-dme-um,MZR,Mazyr DME,DME,ENROUTE,116450,111Y,1135000,1072000,,,,,40,52.03722,29.19167,700,UM,,,BY
nal-dme-en,NAL,Ny Alesund DME,DME,ENROUTE,112500,72X,1096000,1159000,,,,,40,78.93299,11.85383,57,EN,,,SJ
ne-dme-cy,NE,Norway House DME,DME,ENROUTE,115100,98X,1122000,1185000,,,,,125,53.97194,-97.84167,791,CY,,,CA
new-dme-eg,NEW,Newcastle DME,DME,ENROUTE,114250,89Y,1113000,1050000,,,,,130,55.03845,-1.69837,287,EG,,,GB
ngd-dme-ed,NGD,Nuernberg DME,DME,ENROUTE,113100,78X,1102000,1165000,,,,,40,49.50115,11.08015,1081,ED,,,DE
nid-dme-ed,NID,Niederrhein DME,DME,ENROUTE,115500,102X,1126000,1189000,,,,,40,51.59997,6.14148,142,ED,,,DE
nlk-dme-en,NLK,Nordliskampen DME,DME,ENROUTE,115600,103X,1127000,1190000,,,,,40,60.47441,10.98533,2382,EN,,,NO
nnn-dme-rc,NNN,Sigang DME,DME,ENROUTE,109800,35X,1059000,996000,,,,,130,23.13533,120.20631,46,RC,,,TW
nov-dme-li,NOV,Novara DME,DME,ENROUTE,111650,53Y,1077000,1140000,,,,,40,45.42408,8.79408,449,LI,,,IT
nq-dme-bg,NQ,Narsarsuaq DME,DME,ENROUTE,111850,55Y,1079000,1142000,,,,,40,61.16041,-45.40709,788,BG,,,GL
nsr-dme-oi,NSR,Noshahr DME,DME,ENROUTE,113900,86X,1110000,1173000,,,,,40,36.65981,51.46806,-64,OI,,,IR
nta-dme-ep,NTA,Nowy Targ DME,DME,ENROUTE,115950,106Y,1130000,1067000,,,,,130,49.34250,19.96750,3248,EP,,,PL
nu-dme-ni,NU,Niue DME,DME,ENROUTE,112700,74X,1098000,1161000,,,,,130,-19.07408,-169.91590,315,NI,,,NU
nx-dme-uu,NX,Nerl DME,DME,ENROUTE,111000,47X,1071000,1008000,,,,,130,57.03806,37.99528,492,UU,,,RU
ok-dme-uu,OK,Oktyabrskiy DME,DME,ENROUTE,108400,21X,1045000,982000,,,,,130,54.24056,38.90194,591,UU,,,RU
okt-dme-ay,OKT,Ok Tedi DME,DME,ENROUTE,114800,95X,1119000,1182000,,,,,125,-5.40990,141.31870,2519,AY,,,PG
olt-dme-pa,OLT,Soldotna DME,DME,ENROUTE,115900,106X,1130000,1193000,,,,,125,60.47530,-150.87870,223,PA,,,US
olx-dme-ep,OLX,Olesno DME,DME,ENROUTE,115400,101X,1125000,1188000,,,,,130,50.21167,20.93556,689,EP,,,PL
oom-dme-ym,OOM,Moomba DME,DME,ENROUTE,112000,57X,1081000,1018000,,,,,125,-28.10429,140.19965,135,YM,,,AU
oqk-dme-pa,OQK,Noatak DME,DME,ENROUTE,110200,39X,1063000,1000000,,,,,125,67.57011,-162.97262,85,PA,,,US
or-dme-nz,OR,Ohura DME,DME,ENROUTE,113000,77X,1101000,1164000,,,,,130,-38.82675,174.80670,1564,NZ,,,NZ
orm-dme-ef,ORM,Orimaa (Helsinki) DME,DME,ENROUTE,117300,120X,1144000,1207000,,,,,130,60.83350,25.76209,273,EF,,,FI
osy-dme-ep,OSY,Olsztyn DME,DME,ENROUTE,116250,109Y,1133000,1070000,,,,,130,53.74667,20.26417,591,EP,,,PL
oyn-dme-pa,OYN,Gold (Nome) DME,DME,ENROUTE,113800,85X,1109000,1172000,,,,,125,64.51251,-165.43244,54,PA,,,US
pan-dme-k2,PAN,Payson DME,DME,ENROUTE,116350,110Y,1134000,1071000,,,,,130,34.25441,-111.33527,5232,K2,,,US
pat-dme-lo,PAT,Patscherkofel DME,DME,ENROUTE,112000,57X,1081000,1018000,,,,,130,47.20857,11.46026,7368,LO,,,AT
pbz-dme-ey,PBZ,Paberze DME,DME,ENROUTE,117250,119Y,1143000,1080000,,,,,130,54.92723,25.23972,815,EY,,,LT
pck-dme-ep,PCK,Plock DME,DME,ENROUTE,117650,123Y,1147000,1084000,,,,,130,52.71167,19.57000,394,EP,,,PL
pe-dme-uu,PE,Petrovskoye DME,DME,ENROUTE,117200,119X,1143000,1206000,,,,,130,51.71833,40.18917,591,UU,,,RU
pep-dme-lw,PEP,Prilep DME,DME,ENROUTE,113750,84Y,1108000,1045000,,,,,130,41.33778,21.44861,2080,LW,,,MK
pgg-dme-es,PGG,Landvetter DME,DME,ENROUTE,113350,80Y,1104000,1041000,,,,,40,57.73261,12.19436,451,ES,,,SE
pjl-dme-es,PJL,Pajala DME,DME,ENROUTE,115350,100Y,1124000,1061000,,,,,130,67.24886,23.06228,594,ES,,,SE
pkr-dme-vn,PKR,Pokhara DME,DME,ENROUTE,112800,75X,1099000,1162000,,,,,130,28.20083,83.98472,2720,VN,,,NP
pl-dme-cy,PL,Pickle Lake DME,DME,ENROUTE,113700,84X,1108000,1171000,,,,,125,51.44361,-90.22278,1261,CY,,,CA
plg-dme-ey,PLG,Palanga DME,DME,ENROUTE,114800,95X,1119000,1182000,,,,,130,55.95653,21.08706,100,EY,,,LT
pmd-dme-ed,PMD,Schwerin-Parchim DME,DME,ENROUTE,117500,122X,1146000,1209000,,,,,40,53.42505,11.78496,170,ED,,,DE
pmi-dme-sb,PMI,Para De Minas DME,DME,ENROUTE,113700,84X,1108000,1171000,,,,,150,-19.84232,-44.60684,2933,SB,,,BR
pni-dme-pt,PNI,Pohnpei DME,DME,ENROUTE,111000,47X,1071000,1008000,,,,,130,6.98348,158.20212,10,PT,,,FM
pnn-dme-k6,PNN,Princeton DME,DME,ENROUTE,114300,90X,1114000,1177000,,,,,40,45.32920,-67.70419,398,K6,,,US
po-dme-uu,PO,Pochinok DME,DME,ENROUTE,114900,96X,1120000,1183000,,,,,130,57.71306,34.97222,689,UU,,,RU
poy-dme-lf,POY,Orly (Paris) DME,DME,ENROUTE,112150,58Y,1082000,1145000,,,,,25,48.73014,2.38978,327,LF,,,FR
pp-dme-nz,PP,Paraparaumu DME,DME,ENROUTE,117300,120X,1144000,1207000,,,,,125,-40.90278,174.98194,38,NZ,,,NZ
pqd-dme-rj,PQD,Tateyama DME,DME,ENROUTE,112500,72X,1096000,1159000,,,,,130,34.94623,139.89532,600,RJ,,,JP
psi-dme-k5,PSI,Pontiac DME,DME,ENROUTE,111000,47X,1071000,1008000,,,,,40,42.70086,-83.53277,1149,K5,,,US
psk-dme-lk,PSK,Pisek DME,DME,ENROUTE,117600,123X,1147000,1210000,,,,,125,49.78497,14.03475,2300,LK,,,CZ
pti-dme-ug,PTI,Poti DME,DME,ENROUTE,111000,47X,1071000,1008000,,,,,130,42.16167,41.69722,100,UG,,,GE
ptn-dme-vi,PTN,Pantnagar DME,DME,ENROUTE,112200,59X,1083000,1020000,,,,,40,29.03097,79.47367,764,VI,,,IN
pvo-dme-ef,PVO,Porvoo DME,DME,ENROUTE,112800,75X,1099000,1162000,,,,,130,60.29438,25.58848,121,EF,,,FI
rae-dme-es,RAE,Ramsele DME,DME,ENROUTE,116700,114X,1138000,1201000,,,,,130,63.59828,16.41333,1187,ES,,,SE
raf-dme-oi,RAF,Rafsanjan DME,DME,ENROUTE,112300,70X,1094000,1157000,,,,,40,30.30275,56.05564,5290,OI,,,IR
ram-dme-ek,RAM,Ramme DME,DME,ENROUTE,111850,55Y,1079000,1142000,,,,,130,56.47837,8.18736,60,EK,,,DK
raw-dme-lo,RAW,Rabenwald DME,DME,ENROUTE,112150,58Y,1082000,1145000,,,,,130,47.28184,15.77304,3475,LO,,,AT
rba-dme-k3,RBA,Robinson DME,DME,ENROUTE,108200,19X,1043000,980000,,,,,40,39.85092,-95.42355,1126,K3,,,US
rgi-dme-sb,RGI,Registro DME,DME,ENROUTE,113000,77X,1101000,1164000,,,,,150,-24.53006,-47.84203,82,SB,,,BR
rkn-dme-eh,RKN,Rekken DME,DME,ENROUTE,116800,115X,1139000,1202000,,,,,130,52.13320,6.76388,100,EH,,,NL
rml-dme-vc,RML,Ratmalana DME,DME,ENROUTE,112700,74X,1098000,1161000,,,,,40,6.83028,79.88333,110,VC,,,LK
rmn-dme-li,RMN,Miramare (Rimini) DME,DME,ENROUTE,108800,25X,1049000,986000,,,,,40,44.01697,12.62108,52,LI,,,IT
ron-dme-es,RON,Ronneby DME,DME,ENROUTE,109200,29X,1053000,990000,,,,,40,56.25428,15.26358,195,ES,,,SE
ror-dme-pt,ROR,Koror DME,DME,ENROUTE,115700,104X,1128000,1191000,,,,,125,7.36870,134.55028,183,PT,,,PW
roz-dme-lb,ROZ,Rozhen DME,DME,ENROUTE,115150,98Y,1122000,1059000,,,,,130,41.69750,24.73833,5900,LB,,,BG
rsr-dme-oi,RSR,Ramsar DME,DME,ENROUTE,115500,102X,1126000,1189000,,,,,130,36.90347,50.68044,-21,OI,,,IR
rut-dme-k6,RUT,Rutland DME,DME,ENROUTE,111000,47X,1071000,1008000,,,,,25,43.52677,-72.95072,805,K6,,,US
rvc-dme-lk,RVC,Revnicov DME,DME,ENROUTE,114650,93Y,1117000,1054000,,,,,40,50.18699,13.79168,1696,LK,,,CZ
rvn-dme-uk,RVN,Rivne DME,DME,ENROUTE,114650,93Y,1117000,1054000,,,,,130,50.60886,26.14525,791,UK,,,UA
rvs-dme-um,RVS,Ravanichskaya Slabada DME,DME,ENROUTE,113350,80Y,1104000,1041000,,,,,40,53.91486,28.57836,800,UM,,,BY
ry-dme-nz,RY,Mount Mary DME,DME,ENROUTE,112500,72X,1096000,1159000,,,,,130,-44.13510,170.28055,3245,NZ,,,NZ
rzn-dme-k5,RZN,Siren DME,DME,ENROUTE,109400,31X,1055000,992000,,,,,40,45.82044,-92.37452,987,K5,,,US
sad-dme-ed,SAD,Saarbruecken DME,DME,ENROUTE,116750,114Y,1138000,1075000,,,,,40,49.21246,7.11607,1082,ED,,,DE
sav-dme-oi,SAV,Saveh DME,DME,ENROUTE,115200,99X,1123000,1186000,,,,,130,35.01856,50.37136,3500,OI,,,IR
sb-dme-fm,SB,Sambava DME,DME,ENROUTE,113500,82X,1106000,1169000,,,,,40,-14.27836,50.17672,20,FM,,,MG
sc-dme-uu,SC,Staritsa DME,DME,ENROUTE,108800,25X,1049000,986000,,,,,40,56.51722,34.93639,689,UU,,,RU
sdd-dme-ed,SDD,Schoenefeld DME,DME,ENROUTE,114400,91X,1115000,1178000,,,,,40,52.37452,13.50367,152,ED,,,DE
sdh-dme-es,SDH,Landvetter DME,DME,ENROUTE,115650,103Y,1127000,1064000,,,,,40,57.76072,12.84203,1066,ES,,,SE
se-dme-uu,SE,Sosnovskoye DME,DME,ENROUTE,112300,70X,1094000,1157000,,,,,130,55.79583,43.16000,591,UU,,,RU
seg-dme-lh,SEG,Szeged DME,DME,ENROUTE,113800,85X,1109000,1172000,,,,,25,46.24012,20.08969,266,LH,,,HU
sgd-dme-ed,SGD,Stuttgart DME,DME,ENROUTE,115450,101Y,1125000,1062000,,,,,40,48.68795,9.22411,1239,ED,,,DE
sgh-dme-k5,SGH,Springfield DME,DME,ENROUTE,113200,79X,1103000,1166000,,,,,25,39.83654,-83.84496,1046,K5,,,US
shd-dme-ed-edty,SHD,Schwaebisch Hall DME,DME,TERMINAL,108050,17Y,1041000,1104000,,,,,25,49.11647,9.77816,1389,ED,EDTY,,DE
shd-dme-oi,SHD,Sahand (Maragheh) DME,DME,ENROUTE,116000,107X,1131000,1194000,,,,,40,37.34603,46.14275,4382,OI,,,IR
sir-dme-lt,SIR,Siirt DME,DME,ENROUTE,112200,59X,1083000,1020000,,,,,40,37.97672,41.83672,1969,LT,,,TR
skb-dme-tk,SKB,Robert L Bradshaw (St Kitts and Nevis) DME,DME,ENROUTE,112000,57X,1081000,1018000,,,,,125,17.30646,-62.72784,1,TK,,,KN
sko-dme-en,SKO,Skolten DME,DME,ENROUTE,114900,96X,1120000,1183000,,,,,40,78.14946,16.65788,3723,EN,,,SJ
sld-dme-ed,SLD,Siegerland DME,DME,ENROUTE,108050,17Y,1041000,1104000,,,,,40,50.70677,8.07851,2010,ED,,,DE
slg-dme-ei,SLG,Sligo DME,DME,ENROUTE,109000,27X,1051000,988000,,,,,40,54.27939,-8.60011,30,EI,,,IE
slk-dme-ur,SLK,Solodniki DME,DME,ENROUTE,116900,116X,1140000,1203000,,,,,130,48.40222,45.29583,98,UR,,,RU
sme-dme-lh,SME,Sarmellek DME,DME,ENROUTE,113200,79X,1103000,1166000,,,,,40,46.66572,17.16636,453,LH,,,HU
sml-dme-ey,SML,Semeliskes DME,DME,ENROUTE,112500,72X,1096000,1159000,,,,,130,54.67534,24.69232,826,EY,,,LT
smn-dme-oi,SMN,Semnan DME,DME,ENROUTE,117250,119Y,1143000,1080000,,,,,40,35.59844,53.49731,3775,OI,,,IR
snd-dme-rj,SND,Moriya (Tokyo) DME,DME,ENROUTE,114000,87X,1111000,1174000,,,,,130,35.93482,139.98145,129,RJ,,,JP
son-dme-nv,SON,Santo/Pekoa DME,DME,ENROUTE,114500,92X,1116000,1179000,,,,,130,-15.50662,167.21712,98,NV,,,VU
spa-dme-en,SPA,Sleipner A DME,DME,ENROUTE,115500,102X,1126000,1189000,,,,,130,58.36660,1.90704,417,EN,,,NO
spo-dme-es,SPO,Soppero DME,DME,ENROUTE,115900,106X,1130000,1193000,,,,,130,68.09194,21.69050,1313,ES,,,SE
sri-dme-pa,SRI,Pribilof (St. George) DME,DME,ENROUTE,114900,96X,1120000,1183000,,,,,125,56.57220,-169.64820,95,PA,,,US
srn-dme-oi,SRN,Saravan DME,DME,ENROUTE,114100,88X,1112000,1175000,,,,,40,27.41503,62.32542,3930,OI,,,IR
srs-dme-oi,SRS,Sarakhs DME,DME,ENROUTE,116100,108X,1132000,1195000,,,,,40,36.49539,61.07414,945,OI,,,IR
stb-dme-uk,STB,Stebliv DME,DME,ENROUTE,113000,77X,1101000,1164000,,,,,25,49.40519,31.07678,472,UK,,,UA
std-dme-rj,STD,Shodo DME,DME,ENROUTE,114400,91X,1115000,1178000,,,,,130,34.51236,134.27421,2531,RJ,,,JP
stk-dme-lo,STK,Stradner Kogel DME,DME,ENROUTE,114550,92Y,1116000,1053000,,,,,130,46.84523,15.93194,2162,LO,,,AT
sv-dme-tv,SV,St Vincent (Saint Vincent) DME,DME,ENROUTE,108400,21X,1045000,982000,,,,,125,13.14063,-61.22617,197,TV,,,VC
svd-dme-es,SVD,Sveda DME,DME,ENROUTE,116200,109X,1133000,1196000,,,,,130,56.16892,12.57369,45,ES,,,SE
sve-dme-es,SVE,Sveg DME,DME,ENROUTE,113950,86Y,1110000,1047000,,,,,130,62.04644,14.41206,1175,ES,,,SE
svl-dme-ef,SVL,Linna (Savonlinna) DME,DME,ENROUTE,117900,126X,1150000,1213000,,,,,130,61.95268,28.91406,343,EF,,,FI
swo-dme-uu,SWO,Savelovo DME,DME,ENROUTE,111800,55X,1079000,1016000,,,,,130,56.36778,37.43083,591,UU,,,RU
sy-dme-ym,SY,Sydney DME,DME,ENROUTE,112100,58X,1082000,1019000,,,,,130,-33.94378,151.18261,103,YM,,,AU
ta-dme-ng,TA,Tarawa DME,DME,ENROUTE,112800,75X,1099000,1162000,,,,,130,1.38325,173.14628,83,NG,,,KI
tbn-dme-ep,TBN,Gluchow Gorny DME,DME,ENROUTE,113600,83X,1107000,1170000,,,,,130,51.27444,17.13417,886,EP,,,PL
tck-dme-rc,TCK,Cingcyuangang (Taichung) DME,DME,ENROUTE,108400,21X,1045000,982000,,,,,25,24.25361,120.61875,686,RC,,,TW
tcl-dme-zm,TCL,Tosontsengel DME,DME,ENROUTE,116100,108X,1132000,1195000,,,,,40,48.74028,98.27389,5709,ZM,,,MN
tdg-dme-k7,TDG,Talladega DME,DME,ENROUTE,108800,25X,1049000,986000,,,,,40,33.57515,-86.04269,531,K7,,,US
tdt-dme-k6,TDT,Tidioute DME,DME,ENROUTE,117600,123X,1147000,1210000,,,,,40,41.71303,-79.41727,1710,K6,,,US
tfo-dme-sb,TFO,Teofilo Otoni DME,DME,ENROUTE,112900,76X,1100000,1163000,,,,,150,-17.89330,-41.51400,1470,SB,,,BR
tg-dme-nz,TG,Tauranga DME,DME,ENROUTE,113200,79X,1103000,1166000,,,,,125,-37.67757,176.19122,13,NZ,,,NZ
tgl-dme-zm,TGL,Kharkhorin DME,DME,ENROUTE,115400,101X,1125000,1188000,,,,,40,47.24528,102.82889,4823,ZM,,,MN
tkk-dme-pt,TKK,Truk (Weeno Island) DME,DME,ENROUTE,116400,111X,1135000,1198000,,,,,125,7.45711,151.84053,6,PT,,,FM
tld-dme-rj,TLD,Ami DME,DME,ENROUTE,116000,107X,1131000,1194000,,,,,130,36.02099,140.20576,136,RJ,,,JP
tnc-dme-pa,TNC,Tin City DME,DME,ENROUTE,117250,119Y,1143000,1080000,,,,,130,65.56173,-167.92480,248,PA,,,US
tof-dme-en,TOF,Torfjell DME,DME,ENROUTE,115600,103X,1127000,1190000,,,,,40,78.64785,15.97283,2522,EN,,,SJ
tog-dme-pa,TOG,Togiak DME,DME,ENROUTE,116700,114X,1138000,1201000,,,,,125,59.06357,-160.37492,21,PA,,,US
tpl-dme-k4,TPL,Temple DME,DME,ENROUTE,110400,41X,1065000,1002000,,,,,40,31.20934,-97.42497,710,K4,,,US
tqa-dme-sb,TQA,Taquara DME,DME,ENROUTE,112900,76X,1100000,1163000,,,,,150,-29.66947,-50.78094,76,SB,,,BR
tqi-dme-sb,TQI,Taquari DME,DME,ENROUTE,114500,92X,1116000,1179000,,,,,150,-29.78998,-51.83078,195,SB,,,BR
tr-dme-nz,TR,Tory DME,DME,ENROUTE,114600,93X,1117000,1180000,,,,,125,-41.18584,174.36238,1835,NZ,,,NZ
tra-dme-ls,TRA,Trasadingen DME,DME,ENROUTE,114300,90X,1114000,1177000,,,,,130,47.68950,8.43697,1850,LS,,,CH
trl-dme-en,TRL,Troll DME,DME,ENROUTE,116100,108X,1132000,1195000,,,,,40,60.64520,3.72387,309,EN,,,NO
trm-dme-sb,TRM,Tres Marias DME,DME,ENROUTE,114700,94X,1118000,1181000,,,,,130,-18.20324,-45.45707,3051,SB,,,BR
tsn-dme-ug,TSN,Tsnori DME,DME,ENROUTE,108600,23X,1047000,984000,,,,,130,41.62944,46.01556,800,UG,,,GE
tu-dme-nz,TU,Timaru DME,DME,ENROUTE,115900,106X,1130000,1193000,,,,,125,-44.30835,171.22510,89,NZ,,,NZ
tug-dme-rp,TUG,Tuguegarao DME,DME,ENROUTE,112100,58X,1082000,1019000,,,,,130,17.63331,121.73645,75,RP,,,PH
tui-dme-sb,TUI,Tucurui DME,DME,ENROUTE,112900,76X,1100000,1163000,,,,,130,-3.80134,-49.72132,200,SB,,,BR
tze-dme-ep,TZE,Trzebielino DME,DME,ENROUTE,113800,85X,1109000,1172000,,,,,130,54.21056,17.07333,492,EP,,,PL
uim-dme-k4,UIM,Quitman DME,DME,ENROUTE,114000,87X,1111000,1174000,,,,,40,32.88048,-95.36689,517,K4,,,US
ukn-dme-k3,UKN,Waukon DME,DME,ENROUTE,116600,113X,1137000,1200000,,,,,40,43.28009,-91.53736,1288,K3,,,US
uks-dme-pt,UKS,Kosrae DME,DME,ENROUTE,115300,100X,1124000,1187000,,,,,125,5.35319,162.95675,13,PT,,,FM
ul-dme-eg,UL,Ula DME,DME,ENROUTE,116450,111Y,1135000,1072000,,,,,130,57.11125,2.84737,203,EG,,,NO
ul-dme-fa,UL,Ulundi DME,DME,ENROUTE,115400,101X,1125000,1188000,,,,,40,-28.31506,31.42056,1712,FA,,,ZA
und-dme-zm,UND,Undurkhaan DME,DME,ENROUTE,115500,102X,1126000,1189000,,,,,40,47.33000,110.66389,3445,ZM,,,MN
urh-dme-k4,URH,Texoma (Durant) DME,DME,ENROUTE,114300,90X,1114000,1177000,,,,,40,33.94418,-96.39184,682,K4,,,US
uzh-dme-uk,UZH,Uzhhorod DME,DME,ENROUTE,115650,103Y,1127000,1064000,,,,,130,48.63272,22.26064,413,UK,,,UA
v6-dme-cy,V6,Salmon Arm DME,DME,ENROUTE,109000,27X,1051000,988000,,,,,125,50.68556,-119.23444,1760,CY,,,CA
vam-dme-ek,VAM,Vamdrup DME,DME,ENROUTE,110050,37Y,1061000,1124000,,,,,130,55.43806,9.33500,175,EK,,,DK
vea-dme-en,VEA,Svea DME,DME,ENROUTE,117500,122X,1146000,1209000,,,,,40,77.85979,16.65012,109,EN,,,SJ
vg-dme-us,VG,Zhiguli DME,DME,ENROUTE,110800,45X,1069000,1006000,,,,,130,53.35500,49.30139,591,US,,,RU
vi-dme-ee,VI,Vohma DME,DME,ENROUTE,114900,96X,1120000,1183000,,,,,130,58.65583,25.57472,300,EE,,,EE
vil-dme-ef,VIL,Vilmas (Lappeenranta) DME,DME,ENROUTE,112500,72X,1096000,1159000,,,,,130,61.03882,28.11689,363,EF,,,FI
vin-dme-uk,VIN,Vinnytsia DME,DME,ENROUTE,113900,86X,1110000,1173000,,,,,130,49.23989,28.62092,994,UK,,,UA
vit-dme-lb,VIT,Vitosha DME,DME,ENROUTE,113450,81Y,1105000,1042000,,,,,130,42.56528,23.29000,7500,LB,,,BG
viw-dme-lo,VIW,Villach DME,DME,ENROUTE,112900,76X,1100000,1163000,,,,,130,46.69635,13.91489,6295,LO,,,AT
vlk-dme-ey,VLK,Valkininkai DME,DME,ENROUTE,116700,114X,1138000,1201000,,,,,130,54.35081,24.80367,719,EY,,,LT
vms-dme-fd,VMS,Matsapha (Manzini) DME,DME,ENROUTE,112300,70X,1094000,1157000,,,,,130,-26.51273,31.32351,2196,FD,,,SZ
vnn-dme-k5,VNN,Mount Vernon DME,DME,ENROUTE,113800,85X,1109000,1172000,,,,,40,38.36195,-88.80734,558,K5,,,US
vno-dme-ay,VNO,Vanimo DME,DME,ENROUTE,115600,103X,1127000,1190000,,,,,125,-2.67855,141.30323,290,AY,,,PG
vrb-dme-lb,VRB,Varbitsa DME,DME,ENROUTE,114550,92Y,1116000,1053000,,,,,130,42.92583,26.66750,3200,LB,,,BG
vti-dme-ef,VTI,Vihti DME,DME,ENROUTE,117000,117X,1141000,1204000,,,,,130,60.45925,24.24407,203,EF,,,FI
wdt-dme-uh,WDT,Knevichi (Vladivostok) DME,DME,ENROUTE,108200,19X,1043000,980000,,,,,130,43.40853,132.17500,59,UH,,,RU
wfj-dme-ls,WFJ,Weissfluhgipfel DME,DME,ENROUTE,113750,84Y,1108000,1045000,,,,,130,46.83458,9.79514,9478,LS,,,CH
wic-dme-ep,WIC,Wicko DME,DME,ENROUTE,108000,17X,1041000,978000,,,,,130,54.67944,17.67583,197,EP,,,PL
wie-dme-ep,WIE,Wielun DME,DME,ENROUTE,109650,33Y,1057000,1120000,,,,,130,50.88306,18.49528,984,EP,,,PL
wk-dme-nz,WK,Whakatane DME,DME,ENROUTE,117700,124X,1148000,1211000,,,,,130,-37.92466,176.91573,20,NZ,,,NZ
wk-dme-uh,WK,Volochayevka DME,DME,ENROUTE,112000,57X,1081000,1018000,,,,,130,48.56028,134.58250,295,UH,,,RU
wnn-dme-ed,WNN,Noervenich DME,DME,ENROUTE,109850,35Y,1059000,1122000,,,,,40,50.83549,6.66952,334,ED,,,DE
wol-dme-eg-egbo,WOL,Wolverhampton DME,DME,TERMINAL,108600,23X,1047000,984000,,,,,25,52.51579,-2.26182,300,EG,EGBO,,GB
wpl-dme-eg,WPL,Welshpool DME,DME,ENROUTE,115950,106Y,1130000,1067000,,,,,40,52.62996,-3.15381,252,EG,,,GB
wr-dme-nz,WR,Whangarei DME,DME,ENROUTE,117300,120X,1144000,1207000,,,,,125,-35.77133,174.36192,193,NZ,,,NZ
wr-dme-uu,WR,Vladimir DME,DME,ENROUTE,109000,27X,1051000,988000,,,,,130,56.12361,40.31639,591,UU,,,RU
ws-dme-nz,WS,West Port DME,DME,ENROUTE,116900,116X,1140000,1203000,,,,,125,-41.74064,171.57961,23,NZ,,,NZ
wt-dme-cy,WT,Waterloo (Kitchener) DME,DME,ENROUTE,115000,97X,1121000,1184000,,,,,125,43.45858,-80.37938,1047,CY,,,CA
wtp-dme-ei,WTP,Wolftrap DME,DME,ENROUTE,116300,110X,1134000,1197000,,,,,40,53.09589,-7.59128,1700,EI,,,IE
wu-dme-nz,WU,Whanganui DME,DME,ENROUTE,116000,107X,1131000,1194000,,,,,125,-39.95853,175.02650,11,NZ,,,NZ
ww-dme-uu,WW,Venev DME,DME,ENROUTE,108600,23X,1047000,984000,,,,,130,54.34611,38.23861,787,UU,,,RU
xl-dme-cy,XL,Sioux Lookout DME,DME,ENROUTE,113100,78X,1102000,1165000,,,,,125,50.11772,-91.89860,1302,CY,,,CA
ycf-dme-cy,YCF,Campbellford DME,DME,ENROUTE,113500,82X,1106000,1169000,,,,,130,44.33309,-77.70459,583,CY,,,CA
yga-dme-sb,YGA,Igarassu DME,DME,ENROUTE,112900,76X,1100000,1163000,,,,,40,-7.84524,-34.89310,33,SB,,,BR
yht-dme-uk,YHT,Yahotyn DME,DME,ENROUTE,117000,117X,1141000,1204000,,,,,130,50.26511,31.79453,451,UK,,,UA
ykj-dme-cy,YKJ,Key Lake DME,DME,ENROUTE,115300,100X,1124000,1187000,,,,,125,57.16723,-105.84102,1915,CY,,,CA
ylh-dme-sb,YLH,Ilheus DME,DME,ENROUTE,114000,87X,1111000,1174000,,,,,130,-14.81467,-39.03285,43,SB,,,BR
ymt-dme-cy,YMT,Chiboo (Chibougamau) DME,DME,ENROUTE,112100,58X,1082000,1019000,,,,,125,49.80005,-74.49568,1340,CY,,,CA
yp-dme-pt,YP,Yap DME,DME,ENROUTE,117500,122X,1146000,1209000,,,,,125,9.49962,138.08807,80,PT,,,FM
ypx-dme-cy,YPX,Puvirnituq DME,DME,ENROUTE,113500,82X,1106000,1169000,,,,,125,60.05893,-77.29674,129,CY,,,CA
ysc-dme-cy,YSC,Sherbrooke DME,DME,ENROUTE,113200,79X,1103000,1166000,,,,,130,45.31632,-71.78811,919,CY,,,CA
yvl-dme-eg,YVL,Yeovil DME,DME,ENROUTE,109050,27Y,1051000,1114000,,,,,25,50.94073,-2.65402,194,EG,,,GB
ywv-dme-cy,YWV,Wainwright DME,DME,ENROUTE,114500,92X,1116000,1179000,,,,,130,52.98139,-110.83333,2230,CY,,,CA
ywy-dme-cy,YWY,Wrigley DME,DME,ENROUTE,113100,78X,1102000,1165000,,,,,125,63.18563,-123.36374,494,CY,,,CA
zlu-dme-lr,ZLU,Zalau DME,DME,ENROUTE,108000,17X,1041000,978000,,,,,130,47.15278,23.10194,2400,LR,,,RO
znl-dme-ur,ZNL,Zenzeli DME,DME,ENROUTE,113600,83X,1107000,1170000,,,,,40,45.92694,47.06056,-17,UR,,,RU
zvd-dme-um,ZVD,Zviazda DME,DME,ENROUTE,115050,97Y,1121000,1058000,,,,,40,53.55603,28.13039,800,UM,,,BY
