slug,identifier,name,type,usage,frequency,dme_channel,dme_rx_frequency,dme_tx_frequency,dme_bias,vor_slaved_variation,localizer_heading,glide_slope_angle,reception_range,latitude,longitude,elevation,region,airport,airport_runway,country
an-dme-ndb-lf,AN,Avignon Caumont DME,DME-NDB,ENROUTE,110500,42X,1066000,1003000,,,,,25,43.91150,4.90222,168,LF,,,FR
ant-dme-ndb-lt-ltai,ANT,Antalya DME,DME-NDB,TERMINAL,109100,28X,1052000,989000,,,,,25,36.87572,30.78931,187,LT,LTAI,,TR
arr-dme-ndb-lp,ARR,Arrabida DME,DME-NDB,ENROUTE,108300,20X,1044000,981000,,,,,130,38.49276,-8.96227,1200,LP,,,PT
as-dme-ndb-bg,AS,Aasiaat DME,DME-NDB,ENROUTE,108750,24Y,1048000,1111000,,,,,40,68.71942,-52.79275,74,BG,,,GL
bbc-dme-ndb-sb,BBC,Barbacena DME,DME-NDB,ENROUTE,111700,54X,1078000,1015000,,,,,40,-21.26487,-43.76327,3869,SB,,,BR
bc-dme-ndb-uu,BC,Bezhetsk DME,DME-NDB,ENROUTE,111500,52X,1076000,1013000,,,,,130,57.89500,36.93000,689,UU,,,RU
bcl-dme-ndb-eg,BCL,Benbecula DME,DME-NDB,ENROUTE,108100,18X,1042000,979000,,,,,25,57.47509,-7.37032,48,EG,,,GB
bt-dme-ndb-uu,BT,Buturlino DME,DME-NDB,ENROUTE,111900,56X,1080000,1017000,,,,,130,55.56917,44.87361,394,UU,,,RU
co-dme-ndb-eg-egnc,CO,Carlisle DME,DME-NDB,TERMINAL,110700,44X,1068000,1005000,,,,,25,54.94003,-2.80519,193,EG,EGNC,,GB
dks-dme-ndb-ed,DKS,Kassel-Calden DME,DME-NDB,ENROUTE,111500,52X,1076000,1013000,,,,,25,51.42117,9.40524,829,ED,,,DE
dmx-dme-ndb-lp,DMX,Mexilhoeira Grande DME,DME-NDB,ENROUTE,108500,22X,1046000,983000,,,,,130,37.16236,-8.61450,197,LP,,,PT
dpr-dme-ndb-lp,DPR,Pereiro DME,DME-NDB,ENROUTE,111500,52X,1076000,1013000,,,,,130,37.44700,-7.59022,886,LP,,,PT
dsc-dme-ndb-lp,DSC,Santa Cruz DME,DME-NDB,ENROUTE,110700,44X,1068000,1005000,,,,,130,39.45788,-31.12758,122,LP,,,PT
dsl-dme-ndb-lp,DSL,Salir DME,DME-NDB,ENROUTE,109300,30X,1054000,991000,,,,,130,37.30756,-7.96228,1969,LP,,,PT
ehm-dme-ndb-pa,EHM,Cape Newenham DME,DME-NDB,ENROUTE,108150,18Y,1042000,1105000,,,,,130,58.65602,-162.07374,212,PA,,,US
hl-dme-ndb-bi,HL,Helgafell (Vestmannaeyjar) DME,DME-NDB,ENROUTE,110700,44X,1068000,1005000,,,,,40,63.42014,-20.27217,600,BI,,,IS
hod-dme-ndb-ed,HOD,Hof DME,DME-NDB,ENROUTE,110700,44X,1068000,1005000,,,,,40,50.28979,11.85523,1940,ED,,,DE
i5q-dme-ndb-cy,I5Q,Fontanges DME,DME-NDB,ENROUTE,109500,32X,1056000,993000,,,,,130,54.55611,-71.16028,2000,CY,,,CA
ibv-dme-ndb-uw,IBV,Bugulma DME,DME-NDB,ENROUTE,109500,32X,1056000,993000,,,,,40,54.62531,52.78850,984,UW,,,RU
ipd-dme-ndb-li,IPD,Padova DME,DME-NDB,ENROUTE,111300,50X,1074000,1011000,,,,,40,45.39269,11.84531,59,LI,,,IT
isy-dme-ndb-eg,ISY,Islay DME,DME-NDB,ENROUTE,109950,36Y,1060000,1123000,,,,,25,55.68297,-6.24941,70,EG,,,GB
ja-dme-ndb-bg,JA,Ilulissat DME,DME-NDB,ENROUTE,111950,56Y,1080000,1143000,,,,,40,69.24029,-51.06081,95,BG,,,GL
khd-dme-ndb-ed,KHD,Kiel (Holtenau) DME,DME-NDB,ENROUTE,109500,32X,1056000,993000,,,,,40,54.37879,10.14538,108,ED,,,DE
kls-dme-ndb-ld,KLS,Klisa DME,DME-NDB,ENROUTE,109350,30Y,1054000,1117000,,,,,130,45.46618,18.79227,314,LD,,,HR
lc-dme-ndb-lf,LC,Le Cannet DME,DME-NDB,ENROUTE,109300,30X,1054000,991000,,,,,40,43.38546,6.38128,258,LF,,,FR
lur-dme-ndb-pa,LUR,Cape Lisburne DME,DME-NDB,ENROUTE,108350,20Y,1044000,1107000,,,,,130,68.87126,-166.07600,61,PA,,,US
lyu-dme-ndb-rc,LYU,Lanyu DME,DME-NDB,ENROUTE,108900,26X,1050000,987000,,,,,130,22.07678,121.50794,598,RC,,,TW
mfnn-dme-ndb-rc,MFNN,Mfnn (Taitung) DME,DME-NDB,ENROUTE,110900,46X,1070000,1007000,,,,,25,22.75303,121.09300,98,RC,,,TW
mo-dme-ndb-ur,MO,Molochnoye DME,DME-NDB,ENROUTE,110700,44X,1068000,1005000,,,,,40,45.24389,33.19028,197,UR,,,UA
ms-dme-ndb-bg,MS,Maniitsoq DME,DME-NDB,ENROUTE,110550,42Y,1066000,1129000,,,,,40,65.41164,-52.93004,91,BG,,,GL
na-dme-ndb-en,NA,Namsos DME,DME-NDB,ENROUTE,108500,22X,1046000,983000,,,,,40,64.47099,11.56603,28,EN,,,NO
nap-dme-ndb-li,NAP,Capodichino (Naples) DME,DME-NDB,ENROUTE,110950,46Y,1070000,1133000,,,,,40,40.89144,14.29883,253,LI,,,IT
ndd-dme-ndb-et,NDD,Niederstetten DME,DME-NDB,ENROUTE,108700,24X,1048000,985000,,,,,40,49.39347,9.96079,1541,ET,,,DE
ng-dme-ndb-lf,NG,Nimes Garons DME,DME-NDB,ENROUTE,109550,32Y,1056000,1119000,,,,,40,43.76589,4.41756,345,LF,,,FR
ng-dme-ndb-uu,NG,Sharanga DME,DME-NDB,ENROUTE,108900,26X,1050000,987000,,,,,130,57.17972,46.51194,492,UU,,,RU
nk-dme-ndb-us,NK,Nikolskoye DME,DME-NDB,ENROUTE,108100,18X,1042000,979000,,,,,130,54.04083,49.17917,295,US,,,RU
nkn-dme-ndb-rc,NKN,Nangan DME,DME-NDB,ENROUTE,110100,38X,1062000,999000,,,,,130,26.15956,119.95722,378,RC,,,TW
nor-dme-ndb-bg,NOR,Station Nord DME,DME-NDB,ENROUTE,111700,54X,1078000,1015000,,,,,130,81.59828,-16.66533,80,BG,,,GL
oba-dme-ndb-eg,OBA,Oban DME,DME-NDB,ENROUTE,110550,42Y,1066000,1129000,,,,,25,56.46095,-5.40215,36,EG,,,GB
og-dme-ndb-bi,OG,Ogur DME,DME-NDB,ENROUTE,110100,38X,1062000,999000,,,,,40,66.04367,-22.68289,1,BI,,,IS
oph-dme-ndb-uu,OPH,Opalikha DME,DME-NDB,ENROUTE,109700,34X,1058000,995000,,,,,130,55.82528,37.27056,689,UU,,,RU
orf-dme-ndb-li,ORF,Oristano (Fenosu) DME,DME-NDB,ENROUTE,108350,20Y,1044000,1107000,,,,,40,39.89667,8.64528,56,LI,,,IT
pad-dme-ndb-ed,PAD,Paderborn/Lippstadt DME,DME-NDB,ENROUTE,108500,22X,1046000,983000,,,,,40,51.61018,8.61865,803,ED,,,DE
pdn-dme-ndb-pa,PDN,Port Heiden DME,DME-NDB,ENROUTE,109500,32X,1056000,993000,,,,,125,56.95428,-158.64757,56,PA,,,US
pkn-dme-ndb-rc,PKN,Matsu DME,DME-NDB,ENROUTE,109700,34X,1058000,995000,,,,,125,26.22428,119.99989,77,RC,,,TW
qa-dme-ndb-bg,QA,Uummannaq DME,DME-NDB,ENROUTE,110150,38Y,1062000,1125000,,,,,40,70.73247,-52.69617,289,BG,,,GL
qn-dme-ndb-bg,QN,Qaanaaq DME,DME-NDB,ENROUTE,108350,20Y,1044000,1107000,,,,,130,77.48739,-69.37295,69,BG,,,GL
rv-dme-ndb-uu,RV,Ryazhsk DME,DME-NDB,ENROUTE,109100,28X,1052000,989000,,,,,130,53.68139,40.25500,591,UU,,,RU
sl-dme-ndb-us,SL,Sukhodol DME,DME-NDB,ENROUTE,111500,52X,1076000,1013000,,,,,130,53.89333,51.18472,394,US,,,RU
spy-dme-ndb-pa,SPY,Saint Paul Island DME,DME-NDB,ENROUTE,109900,36X,1060000,997000,,,,,130,57.15680,-170.23305,33,PA,,,US
srh-dme-ndb-eg-egka,SRH,Shoreham DME,DME-NDB,TERMINAL,109950,36Y,1060000,1123000,,,,,25,50.83610,-0.29348,44,EG,EGKA,,GB
ss-dme-ndb-bg,SS,Sisimiut DME,DME-NDB,ENROUTE,108150,18Y,1042000,1105000,,,,,130,66.95056,-53.73226,33,BG,,,GL
ths-dme-ndb-vt,THS,Sukhothai DME,DME-NDB,ENROUTE,110300,40X,1064000,1001000,,,,,125,17.23563,99.81858,181,VT,,,TH
trt-dme-ndb-vt,TRT,Trat DME,DME-NDB,ENROUTE,109900,36X,1060000,997000,,,,,25,12.27647,102.31909,49,VT,,,TH
uk-dme-ndb-bg,UK,Upernavik DME,DME-NDB,ENROUTE,108550,22Y,1046000,1109000,,,,,40,72.78801,-56.12776,414,BG,,,GL
uto-dme-ndb-pa,UTO,Utopia Creek (Indian Mt) DME,DME-NDB,ENROUTE,108550,22Y,1046000,1109000,,,,,130,65.99516,-153.69376,983,PA,,,US
wes-dme-ndb-ed,WES,Westerland/Sylt DME,DME-NDB,ENROUTE,111500,52X,1076000,1013000,,,,,125,54.91054,8.33971,49,ED,,,DE
yo-dme-ndb-cy,YO,Oshawa DME,DME-NDB,ENROUTE,111350,50Y,1074000,1137000,,,,,25,43.91866,-78.88563,466,CY,,,CA
yu-dme-ndb-cy,YU,Kapuskasing DME,DME-NDB,ENROUTE,109300,30X,1054000,991000,,,,,130,49.41179,-82.46509,762,CY,,,CA
z2-dme-ndb-cy,Z2,Rainbow Lake DME,DME-NDB,ENROUTE,111700,54X,1078000,1015000,,,,,125,58.49500,-119.41278,1790,CY,,,CA
zr-dme-ndb-lf,ZR,Beziers Vias DME,DME-NDB,ENROUTE,109350,30Y,1054000,1117000,,,,,130,43.32247,3.34619,101,LF,,,FR
zs-dme-ndb-cy,ZS,Coral Harbour DME,DME-NDB,ENROUTE,109700,34X,1058000,995000,,,,,130,64.14917,-83.30278,210,CY,,,CA
