slug,identifier,name,type,usage,frequency,dme_channel,dme_rx_frequency,dme_tx_frequency,dme_bias,vor_slaved_variation,localizer_heading,glide_slope_angle,reception_range,latitude,longitude,elevation,region,airport,airport_runway,country
iaay-im-k4-klit,IAAY,IM 22R,IM,TERMINAL,110300,,,,,,226.385,,,34.73963,-92.21616,257,K4,KLIT,22R,US
iabd-im-wa-wara,IABD,IM 35,IM,TERMINAL,109700,,,,,,346.453,,,-7.94170,112.71741,0,WA,WARA,35,ID
iabu-im-k5-kord,IABU,IM 27R,IM,TERMINAL,111750,,,,,,270.017,,,42.00277,-87.89592,663,K5,KORD,27R,US
iado-im-sk-skbo,IADO,IM 13R,IM,TERMINAL,110700,,,,,,127.232,,,4.71272,-74.17202,8356,SK,SKBO,13R,CO
iajq-im-k4-kdfw,IAJQ,IM 35R,IM,TERMINAL,111750,,,,,,0.269,,,32.87295,-97.00992,581,K4,KDFW,35R,US
iant-im-k4-ksat,IANT,IM 13R,IM,TERMINAL,110900,,,,,,131.760,,,29.54418,-98.48739,808,K4,KSAT,13R,US
iaqd-im-k2-kden,IAQD,IM 35L,IM,TERMINAL,108500,,,,,,0.527,,,39.82596,-104.66058,5429,K2,KDEN,35L,US
iark-im-k7-kmco,IARK,IM 17L,IM,TERMINAL,110950,,,,,,179.486,,,28.44606,-81.28261,90,K7,KMCO,17L,US
iatd-im-k5-kday,IATD,IM 06L,IM,TERMINAL,108900,,,,,,55.246,,,39.89362,-84.24882,994,K5,KDAY,06L,US
ibc-im-sb-sbgr,IBC,IM 27L,IM,TERMINAL,111100,,,,,,253.593,,,-23.43033,-46.45550,0,SB,SBGR,27L,BR
ibdl-im-k6-kbdl,IBDL,IM 06,IM,TERMINAL,111100,,,,,,44.283,,,41.93041,-72.69891,171,K6,KBDL,06,US
ibhm-im-k7-kbhm,IBHM,IM 06,IM,TERMINAL,110300,,,,,,55.359,,,33.55341,-86.77395,593,K7,KBHM,06,US
ibma-im-k3-kmsp,IBMA,IM 35,IM,TERMINAL,110950,,,,,,349.565,,,44.86386,-93.23604,833,K3,KMSP,35,US
ibna-im-k7-kbna,IBNA,IM 02L,IM,TERMINAL,109900,,,,,,17.583,,,36.11523,-86.68743,595,K7,KBNA,02L,US
ibne-im-k6-kric,IBNE,IM 34,IM,TERMINAL,110700,,,,,,327.575,,,37.49416,-77.30511,157,K6,KRIC,34,US
ibzu-im-k4-kiah,IBZU,IM 08L,IM,TERMINAL,111550,,,,,,89.955,,,30.00716,-95.36135,91,K4,KIAH,08L,US
icae-im-k7-kcae,ICAE,IM 11,IM,TERMINAL,110300,,,,,,104.739,,,33.94476,-81.14090,205,K7,KCAE,11,US
icer-im-k7-kmco,ICER,IM 35R,IM,TERMINAL,111150,,,,,,359.486,,,28.41658,-81.28230,89,K7,KMCO,35R,US
icha-im-k7-kcha,ICHA,IM 20,IM,TERMINAL,109500,,,,,,196.632,,,35.04412,-85.19967,671,K7,KCHA,20,US
icjn-im-k5-kcvg,ICJN,IM 18R,IM,TERMINAL,110750,,,,,,180.169,,,39.07321,-84.68373,856,K5,KCVG,18R,US
icju-im-rk-rkpc,ICJU,IM 07,IM,TERMINAL,109900,,,,,,58.349,,,33.49842,126.46561,0,RK,RKPC,07,KR
icna-im-pa-pafa,ICNA,IM 02L,IM,TERMINAL,109100,,,,,,38.049,,,64.80213,-147.88681,430,PA,PAFA,02L,US
ics-im-rj-rjcc,ICS,IM 19R,IM,TERMINAL,111500,,,,,,172.632,,,42.79123,141.68760,82,RJ,RJCC,19R,JP
ict-im-sb-sbct,ICT,IM 15,IM,TERMINAL,109300,,,,,,134.697,,,-25.52017,-49.18500,0,SB,SBCT,15,BR
icvg-im-k5-kcvg,ICVG,IM 36C,IM,TERMINAL,109900,,,,,,0.184,,,39.03168,-84.66875,818,K5,KCVG,36C,US
iddo-im-k7-kmco,IDDO,IM 35L,IM,TERMINAL,110500,,,,,,359.471,,,28.40570,-81.29557,82,K7,KMCO,35L,US
iddv-im-k5-klck,IDDV,IM 05R,IM,TERMINAL,110100,,,,,,45.206,,,39.79929,-82.94430,0,K5,KLCK,05R,US
idiz-im-k7-kmco,IDIZ,IM 17R,IM,TERMINAL,111750,,,,,,179.471,,,28.43797,-81.29591,85,K7,KMCO,17R,US
idlh-im-k3-kdlh,IDLH,IM 09,IM,TERMINAL,110300,,,,,,92.296,,,46.84257,-92.22452,1430,K3,KDLH,09,US
idlx-im-k6-kiad,IDLX,IM 19C,IM,TERMINAL,111300,,,,,,180.647,,,38.97304,-77.45928,263,K6,KIAD,19C,US
idmp-im-k7-krdu,IDMP,IM 23R,IM,TERMINAL,111700,,,,,,225.027,,,35.89549,-78.77598,402,K7,KRDU,23R,US
idpp-im-k2-kden,IDPP,IM 35R,IM,TERMINAL,110150,,,,,,0.542,,,39.82966,-104.64174,5365,K2,KDEN,35R,US
idqg-im-k7-kclt,IDQG,IM 36C,IM,TERMINAL,111700,,,,,,355.979,,,35.19687,-80.95054,683,K7,KCLT,36C,US
idsm-im-k3-kdsm,IDSM,IM 31,IM,TERMINAL,110300,,,,,,312.459,,,41.52726,-93.64766,957,K3,KDSM,31,US
idtw-im-k5-kdtw,IDTW,IM 04R,IM,TERMINAL,110700,,,,,,28.620,,,42.20126,-83.37205,637,K5,KDTW,04R,US
idxu-im-k2-kden,IDXU,IM 34L,IM,TERMINAL,111900,,,,,,0.506,,,39.84953,-104.69661,5321,K2,KDEN,34L,US
iedi-im-k3-koma,IEDI,IM 32R,IM,TERMINAL,111150,,,,,,324.503,,,41.29250,-95.88045,981,K3,KOMA,32R,US
ieei-im-k5-kcvg,IEEI,IM 36R,IM,TERMINAL,110350,,,,,,0.207,,,39.02599,-84.64681,899,K5,KCVG,36R,US
ieug-im-k1-keug,IEUG,IM 16R,IM,TERMINAL,110100,,,,,,179.381,,,44.13801,-123.21919,356,K1,KEUG,16R,US
ieza-im-k6-kewr,IEZA,IM 04R,IM,TERMINAL,108700,,,,,,25.742,,,40.67819,-74.17310,9,K6,KEWR,04R,US
iflq-im-k4-kdfw,IFLQ,IM 17C,IM,TERMINAL,110300,,,,,,180.258,,,32.91780,-97.02596,562,K4,KDFW,17C,US
ifsq-im-k7-katl,IFSQ,IM 27L,IM,TERMINAL,108500,,,,,,269.989,,,33.63183,-84.41472,983,K7,KATL,27L,US
ifun-im-k7-katl,IFUN,IM 09R,IM,TERMINAL,108900,,,,,,89.989,,,33.63181,-84.45071,1029,K7,KATL,09R,US
igh-im-sb-sbgr,IGH,IM 09R,IM,TERMINAL,111700,,,,,,73.593,,,-23.43967,-46.49017,0,SB,SBGR,09R,BR
ighi-im-k4-kiah,IGHI,IM 27,IM,TERMINAL,110900,,,,,,269.967,,,29.97762,-95.29977,81,K4,KIAH,27,US
igs-im-sb-sbgr,IGS,IM 27R,IM,TERMINAL,111900,,,,,,253.587,,,-23.42383,-46.44533,0,SB,SBGR,27R,BR
igut-im-k6-kpit,IGUT,IM 10R,IM,TERMINAL,108900,,,,,,91.988,,,40.48682,-80.25524,1145,K6,KPIT,10R,US
igwq-im-k2-ksfo,IGWQ,IM 28R,IM,TERMINAL,111700,,,,,,297.913,,,37.61282,-122.35548,13,K2,KSFO,28R,US
ihfw-im-k7-katl,IHFW,IM 08L,IM,TERMINAL,109300,,,,,,89.989,,,33.64953,-84.44181,1018,K7,KATL,08L,US
ihih-im-k7-kgso,IHIH,IM 23L,IM,TERMINAL,109300,,,,,,225.878,,,36.11185,-79.91813,882,K7,KGSO,23L,US
ihjt-im-k5-kdtw,IHJT,IM 04L,IM,TERMINAL,111950,,,,,,28.604,,,42.20011,-83.38552,646,K5,KDTW,04L,US
ihkz-im-k3-kmsp,IHKZ,IM 12R,IM,TERMINAL,110300,,,,,,121.443,,,44.88913,-93.23686,840,K3,KMSP,12R,US
ihsv-im-k7-khsv,IHSV,IM 18R,IM,TERMINAL,109300,,,,,,180.942,,,34.65515,-86.78205,624,K7,KHSV,18R,US
ihub-im-k4-khou,IHUB,IM 04,IM,TERMINAL,109900,,,,,,43.818,,,29.63747,-95.28713,44,K4,KHOU,04,US
ihuu-im-k5-kdtw,IHUU,IM 03R,IM,TERMINAL,111500,,,,,,28.628,,,42.19349,-83.35337,631,K5,KDTW,03R,US
ihvd-im-k5-kfwa,IHVD,IM 05,IM,TERMINAL,111900,,,,,,44.166,,,40.96100,-85.21486,808,K5,KFWA,05,US
iiac-im-k5-kord,IIAC,IM 27L,IM,TERMINAL,110500,,,,,,270.002,,,41.98385,-87.88589,642,K5,KORD,27L,US
iiln-im-k5-kiln,IILN,IM 22R,IM,TERMINAL,110700,,,,,,217.205,,,39.44474,-83.78433,1074,K5,KILN,22R,US
iind-im-k5-kind,IIND,IM 05L,IM,TERMINAL,111750,,,,,,44.443,,,39.70436,-86.32346,736,K5,KIND,05L,US
iisu-im-k6-kiad,IISU,IM 19R,IM,TERMINAL,110750,,,,,,180.643,,,38.97320,-77.47441,276,K6,KIAD,19R,US
iiwy-im-k6-kjfk,IIWY,IM 22L,IM,TERMINAL,110900,,,,,,210.677,,,40.64754,-73.75307,12,K6,KJFK,22L,US
iizj-im-k5-kord,IIZJ,IM 10R,IM,TERMINAL,110750,,,,,,89.877,,,41.95720,-87.93102,680,K5,KORD,10R,US
ijan-im-k7-kjan,IJAN,IM 16L,IM,TERMINAL,110500,,,,,,158.083,,,32.33061,-90.07886,290,K7,KJAN,16L,US
ijax-im-k7-kjax,IJAX,IM 08,IM,TERMINAL,110700,,,,,,70.465,,,30.49542,-81.70257,28,K7,KJAX,08,US
ijfk-im-k6-kjfk,IJFK,IM 04R,IM,TERMINAL,109500,,,,,,30.677,,,40.62331,-73.77197,14,K6,KJFK,04R,US
ijjm-im-k5-ksdf,IJJM,IM 35R,IM,TERMINAL,110550,,,,,,344.972,,,38.16304,-85.72310,464,K5,KSDF,35R,US
ijvh-im-k6-kbgr,IJVH,IM 15,IM,TERMINAL,109500,,,,,,134.292,,,44.82002,-68.84631,184,K6,KBGR,15,US
ijyv-im-k4-kiah,IJYV,IM 26L,IM,TERMINAL,109700,,,,,,269.958,,,29.99344,-95.32239,89,K4,KIAH,26L,US
ikd-im-rj-rjbb,IKD,IM 06R,IM,TERMINAL,108100,,,,,,50.879,,,34.41592,135.22711,0,RJ,RJBB,06R,JP
ikf-im-rj-rjaa,IKF,IM 16R,IM,TERMINAL,111500,,,,,,149.622,,,35.77656,140.36672,130,RJ,RJAA,16R,JP
ikj-im-rj-rjbb,IKJ,IM 06L,IM,TERMINAL,108700,,,,,,50.869,,,34.42711,135.20403,0,RJ,RJBB,06L,JP
ikma-im-rk-rkpk,IKMA,IM 36L,IM,TERMINAL,108500,,,,,,353.977,,,35.16253,128.93917,0,RK,RKPK,36L,KR
ikn-im-rj-rjbb,IKN,IM 24L,IM,TERMINAL,110700,,,,,,230.925,,,34.43869,135.26104,0,RJ,RJBB,24L,JP
iku-im-rj-rjft,IKU,IM 07,IM,TERMINAL,109300,,,,,,64.370,,,32.82995,130.83668,632,RJ,RJFT,07,JP
ikw-im-rj-rjbb,IKW,IM 24R,IM,TERMINAL,108500,,,,,,230.869,,,34.45273,135.24219,0,RJ,RJBB,24R,JP
ildz-im-k3-kstl,ILDZ,IM 12L,IM,TERMINAL,108900,,,,,,122.315,,,38.75332,-90.36942,530,K3,KSTL,12L,US
ilhj-im-k5-kbmi,ILHJ,IM 20,IM,TERMINAL,111900,,,,,,197.846,,,40.48789,-88.90594,844,K5,KBMI,20,US
iliz-im-k5-kcle,ILIZ,IM 06L,IM,TERMINAL,111550,,,,,,49.854,,,41.39832,-81.87594,762,K5,KCLE,06L,US
illg-im-k7-kgso,ILLG,IM 05L,IM,TERMINAL,109550,,,,,,45.868,,,36.09761,-79.96114,904,K7,KGSO,05L,US
ilsq-im-k6-kewr,ILSQ,IM 22L,IM,TERMINAL,108700,,,,,,205.742,,,40.70036,-74.15894,0,K6,KEWR,22L,US
ilxb-im-k6-kpit,ILXB,IM 10L,IM,TERMINAL,111700,,,,,,91.969,,,40.50244,-80.27417,1176,K6,KPIT,10L,US
imdt-im-k6-kmdt,IMDT,IM 13,IM,TERMINAL,110900,,,,,,116.882,,,40.19886,-76.77854,306,K6,KMDT,13,US
imed-im-k5-kord,IMED,IM 10L,IM,TERMINAL,111100,,,,,,89.895,,,41.96904,-87.93469,677,K5,KORD,10L,US
imht-im-k6-kmht,IMHT,IM 35,IM,TERMINAL,109100,,,,,,336.604,,,42.91869,-71.42509,264,K6,KMHT,35,US
imke-im-k5-kmke,IMKE,IM 01L,IM,TERMINAL,110300,,,,,,7.130,,,42.92907,-87.89789,706,K5,KMKE,01L,US
imoy-im-k2-kslc,IMOY,IM 16L,IM,TERMINAL,109500,,,,,,174.979,,,40.80992,-111.97723,4223,K2,KSLC,16L,US
imr-im-rj-rjsa,IMR,IM 24,IM,TERMINAL,111900,,,,,,231.811,,,40.74315,140.70513,650,RJ,RJSA,24,JP
imsp-im-k3-kmsp,IMSP,IM 30L,IM,TERMINAL,110300,,,,,,301.443,,,44.87207,-93.19783,808,K3,KMSP,30L,US
imsy-im-k4-kmsy,IMSY,IM 11,IM,TERMINAL,109900,,,,,,105.561,,,29.99729,-90.28449,4,K4,KMSY,11,US
imxk-im-k6-kadw,IMXK,IM 19R,IM,TERMINAL,111500,,,,,,179.859,,,38.82641,-76.87072,272,K6,KADW,19R,US
imyq-im-k6-kbdl,IMYQ,IM 24,IM,TERMINAL,111100,,,,,,224.283,,,41.95335,-72.66861,140,K6,KBDL,24,US
inj-im-zb-zbaa,INJ,IM 01,IM,TERMINAL,108500,,,,,,353.132,,,40.05578,116.61816,0,ZB,ZBAA,01,CN
inll-im-rk-rksi,INLL,IM 33L,IM,TERMINAL,109300,,,,,,324.787,,,37.45192,126.46289,0,RK,RKSI,33L,KR
inrr-im-rk-rksi,INRR,IM 33R,IM,TERMINAL,108900,,,,,,324.788,,,37.45408,126.46669,0,RK,RKSI,33R,KR
iofr-im-rk-rkss,IOFR,IM 14R,IM,TERMINAL,108700,,,,,,135.141,,,37.57047,126.77281,0,RK,RKSS,14R,KR
iogz-im-k3-kstl,IOGZ,IM 11,IM,TERMINAL,111950,,,,,,122.288,,,38.76121,-90.41243,614,K3,KSTL,11,US
ioiu-im-k6-kiad,IOIU,IM 01L,IM,TERMINAL,110750,,,,,,0.643,,,38.94261,-77.47485,275,K6,KIAD,01L,US
iojp-im-k7-kmco,IOJP,IM 36R,IM,TERMINAL,110700,,,,,,359.466,,,28.41296,-81.32193,87,K7,KMCO,36R,US
iolj-im-k1-kgeg,IOLJ,IM 03,IM,TERMINAL,111100,,,,,,45.422,,,47.60835,-117.55268,2381,K1,KGEG,03,US
ioma-im-k3-koma,IOMA,IM 14R,IM,TERMINAL,110300,,,,,,144.501,,,41.31568,-95.90787,985,K3,KOMA,14R,US
iomo-im-k7-katl,IOMO,IM 10,IM,TERMINAL,111550,,,,,,89.976,,,33.62027,-84.45070,1001,K7,KATL,10,US
iond-im-k4-kiah,IOND,IM 26R,IM,TERMINAL,111550,,,,,,269.955,,,30.00719,-95.32789,94,K4,KIAH,26R,US
ioqv-im-k5-kind,IOQV,IM 05R,IM,TERMINAL,111150,,,,,,44.455,,,39.69775,-86.30761,776,K5,KIND,05R,US
iouf-im-k2-kden,IOUF,IM 34R,IM,TERMINAL,111100,,,,,,0.512,,,39.86175,-104.68722,5345,K2,KDEN,34R,US
ioyg-im-k5-kord,IOYG,IM 09C,IM,TERMINAL,111900,,,,,,89.998,,,41.98830,-87.93474,680,K5,KORD,09C,US
ipa-im-sb-sbpa,IPA,IM 11,IM,TERMINAL,110300,,,,,,91.000,,,-29.99400,-51.18567,0,SB,SBPA,11,BR
ipaj-im-k3-kmci,IPAJ,IM 19R,IM,TERMINAL,109100,,,,,,192.888,,,39.32503,-94.71995,972,K3,KMCI,19R,US
ipdx-im-k1-kpdx,IPDX,IM 10R,IM,TERMINAL,110500,,,,,,119.113,,,45.59631,-122.62445,17,K1,KPDX,10R,US
iphl-im-k6-kphl,IPHL,IM 09R,IM,TERMINAL,109300,,,,,,75.433,,,39.86021,-75.27822,7,K6,KPHL,09R,US
ipjl-im-k3-kmsp,IPJL,IM 12L,IM,TERMINAL,110700,,,,,,121.440,,,44.89436,-93.22386,845,K3,KMSP,12L,US
ipkq-im-k4-kdfw,IPKQ,IM 35C,IM,TERMINAL,110300,,,,,,0.258,,,32.87647,-97.02618,563,K4,KDFW,35C,US
ipku-im-k7-katl,IPKU,IM 28,IM,TERMINAL,111750,,,,,,269.976,,,33.62028,-84.41549,982,K7,KATL,28,US
iplq-im-k7-ktlh,IPLQ,IM 27,IM,TERMINAL,111900,,,,,,269.483,,,30.39153,-84.32816,48,K7,KTLH,27,US
ippz-im-k4-kdfw,IPPZ,IM 17L,IM,TERMINAL,111750,,,,,,180.269,,,32.90148,-97.00979,522,K4,KDFW,17L,US
ipvl-im-k3-kmci,IPVL,IM 01R,IM,TERMINAL,110750,,,,,,12.897,,,39.27919,-94.70967,1011,K3,KMCI,01R,US
ipvy-im-k5-kcle,IPVY,IM 24R,IM,TERMINAL,111550,,,,,,229.854,,,41.41772,-81.84647,778,K5,KCLE,24R,US
ipwm-im-k6-kpwm,IPWM,IM 11,IM,TERMINAL,109900,,,,,,95.337,,,43.64610,-70.32966,64,K6,KPWM,11,US
iqu-im-zb-zbaa,IQU,IM 36R,IM,TERMINAL,109900,,,,,,353.140,,,40.05300,116.60056,0,ZB,ZBAA,36R,CN
irgr-im-k4-kokc,IRGR,IM 35R,IM,TERMINAL,110900,,,,,,359.961,,,35.37539,-97.58893,1271,K4,KOKC,35R,US
irgs-im-k7-kclt,IRGS,IM 18R,IM,TERMINAL,110150,,,,,,175.979,,,35.22745,-80.96761,739,K7,KCLT,18R,US
irhx-im-k5-kiln,IRHX,IM 22L,IM,TERMINAL,109350,,,,,,217.214,,,39.43594,-83.77383,1079,K5,KILN,22L,US
irkn-im-rk-rksi,IRKN,IM 34,IM,TERMINAL,108100,,,,,,324.773,,,37.44111,126.44375,0,RK,RKSI,34,KR
irks-im-rk-rksi,IRKS,IM 16,IM,TERMINAL,110350,,,,,,144.773,,,37.47511,126.41353,0,RK,RKSI,16,KR
irli-im-k5-ksdf,IRLI,IM 35L,IM,TERMINAL,109350,,,,,,345.462,,,38.15576,-85.73939,457,K5,KSDF,35L,US
irsr-im-k6-korh,IRSR,IM 11,IM,TERMINAL,110900,,,,,,93.870,,,42.26749,-71.89396,954,K6,KORH,11,US
isaj-im-k5-kord,ISAJ,IM 09L,IM,TERMINAL,111750,,,,,,90.017,,,42.00283,-87.92984,669,K5,KORD,09L,US
isel-im-rk-rkss,ISEL,IM 14L,IM,TERMINAL,109900,,,,,,135.145,,,37.57275,126.77572,0,RK,RKSS,14L,KR
ishv-im-k4-kshv,ISHV,IM 14,IM,TERMINAL,110700,,,,,,142.847,,,32.45569,-93.83654,264,K4,KSHV,14,US
isjw-im-k3-kstl,ISJW,IM 30R,IM,TERMINAL,111300,,,,,,302.315,,,38.73741,-90.33715,602,K3,KSTL,30R,US
iskp-im-rk-rkss,ISKP,IM 32R,IM,TERMINAL,110700,,,,,,315.145,,,37.54569,126.80969,0,RK,RKSS,32R,KR
islc-im-k2-kslc,ISLC,IM 34R,IM,TERMINAL,109500,,,,,,354.979,,,40.77233,-111.97286,4225,K2,KSLC,34R,US
isll-im-rk-rksi,ISLL,IM 15L,IM,TERMINAL,111900,,,,,,144.788,,,37.48622,126.43811,0,RK,RKSI,15L,KR
ismf-im-k2-ksmf,ISMF,IM 17R,IM,TERMINAL,111100,,,,,,180.742,,,38.70947,-121.60105,23,K2,KSMF,17R,US
ismr-im-k1-kgtf,ISMR,IM 03,IM,TERMINAL,111300,,,,,,44.944,,,47.46767,-111.38629,3683,K1,KGTF,03,US
isrr-im-rk-rksi,ISRR,IM 15R,IM,TERMINAL,109100,,,,,,144.787,,,37.48408,126.43431,0,RK,RKSI,15R,KR
isxh-im-k5-kord,ISXH,IM 10C,IM,TERMINAL,108950,,,,,,89.889,,,41.96569,-87.93469,674,K5,KORD,10C,US
isyr-im-k6-ksyr,ISYR,IM 28,IM,TERMINAL,109900,,,,,,267.430,,,43.10947,-76.08847,395,K6,KSYR,28,US
itb-im-sb-sbgl,ITB,IM 10,IM,TERMINAL,109300,,,,,,74.375,,,-22.80233,-43.25733,24,SB,SBGL,10,BR
itc-im-rj-rjtt,ITC,IM 34R,IM,TERMINAL,108900,,,,,,329.995,,,35.53901,139.80563,0,RJ,RJTT,34R,JP
itsl-im-k5-kord,ITSL,IM 28R,IM,TERMINAL,111100,,,,,,269.895,,,41.96836,-87.88031,650,K5,KORD,28R,US
itwi-im-k3-kict,ITWI,IM 01L,IM,TERMINAL,109100,,,,,,19.925,,,37.63254,-97.44714,1317,K3,KICT,01L,US
itwo-im-k2-kont,ITWO,IM 26L,IM,TERMINAL,111350,,,,,,269.987,,,34.05498,-117.57996,924,K2,KONT,26L,US
iuc-im-sb-sbgr,IUC,IM 09L,IM,TERMINAL,110700,,,,,,73.587,,,-23.43500,-46.48617,0,SB,SBGR,09L,BR
iudy-im-k5-krfd,IUDY,IM 07,IM,TERMINAL,109550,,,,,,65.345,,,42.18925,-89.12279,728,K5,KRFD,07,US
iuel-im-sc-scel,IUEL,IM 17L,IM,TERMINAL,110300,,,,,,177.427,,,-33.36833,-70.78500,0,SC,SCEL,17L,CL
iupe-im-k4-kafw,IUPE,IM 16L,IM,TERMINAL,110150,,,,,,170.256,,,33.00636,-97.32208,722,K4,KAFW,16L,US
iuqu-im-k7-kbna,IUQU,IM 02R,IM,TERMINAL,111750,,,,,,17.916,,,36.11047,-86.66854,569,K7,KBNA,02R,US
iuyj-im-k5-kord,IUYJ,IM 27C,IM,TERMINAL,111900,,,,,,269.998,,,41.98831,-87.88705,656,K5,KORD,27C,US
ivac-im-k5-kcvg,IVAC,IM 36L,IM,TERMINAL,110750,,,,,,0.169,,,39.04564,-84.68383,873,K5,KCVG,36L,US
ivnk-im-k4-kaus,IVNK,IM 17L,IM,TERMINAL,110500,,,,,,178.705,,,30.20590,-97.65795,488,K4,KAUS,17L,US
ivqx-im-k5-kord,IVQX,IM 28L,IM,TERMINAL,110750,,,,,,269.877,,,41.95749,-87.89652,650,K5,KORD,28L,US
ivyn-im-k4-kdfw,IVYN,IM 18R,IM,TERMINAL,111900,,,,,,180.247,,,32.91793,-97.05464,603,K4,KDFW,18R,US
ivze-im-k5-kord,IVZE,IM 28C,IM,TERMINAL,108950,,,,,,269.889,,,41.96632,-87.88866,648,K5,KORD,28C,US
ixuu-im-k7-kclt,IXUU,IM 36L,IM,TERMINAL,110150,,,,,,355.979,,,35.19845,-80.96511,739,K7,KCLT,36L,US
pc-im-sa-saez,PC,IM 11,IM,TERMINAL,110100,,,,,,102.310,,,-34.81853,-58.55622,0,SA,SAEZ,11,AR
