slug,identifier,name,type,usage,frequency,dme_channel,dme_rx_frequency,dme_tx_frequency,dme_bias,vor_slaved_variation,localizer_heading,glide_slope_angle,reception_range,latitude,longitude,elevation,region,airport,airport_runway,country
ad-loc-en-ensd,AD,LOC 26,LOC,TERMINAL,108300,,,,,,253.303,,18,61.82963,6.11190,0,EN,ENSD,26,NO
an-loc-en-enan,AN,LOC 14,LOC,TERMINAL,109350,,,,,,149.782,,18,69.28360,16.15847,0,EN,ENAN,14,NO
bk-loc-en-enna,BK,LOC 16,LOC,TERMINAL,109350,,,,,,175.430,,18,70.05455,24.97683,0,EN,ENNA,16,NO
bl-loc-en-enbl,BL,LOC 07,LOC,TERMINAL,110700,,,,,,72.640,,18,61.39057,5.76000,0,EN,ENBL,07,NO
bt-loc-en-enbs,BT,LOC 21,LOC,TERMINAL,111100,,,,,,224.005,,18,70.59629,29.68115,0,EN,ENBS,21,NO
bv-loc-en-enbv,BV,LOC 24,LOC,TERMINAL,110900,,,,,,254.782,,18,70.86957,29.01231,0,EN,ENBV,24,NO
cc-loc-lf-lflh,CC,LOC 35,LOC,TERMINAL,108500,,,,,,350.619,,18,46.83370,4.81575,0,LF,LFLH,35,FR
cli-loc-lf-lfkc,CLI,LOC 18,LOC,TERMINAL,109500,,,,,,179.827,,18,42.51822,8.79303,0,LF,LFKC,18,FR
cmd-loc-lf-lfmd,CMD,LOC 35,LOC,TERMINAL,110350,,,,,,352.684,,18,43.55653,6.94933,0,LF,LFMD,35,FR
du-loc-en-endu,DU,LOC 10,LOC,TERMINAL,110300,,,,,,108.408,,18,69.05126,18.57675,0,EN,ENDU,10,NO
fd-loc-en-enbl,FD,LOC 25,LOC,TERMINAL,109350,,,,,,249.385,,18,61.38831,5.74391,0,EN,ENBL,25,NO
fk-loc-es-esnk,FK,LOC 17,LOC,TERMINAL,109300,,,,,,171.545,,18,63.03711,17.77261,0,ES,ESNK,17,SE
fl-loc-en-enfl,FL,LOC 07,LOC,TERMINAL,108900,,,,,,70.873,,18,61.58495,5.03258,0,EN,ENFL,07,NO
gn-loc-bg-bggh,GN,LOC 23,LOC,TERMINAL,110300,,,,,,194.761,,18,64.18818,-51.67826,0,BG,BGGH,23,GL
ha-loc-en-enhf,HA,LOC 04,LOC,TERMINAL,111350,,,,,,55.638,,18,70.67659,23.65496,0,EN,ENHF,04,NO
he-loc-fh-fhsh,HE,LOC 20,LOC,TERMINAL,109300,,,,,,183.828,,18,-15.95153,-5.64724,0,FH,FHSH,20,SH
hf-loc-en-enhf,HF,LOC 22,LOC,TERMINAL,110700,,,,,,235.940,,18,70.67668,23.65536,0,EN,ENHF,22,NO
hn-loc-en-enov,HN,LOC 06,LOC,TERMINAL,111500,,,,,,120.875,,18,62.16338,6.02292,0,EN,ENOV,06,NO
hou-loc-ef-efkt,HOU,LOC 16,LOC,TERMINAL,111900,,,,,,167.301,,18,67.69336,24.84971,0,EF,EFKT,16,FI
hv-loc-en-enhv,HV,LOC 26,LOC,TERMINAL,108100,,,,,,217.214,,18,71.00919,25.97525,0,EN,ENHV,26,NO
iady-loc-lt-ltcp,IADY,LOC 04,LOC,TERMINAL,110500,,,,,,49.246,,18,37.73947,38.48111,0,LT,LTCP,04,TR
iaiz-loc-k3-kaiz,IAIZ,LOC 22,LOC,TERMINAL,111500,,,,,,216.963,,18,38.08671,-92.55838,0,K3,KAIZ,22,US
iakr-loc-k5-kakr,IAKR,LOC 25,LOC,TERMINAL,110900,,,,,,241.875,,18,41.03179,-81.48167,0,K5,KAKR,25,US
iali-loc-k4-kali,IALI,LOC 31,LOC,TERMINAL,109300,,,,,,314.643,,18,27.74726,-98.03612,0,K4,KALI,31,US
iapl-loc-k3-kmsp,IAPL,LOC 04,LOC,TERMINAL,109300,,,,,,44.921,,18,44.89556,-93.20555,0,K3,KMSP,04,US
iarg-loc-k4-karg,IARG,LOC 18,LOC,TERMINAL,111100,,,,,,180.037,,18,36.11624,-90.92328,0,K4,KARG,18,US
iase-loc-k2-kase,IASE,LOC 15,LOC,TERMINAL,111150,,,,,,159.715,,18,39.21017,-106.86265,0,K2,KASE,15,US
iasx-loc-k5-kasx,IASX,LOC 02,LOC,TERMINAL,109300,,,,,,20.702,,18,46.55647,-90.91590,0,K5,KASX,02,US
iavc-loc-k6-kavc,IAVC,LOC 01,LOC,TERMINAL,110500,,,,,,357.611,,18,36.69598,-78.05487,0,K6,KAVC,01,US
iawo-loc-k1-kawo,IAWO,LOC 34,LOC,TERMINAL,111500,,,,,,359.099,,18,48.17146,-122.15658,0,K1,KAWO,34,US
iaxh-loc-k4-kaxh,IAXH,LOC 09,LOC,TERMINAL,108900,,,,,,94.264,,18,29.50554,-95.46774,0,K4,KAXH,09,US
iayn-loc-k2-kwvi,IAYN,LOC 02,LOC,TERMINAL,108300,,,,,,32.206,,18,36.94042,-121.78682,0,K2,KWVI,02,US
ibcb-loc-k6-kbcb,IBCB,LOC 13,LOC,TERMINAL,109100,,,,,,117.281,,18,37.20442,-80.39999,0,K6,KBCB,13,US
ibf-loc-nv-nvvv,IBF,LOC 11,LOC,TERMINAL,110700,,,,,,92.264,,18,-17.68806,168.32722,0,NV,NVVV,11,VU
ibfo-loc-k7-kmrh,IBFO,LOC 26,LOC,TERMINAL,108500,,,,,,247.952,,18,34.73282,-76.66999,0,K7,KMRH,26,US
ibqg-loc-k6-kmtn,IBQG,LOC 15,LOC,TERMINAL,110700,,,,,,132.771,,18,39.32211,-76.40754,0,K6,KMTN,15,US
ibvi-loc-k6-kbvi,IBVI,LOC 10,LOC,TERMINAL,109300,,,,,,93.876,,18,40.77198,-80.38189,0,K6,KBVI,10,US
ibvo-loc-k4-kbvo,IBVO,LOC 17,LOC,TERMINAL,111300,,,,,,178.870,,18,36.75295,-96.01093,0,K4,KBVO,17,US
ibvx-loc-k4-kbvx,IBVX,LOC 08,LOC,TERMINAL,109700,,,,,,79.762,,18,35.72649,-91.63784,0,K4,KBVX,08,US
ibvy-loc-k6-kbvy,IBVY,LOC 16,LOC,TERMINAL,110500,,,,,,140.747,,18,42.58047,-70.90919,0,K6,KBVY,16,US
ibwd-loc-k4-kbwd,IBWD,LOC 17,LOC,TERMINAL,109100,,,,,,179.367,,18,31.78444,-98.95485,0,K4,KBWD,17,US
ibx-loc-cy-cybx,IBX,LOC 05,LOC,TERMINAL,109100,,,,,,27.205,,18,51.44833,-57.18167,0,CY,CYBX,05,CA
ibxa-loc-k4-kbxa,IBXA,LOC 18,LOC,TERMINAL,111100,,,,,,182.734,,18,30.80381,-89.86551,0,K4,KBXA,18,US
ibxo-loc-k7-kbhm,IBXO,LOC 18,LOC,TERMINAL,111300,,,,,,180.027,,18,33.55092,-86.74720,0,K7,KBHM,18,US
ibyl-loc-k5-kbyl,IBYL,LOC 20,LOC,TERMINAL,108300,,,,,,194.948,,18,36.79277,-84.19928,0,K5,KBYL,20,US
ibz-loc-li-lipb,IBZ,LOC 01,LOC,TERMINAL,109100,,,,,,18.598,,18,46.45569,11.32819,0,LI,LIPB,01,IT
icbe-loc-k6-kcbe,ICBE,LOC 23,LOC,TERMINAL,110500,,,,,,217.475,,18,39.61067,-78.76367,0,K6,KCBE,23,US
icdw-loc-k6-kcdw,ICDW,LOC 22,LOC,TERMINAL,109350,,,,,,209.516,,18,40.86689,-74.28699,0,K6,KCDW,22,US
icej-loc-k6-kwwd,ICEJ,LOC 19,LOC,TERMINAL,108900,,,,,,179.624,,18,39.00064,-74.90561,0,K6,KWWD,19,US
icfq-loc-k5-c29,ICFQ,LOC 10,LOC,TERMINAL,110350,,,,,,99.686,,18,43.11256,-89.52215,0,K5,C29,10,US
ickf-loc-k7-kckf,ICKF,LOC 10,LOC,TERMINAL,108900,,,,,,97.541,,18,31.98616,-83.76376,0,K7,KCKF,10,US
ickv-loc-k7-kckv,ICKV,LOC 35,LOC,TERMINAL,111700,,,,,,346.190,,18,36.63201,-87.41836,0,K7,KCKV,35,US
icn-loc-yb-ybcs,ICN,LOC 33,LOC,TERMINAL,109500,,,,,,336.606,,18,-16.86467,145.74306,0,YB,YBCS,33,AU
icnv-loc-k7-kmia,ICNV,LOC 26R,LOC,TERMINAL,109300,,,,,,267.374,,18,25.80277,-80.30464,0,K7,KMIA,26R,US
icpf-loc-k5-kcpf,ICPF,LOC 14,LOC,TERMINAL,109350,,,,,,139.005,,18,37.37579,-83.24975,0,K5,KCPF,14,US
icpt-loc-k4-kcpt,ICPT,LOC 15,LOC,TERMINAL,111150,,,,,,159.296,,18,32.34347,-97.42914,0,K4,KCPT,15,US
icub-loc-k7-kcub,ICUB,LOC 31,LOC,TERMINAL,110900,,,,,,305.546,,18,33.97510,-81.00308,0,K7,KCUB,31,US
iczl-loc-k7-kczl,ICZL,LOC 35,LOC,TERMINAL,110700,,,,,,348.212,,18,34.46513,-84.94161,0,K7,KCZL,35,US
idag-loc-rk-rktn,IDAG,LOC 31R,LOC,TERMINAL,111900,,,,,,304.348,,18,35.90322,128.64361,0,RK,RKTN,31R,KR
idbq-loc-k3-kdbq,IDBQ,LOC 31,LOC,TERMINAL,108700,,,,,,315.047,,18,42.41135,-90.71827,0,K3,KDBQ,31,US
idkx-loc-k7-kdkx,IDKX,LOC 26,LOC,TERMINAL,111300,,,,,,255.119,,18,35.96238,-83.88036,0,K7,KDKX,26,US
idlg-loc-pa-padl,IDLG,LOC 19,LOC,TERMINAL,111900,,,,,,206.453,,18,59.03535,-158.51453,0,PA,PADL,19,US
idll-loc-k5-kdll,IDLL,LOC 01,LOC,TERMINAL,109150,,,,,,8.735,,18,43.53192,-89.76829,0,K5,KDLL,01,US
idmn-loc-lt-ltbs,IDMN,LOC 19,LOC,TERMINAL,110900,,,,,,195.350,,18,36.69653,28.78683,0,LT,LTBS,19,TR
idof-loc-k5-karv,IDOF,LOC 36,LOC,TERMINAL,111700,,,,,,358.926,,18,45.94209,-89.73315,0,K5,KARV,36,US
idri-loc-k4-kdri,IDRI,LOC 36,LOC,TERMINAL,111100,,,,,,359.421,,18,30.83943,-93.33782,0,K4,KDRI,36,US
idtn-loc-k4-kdtn,IDTN,LOC 14,LOC,TERMINAL,111700,,,,,,137.946,,18,32.53711,-93.74058,0,K4,KDTN,14,US
iduc-loc-k4-kduc,IDUC,LOC 35,LOC,TERMINAL,111500,,,,,,359.306,,18,34.48377,-97.96005,0,K4,KDUC,35,US
idxr-loc-k6-kdxr,IDXR,LOC 08,LOC,TERMINAL,111550,,,,,,72.551,,18,41.37039,-73.48134,0,K6,KDXR,08,US
idzh-loc-k6-kcjr,IDZH,LOC 04,LOC,TERMINAL,109950,,,,,,28.145,,18,38.53262,-77.85474,0,K6,KCJR,04,US
ieif-loc-k6-kpsf,IEIF,LOC 26,LOC,TERMINAL,108300,,,,,,244.195,,18,42.42343,-73.30343,0,K6,KPSF,26,US
ieki-loc-k4-kcrp,IEKI,LOC 31,LOC,TERMINAL,110300,,,,,,315.966,,18,27.78096,-97.51772,0,K4,KCRP,31,US
iemb-loc-k4-kabi,IEMB,LOC 17R,LOC,TERMINAL,109750,,,,,,179.763,,18,32.40549,-99.68481,0,K4,KABI,17R,US
iemv-loc-k6-kemv,IEMV,LOC 34,LOC,TERMINAL,108750,,,,,,325.512,,18,36.69323,-77.48821,0,K6,KEMV,34,US
ier-loc-cy-cyhm,IER,LOC 30,LOC,TERMINAL,110900,,,,,,287.284,,18,43.18147,-79.95695,0,CY,CYHM,30,CA
ierv-loc-k4-kerv,IERV,LOC 30,LOC,TERMINAL,109100,,,,,,310.693,,18,29.97908,-99.09267,0,K4,KERV,30,US
ietf-loc-k4-kelp,IETF,LOC 04,LOC,TERMINAL,111500,,,,,,49.867,,18,31.82457,-106.36772,0,K4,KELP,04,US
ieuy-loc-k5-kcey,IEUY,LOC 23,LOC,TERMINAL,110500,,,,,,229.756,,18,36.65731,-88.38348,0,K5,KCEY,23,US
ievg-loc-k4-ktik,IEVG,LOC 13,LOC,TERMINAL,111700,,,,,,131.177,,18,35.40392,-97.37494,0,K4,KTIK,13,US
ievo-loc-k7-kolv,IEVO,LOC 36,LOC,TERMINAL,111550,,,,,,359.541,,18,34.99216,-89.78698,0,K7,KOLV,36,US
iey-loc-bi-biar,IEY,LOC 01,LOC,TERMINAL,111900,,,,,,23.789,,18,65.63144,-18.01119,0,BI,BIAR,01,IS
ieye-loc-k5-keye,IEYE,LOC 21,LOC,TERMINAL,111500,,,,,,205.444,,18,39.82460,-86.29818,0,K5,KEYE,21,US
ieyr-loc-k3-kmyj,IEYR,LOC 24,LOC,TERMINAL,109500,,,,,,245.615,,18,39.15304,-91.82908,0,K3,KMYJ,24,US
iezc-loc-lt-ltcd,IEZC,LOC 28,LOC,TERMINAL,108900,,,,,,290.859,,18,39.71658,39.50811,0,LT,LTCD,28,TR
ife-loc-rj-rjfe,IFE,LOC 21,LOC,TERMINAL,110100,,,,,,208.179,,18,32.66764,128.83238,0,RJ,RJFE,21,JP
ifft-loc-k5-kfft,IFFT,LOC 25,LOC,TERMINAL,109950,,,,,,243.805,,18,38.17717,-84.91855,0,K5,KFFT,25,US
ifjq-loc-k6-kphf,IFJQ,LOC 20,LOC,TERMINAL,109300,,,,,,192.753,,18,37.12169,-76.50018,0,K6,KPHF,20,US
ifko-loc-k1-kspb,IFKO,LOC 15,LOC,TERMINAL,111100,,,,,,168.688,,18,45.76276,-122.85945,0,K1,KSPB,15,US
ifld-loc-k5-kfld,IFLD,LOC 36,LOC,TERMINAL,108300,,,,,,0.049,,18,43.78089,-88.48746,0,K5,KFLD,36,US
ifn-loc-ei-eidl,IFN,LOC 21,LOC,TERMINAL,110300,,,,,,200.350,,18,55.03775,-8.34517,0,EI,EIDL,21,IE
ifqd-loc-k7-kfqd,IFQD,LOC 01,LOC,TERMINAL,109550,,,,,,3.593,,18,35.43596,-81.93448,0,K7,KFQD,01,US
ifqr-loc-k7-kfzg,IFQR,LOC 02,LOC,TERMINAL,111100,,,,,,11.833,,18,31.69158,-83.27092,0,K7,KFZG,02,US
ifu-loc-rj-rjfe,IFU,LOC 03,LOC,TERMINAL,109700,,,,,,25.651,,18,32.67617,128.83846,0,RJ,RJFE,03,JP
iful-loc-k2-kful,IFUL,LOC 24,LOC,TERMINAL,108900,,,,,,256.922,,18,33.87081,-117.98609,0,K2,KFUL,24,US
ifyj-loc-k6-kfyj,IFYJ,LOC 10,LOC,TERMINAL,109550,,,,,,82.921,,18,37.52264,-76.75578,0,K6,KFYJ,10,US
ifyv-loc-k4-kfyv,IFYV,LOC 16,LOC,TERMINAL,111900,,,,,,169.002,,18,35.99377,-94.16734,0,K4,KFYV,16,US
igdp-loc-sp-spst,IGDP,LOC 35,LOC,TERMINAL,109700,,,,,,349.883,,18,-6.49639,-76.37556,0,SP,SPST,35,PE
igkj-loc-k6-kgkj,IGKJ,LOC 25,LOC,TERMINAL,108500,,,,,,241.135,,18,41.62281,-80.22373,0,K6,KGKJ,25,US
igp-loc-cy-cygp,IGP,LOC 10,LOC,TERMINAL,110300,,,,,,84.044,,18,48.77596,-64.46800,0,CY,CYGP,10,CA
igpo-loc-k1-kpdx,IGPO,LOC 21,LOC,TERMINAL,108900,,,,,,224.922,,18,45.58049,-122.61957,0,K1,KPDX,21,US
igr-loc-cy-cygr,IGR,LOC 07,LOC,TERMINAL,109900,,,,,,52.546,,18,47.42925,-61.77087,0,CY,CYGR,07,CA
igup-loc-k2-kgup,IGUP,LOC 06,LOC,TERMINAL,111700,,,,,,73.818,,18,35.51460,-108.77430,0,K2,KGUP,06,US
igx-loc-cy-cyhz,IGX,LOC 05,LOC,TERMINAL,109900,,,,,,34.992,,18,44.89078,-63.50243,0,CY,CYHZ,05,CA
igzp-loc-lt-ltfg,IGZP,LOC 08,LOC,TERMINAL,108500,,,,,,81.650,,18,36.30067,32.31222,0,LT,LTFG,08,TR
ihc-loc-rj-rjth,IHC,LOC 26,LOC,TERMINAL,110100,,,,,,246.638,,18,33.11329,139.78349,0,RJ,RJTH,26,JP
ihew-loc-k4-kdwh,IHEW,LOC 17R,LOC,TERMINAL,110500,,,,,,172.795,,18,30.05241,-95.55176,0,K4,KDWH,17R,US
ihhn-loc-ed-eddh,IHHN,LOC 33,LOC,TERMINAL,109900,,,,,,332.882,,18,53.65714,9.97286,0,ED,EDDH,33,DE
ihhr-loc-k2-khhr,IHHR,LOC 25,LOC,TERMINAL,109100,,,,,,266.744,,18,33.92246,-118.34337,0,K2,KHHR,25,US
ihnz-loc-k7-khnz,IHNZ,LOC 06,LOC,TERMINAL,109750,,,,,,51.084,,18,36.36639,-78.52176,0,K7,KHNZ,06,US
ihom-loc-pa-paho,IHOM,LOC 04,LOC,TERMINAL,109300,,,,,,54.985,,18,59.65190,-151.45866,0,PA,PAHO,04,US
ihrj-loc-k7-khrj,IHRJ,LOC 05,LOC,TERMINAL,108350,,,,,,39.833,,18,35.38679,-78.72545,0,K7,KHRJ,05,US
ihsd-loc-k4-khsd,IHSD,LOC 18,LOC,TERMINAL,109900,,,,,,175.000,,18,35.59554,-97.70496,0,K4,KHSD,18,US
ihwd-loc-k2-khwd,IHWD,LOC 28L,LOC,TERMINAL,111500,,,,,,303.136,,18,37.66283,-122.12965,0,K2,KHWD,28L,US
ihwy-loc-k6-khwy,IHWY,LOC 15,LOC,TERMINAL,109750,,,,,,138.934,,18,38.57903,-77.70255,0,K6,KHWY,15,US
ihxd-loc-k7-khxd,IHXD,LOC 21,LOC,TERMINAL,111300,,,,,,205.955,,18,32.21681,-80.70182,0,K7,KHXD,21,US
ihzl-loc-k6-khzl,IHZL,LOC 28,LOC,TERMINAL,110500,,,,,,274.135,,18,40.98742,-76.00661,0,K6,KHZL,28,US
ihzr-loc-k4-khzr,IHZR,LOC 36,LOC,TERMINAL,111900,,,,,,4.282,,18,30.72798,-91.47782,0,K4,KHZR,36,US
iier-loc-k4-kier,IIER,LOC 35,LOC,TERMINAL,110500,,,,,,346.538,,18,31.74339,-93.10051,0,K4,KIER,35,US
iif-loc-cy-cyif,IIF,LOC 19,LOC,TERMINAL,108700,,,,,,170.818,,18,51.20236,-58.65544,0,CY,CYIF,19,CA
iigd-loc-lt-ltct,IIGD,LOC 12,LOC,TERMINAL,108350,,,,,,115.833,,18,39.98236,43.87667,0,LT,LTCT,12,TR
iijd-loc-k6-kijd,IIJD,LOC 27,LOC,TERMINAL,108350,,,,,,254.391,,18,41.74334,-72.18549,0,K6,KIJD,27,US
iile-loc-k4-kile,IILE,LOC 01,LOC,TERMINAL,108300,,,,,,16.718,,18,31.09386,-97.68369,0,K4,KILE,01,US
iiya-loc-k4-kiya,IIYA,LOC 16,LOC,TERMINAL,110950,,,,,,158.734,,18,29.96681,-92.08020,0,K4,KIYA,16,US
iiyy-loc-k3-kccy,IIYY,LOC 12,LOC,TERMINAL,108300,,,,,,125.451,,18,43.06999,-92.60398,0,K3,KCCY,12,US
ijf-loc-sb-sbjf,IJF,LOC 03,LOC,TERMINAL,109100,,,,,,3.000,,18,-21.78737,-43.38635,0,SB,SBJF,03,BR
ijfz-loc-k6-kjfz,IJFZ,LOC 25,LOC,TERMINAL,109750,,,,,,245.539,,18,37.06096,-81.80594,0,K6,KJFZ,25,US
ijls-loc-k6-kptb,IJLS,LOC 05,LOC,TERMINAL,110300,,,,,,42.799,,18,37.19095,-77.49845,0,K6,KPTB,05,US
ijne-loc-k5-kunu,IJNE,LOC 26,LOC,TERMINAL,109550,,,,,,259.685,,18,43.42430,-88.72137,0,K5,KUNU,26,US
ijqh-loc-k5-klot,IJQH,LOC 02,LOC,TERMINAL,108550,,,,,,13.682,,18,41.61924,-88.09438,0,K5,KLOT,02,US
ijuh-loc-k7-kgev,IJUH,LOC 28,LOC,TERMINAL,109350,,,,,,268.876,,18,36.43230,-81.42850,0,K7,KGEV,28,US
ikpo-loc-rk-rkth,IKPO,LOC 10,LOC,TERMINAL,110900,,,,,,89.242,,18,35.98808,129.43400,0,RK,RKTH,10,KR
ikx-loc-ro-rokj,IKX,LOC 03,LOC,TERMINAL,110950,,,,,,21.074,,18,26.37390,126.71828,0,RO,ROKJ,03,JP
ikz-loc-cy-cykz,IKZ,LOC 15,LOC,TERMINAL,111100,,,,,,142.571,,18,43.85550,-79.36332,0,CY,CYKZ,15,CA
ilbj-loc-k5-kegv,ILBJ,LOC 04,LOC,TERMINAL,110700,,,,,,45.278,,18,45.93781,-89.26034,0,K5,KEGV,04,US
ilks-loc-k5-ksdf,ILKS,LOC 29,LOC,TERMINAL,109100,,,,,,291.213,,18,38.18234,-85.75027,0,K5,KSDF,29,US
ilku-loc-k6-klku,ILKU,LOC 27,LOC,TERMINAL,108550,,,,,,262.308,,18,38.00893,-77.97857,0,K6,KLKU,27,US
ilma-loc-li-licd,ILMA,LOC 26,LOC,TERMINAL,111300,,,,,,260.596,,18,35.49642,12.60667,0,LI,LICD,26,IT
ilnr-loc-k5-klnr,ILNR,LOC 27,LOC,TERMINAL,108350,,,,,,269.611,,18,43.21257,-90.19009,0,K5,KLNR,27,US
ilot-loc-k5-klot,ILOT,LOC 09,LOC,TERMINAL,111950,,,,,,87.731,,18,41.60874,-88.08068,0,K5,KLOT,09,US
ilpn-loc-vt-vtcl,ILPN,LOC 36,LOC,TERMINAL,109700,,,,,,355.457,,18,18.28101,99.50333,0,VT,VTCL,36,TH
ilra-loc-lt-ltai,ILRA,LOC 18L,LOC,TERMINAL,109750,,,,,,186.280,,18,36.87808,30.80683,0,LT,LTAI,18L,TR
ilzw-loc-k5-koly,ILZW,LOC 11,LOC,TERMINAL,110500,,,,,,107.211,,18,38.72061,-88.16799,0,K5,KOLY,11,US
imac-loc-k7-kmac,IMAC,LOC 10,LOC,TERMINAL,111900,,,,,,98.412,,18,32.82080,-83.55651,0,K7,KMAC,10,US
imaw-loc-ed-edfm,IMAW,LOC 27,LOC,TERMINAL,108550,,,,,,273.036,,18,49.47321,8.50489,0,ED,EDFM,27,DE
imcg-loc-pa-pamc,IMCG,LOC 16,LOC,TERMINAL,108500,,,,,,181.425,,18,62.94635,-155.60667,0,PA,PAMC,16,US
imdh-loc-rk-rkjj,IMDH,LOC 22L,LOC,TERMINAL,108500,,,,,,209.820,,18,35.11231,126.80036,0,RK,RKJJ,22L,KR
imfv-loc-k6-kmfv,IMFV,LOC 03,LOC,TERMINAL,110150,,,,,,22.894,,18,37.65581,-75.75628,0,K6,KMFV,03,US
imgy-loc-k5-kmgy,IMGY,LOC 20,LOC,TERMINAL,109500,,,,,,202.153,,18,39.58032,-84.22942,0,K5,KMGY,20,US
imkj-loc-k6-kmkj,IMKJ,LOC 26,LOC,TERMINAL,110500,,,,,,253.156,,18,36.89252,-81.35953,0,K6,KMKJ,26,US
imnq-loc-k2-knuq,IMNQ,LOC 14L,LOC,TERMINAL,110350,,,,,,157.805,,18,37.40299,-122.04129,0,K2,KNUQ,14L,US
imnr-loc-li-limc,IMNR,LOC 17R,LOC,TERMINAL,111100,,,,,,169.065,,18,45.60810,8.72905,0,LI,LIMC,17R,IT
imqb-loc-k5-kmqb,IMQB,LOC 27,LOC,TERMINAL,110300,,,,,,270.086,,18,40.51970,-90.66469,0,K5,KMQB,27,US
imrn-loc-k7-kmrn,IMRN,LOC 03,LOC,TERMINAL,111100,,,,,,23.517,,18,35.82799,-81.60725,0,K7,KMRN,03,US
imtb-loc-k2-kmry,IMTB,LOC 28L,LOC,TERMINAL,110700,,,,,,293.053,,18,36.59159,-121.85795,0,K2,KMRY,28L,US
imwc-loc-k5-kmwc,IMWC,LOC 15L,LOC,TERMINAL,108500,,,,,,145.675,,18,43.10555,-88.02902,0,K5,KMWC,15L,US
imwo-loc-k5-kmwo,IMWO,LOC 23,LOC,TERMINAL,111100,,,,,,229.333,,18,39.52377,-84.40623,0,K5,KMWO,23,US
imwp-loc-k4-kshv,IMWP,LOC 06,LOC,TERMINAL,109100,,,,,,60.794,,18,32.45495,-93.81195,0,K4,KSHV,06,US
ind-loc-es-esnd,IND,LOC 09,LOC,TERMINAL,109100,,,,,,87.059,,18,62.04822,14.44128,0,ES,ESND,09,SE
ink-loc-rj-rjbd,INK,LOC 15,LOC,TERMINAL,108550,,,,,,141.104,,18,33.65534,135.37260,0,RJ,RJBD,15,JP
inuy-loc-ed-eddn,INUY,LOC 28,LOC,TERMINAL,111750,,,,,,278.626,,18,49.50117,11.05283,0,ED,EDDN,28,DE
ioa-loc-rj-rjno,IOA,LOC 08,LOC,TERMINAL,111550,,,,,,66.011,,18,36.18281,133.33382,0,RJ,RJNO,08,JP
iobg-loc-k2-kitr,IOBG,LOC 33,LOC,TERMINAL,111900,,,,,,339.970,,18,39.25186,-102.28978,0,K2,KITR,33,US
iocw-loc-k7-kocw,IOCW,LOC 05,LOC,TERMINAL,110900,,,,,,36.647,,18,35.57837,-77.04574,0,K7,KOCW,05,US
iofp-loc-k6-kofp,IOFP,LOC 16,LOC,TERMINAL,109700,,,,,,149.724,,18,37.70069,-77.43057,0,K6,KOFP,16,US
iogn-loc-lt-ltcb,IOGN,LOC 10,LOC,TERMINAL,110350,,,,,,101.888,,18,40.96364,38.10644,0,LT,LTCB,10,TR
iogs-loc-k6-kogs,IOGS,LOC 27,LOC,TERMINAL,110700,,,,,,255.969,,18,44.67969,-75.47762,0,K6,KOGS,27,US
ioib-loc-k4-khou,IOIB,LOC 22,LOC,TERMINAL,109900,,,,,,223.818,,18,29.63707,-95.28757,0,K4,KHOU,22,US
iojc-loc-k3-kojc,IOJC,LOC 18,LOC,TERMINAL,111100,,,,,,180.132,,18,38.84037,-94.73760,0,K3,KOJC,18,US
iole-loc-k6-kole,IOLE,LOC 22,LOC,TERMINAL,109300,,,,,,212.106,,18,42.23402,-78.37690,0,K6,KOLE,22,US
iolu-loc-k3-kolu,IOLU,LOC 14,LOC,TERMINAL,109100,,,,,,149.916,,18,41.44018,-97.33658,0,K3,KOLU,14,US
ionw-loc-k4-kmsy,IONW,LOC 20,LOC,TERMINAL,111700,,,,,,195.409,,18,29.98199,-90.25221,0,K4,KMSY,20,US
iork-loc-k4-kork,IORK,LOC 05,LOC,TERMINAL,111900,,,,,,55.033,,18,34.83806,-92.24247,0,K4,KORK,05,US
ios-loc-rj-rjto,IOS,LOC 03,LOC,TERMINAL,109350,,,,,,19.730,,18,34.79167,139.36457,0,RJ,RJTO,03,JP
ioti-loc-k6-kuuu,IOTI,LOC 22,LOC,TERMINAL,108500,,,,,,203.740,,18,41.52594,-71.28402,0,K6,KUUU,22,US
iowd-loc-k6-kowd,IOWD,LOC 35,LOC,TERMINAL,108300,,,,,,334.853,,18,42.19591,-71.17921,0,K6,KOWD,35,US
iown-loc-k6-klnp,IOWN,LOC 24,LOC,TERMINAL,110700,,,,,,236.074,,18,36.98302,-82.53837,0,K6,KLNP,24,US
ioxb-loc-k6-koxb,IOXB,LOC 14,LOC,TERMINAL,109150,,,,,,133.243,,18,38.30610,-75.11627,0,K6,KOXB,14,US
ioym-loc-k6-koym,IOYM,LOC 28,LOC,TERMINAL,108900,,,,,,269.992,,18,41.41248,-78.51252,0,K6,KOYM,28,US
ipbr-loc-vo-vopb,IPBR,LOC 04,LOC,TERMINAL,110100,,,,,,36.388,,18,11.65433,92.73942,0,VO,VOPB,04,IN
iphc-loc-k7-kpns,IPHC,LOC 26,LOC,TERMINAL,110950,,,,,,258.011,,18,30.47076,-87.19908,0,K7,KPNS,26,US
iphy-loc-k4-koun,IPHY,LOC 03,LOC,TERMINAL,111100,,,,,,36.095,,18,35.24935,-97.46408,0,K4,KOUN,03,US
ipkx-loc-k3-kojc,IPKX,LOC 36,LOC,TERMINAL,108300,,,,,,0.132,,18,38.85415,-94.73756,0,K3,KOJC,36,US
iplh-loc-k4-ktik,IPLH,LOC 31,LOC,TERMINAL,111700,,,,,,311.177,,18,35.42733,-97.40778,0,K4,KTIK,31,US
ipm-loc-sb-sbbh,IPM,LOC 13,LOC,TERMINAL,109300,,,,,,110.937,,18,-19.85542,-43.93714,0,SB,SBBH,13,BR
ipmp-loc-k7-kpmp,IPMP,LOC 15,LOC,TERMINAL,109750,,,,,,142.807,,18,26.24228,-80.10506,0,K7,KPMP,15,US
ipmu-loc-k7-kpmu,IPMU,LOC 19,LOC,TERMINAL,110350,,,,,,189.715,,18,34.35559,-89.89451,0,K7,KPMU,19,US
ipqq-loc-k5-kdvk,IPQQ,LOC 30,LOC,TERMINAL,108900,,,,,,301.657,,18,37.58071,-84.77681,0,K5,KDVK,30,US
ipsg-loc-pa-papg,IPSG,LOC 23,LOC,TERMINAL,110500,,,,,,185.021,,18,56.80068,-132.92629,0,PA,PAPG,23,US
iptl-loc-li-licg,IPTL,LOC 26,LOC,TERMINAL,110900,,,,,,256.344,,18,36.81375,11.95492,0,LI,LICG,26,IT
iptw-loc-k6-kptw,IPTW,LOC 28,LOC,TERMINAL,108300,,,,,,264.084,,18,40.23900,-75.56384,0,K6,KPTW,28,US
ipxy-loc-k5-kmke,IPXY,LOC 25L,LOC,TERMINAL,111500,,,,,,251.600,,18,42.93780,-87.92299,0,K5,KMKE,25L,US
ipzv-loc-k6-klga,IPZV,LOC 31,LOC,TERMINAL,108500,,,,,,304.074,,18,40.77932,-73.87042,0,K6,KLGA,31,US
ire-loc-bi-birk,IRE,LOC 13,LOC,TERMINAL,109100,,,,,,116.337,,18,64.12694,-21.92956,0,BI,BIRK,13,IS
irg-loc-uk-ukdr,IRG,LOC 18,LOC,TERMINAL,110100,,,,,,185.315,,18,48.02492,33.20539,0,UK,UKDR,18,UA
irkh-loc-k6-ksfq,IRKH,LOC 04,LOC,TERMINAL,109950,,,,,,29.815,,18,36.69043,-76.59217,0,K6,KSFQ,04,US
irld-loc-k1-krld,IRLD,LOC 19,LOC,TERMINAL,110500,,,,,,205.528,,18,46.29900,-119.30911,0,K1,KRLD,19,US
irls-loc-k6-kwst,IRLS,LOC 07,LOC,TERMINAL,108900,,,,,,53.103,,18,41.35318,-71.79713,0,K6,KWST,07,US
irof-loc-k5-karr,IROF,LOC 33,LOC,TERMINAL,111150,,,,,,326.811,,18,41.78234,-88.48819,0,K5,KARR,33,US
iroy-loc-k7-kmia,IROY,LOC 08L,LOC,TERMINAL,109300,,,,,,87.374,,18,25.80413,-80.27178,0,K7,KMIA,08L,US
irpo-loc-k1-kszt,IRPO,LOC 02,LOC,TERMINAL,109100,,,,,,32.093,,18,48.30723,-116.55290,0,K1,KSZT,02,US
irpw-loc-k2-kfat,IRPW,LOC 11L,LOC,TERMINAL,111300,,,,,,125.486,,18,36.76737,-119.70096,0,K2,KFAT,11L,US
irs-loc-rj-rjer,IRS,LOC 25,LOC,TERMINAL,109300,,,,,,236.949,,18,45.23644,141.17547,0,RJ,RJER,25,JP
irtt-loc-k5-kfoa,IRTT,LOC 21,LOC,TERMINAL,108550,,,,,,209.607,,18,38.65586,-88.45884,0,K5,KFOA,21,US
irvl-loc-k6-krvl,IRVL,LOC 06,LOC,TERMINAL,109300,,,,,,48.646,,18,40.68299,-77.61844,0,K6,KRVL,06,US
isam-loc-rk-rkps,ISAM,LOC 06L,LOC,TERMINAL,109100,,,,,,55.474,,18,35.09739,128.08389,0,RK,RKPS,06L,KR
isee-loc-k2-ksee,ISEE,LOC 27R,LOC,TERMINAL,110500,,,,,,282.142,,18,32.82986,-116.98349,0,K2,KSEE,27R,US
isf-loc-bg-bgsf,ISF,LOC 09,LOC,TERMINAL,109550,,,,,,61.603,,18,67.01851,-50.68207,0,BG,BGSF,09,GL
isfz-loc-k6-ksfz,ISFZ,LOC 05,LOC,TERMINAL,111900,,,,,,31.972,,18,41.92899,-71.48546,0,K6,KSFZ,05,US
isgo-loc-k7-kctz,ISGO,LOC 06,LOC,TERMINAL,109700,,,,,,50.866,,18,34.97998,-78.35810,0,K7,KCTZ,06,US
isgs-loc-k3-ksgs,ISGS,LOC 34,LOC,TERMINAL,108350,,,,,,342.497,,18,44.86493,-93.03632,0,K3,KSGS,34,US
isij-loc-k3-kmsp,ISIJ,LOC 22,LOC,TERMINAL,110500,,,,,,224.921,,18,44.87022,-93.24119,0,K3,KMSP,22,US
isma-loc-pa-pasm,ISMA,LOC 17,LOC,TERMINAL,109100,,,,,,182.432,,18,62.05354,-163.30147,0,PA,PASM,17,US
isn-loc-rj-rjsy,ISN,LOC 27,LOC,TERMINAL,111500,,,,,,256.523,,18,38.81036,139.78181,0,RJ,RJSY,27,JP
isoz-loc-k6-2g9,ISOZ,LOC 25,LOC,TERMINAL,108700,,,,,,236.089,,18,40.03414,-79.02420,0,K6,2G9,25,US
ispt-loc-lt-ltfc,ISPT,LOC 05,LOC,TERMINAL,109150,,,,,,49.501,,18,37.86644,30.38378,0,LT,LTFC,05,TR
istf-loc-k7-kstf,ISTF,LOC 36,LOC,TERMINAL,109900,,,,,,358.563,,18,33.44225,-88.84888,0,K7,KSTF,36,US
istr-loc-lt-ltcl,ISTR,LOC 06,LOC,TERMINAL,108550,,,,,,67.960,,18,37.98267,41.85233,0,LT,LTCL,06,TR
isul-loc-rk-rksm,ISUL,LOC 19,LOC,TERMINAL,108950,,,,,,181.789,,18,37.43128,127.11486,0,RK,RKSM,19,KR
isvc-loc-k2-ksvc,ISVC,LOC 26,LOC,TERMINAL,111700,,,,,,270.220,,18,32.63243,-108.16643,0,K2,KSVC,26,US
itex-loc-k2-ktex,ITEX,LOC 09,LOC,TERMINAL,109300,,,,,,101.770,,18,37.95642,-107.91702,0,K2,KTEX,09,US
itf-loc-cy-cytf,ITF,LOC 13,LOC,TERMINAL,110700,,,,,,114.212,,18,48.50488,-71.62912,0,CY,CYTF,13,CA
ith-loc-rj-rjbt,ITH,LOC 01,LOC,TERMINAL,108550,,,,,,3.763,,18,35.51904,134.78772,0,RJ,RJBT,01,JP
itjz-loc-k3-kmsp,ITJZ,LOC 17,LOC,TERMINAL,110950,,,,,,169.565,,18,44.86345,-93.23594,0,K3,KMSP,17,US
itk-loc-rj-rjkn,ITK,LOC 19,LOC,TERMINAL,110100,,,,,,182.156,,18,27.83490,128.88266,0,RJ,RJKN,19,JP
ito-loc-rj-rjnt,ITO,LOC 20,LOC,TERMINAL,109300,,,,,,194.415,,18,36.64253,137.18438,0,RJ,RJNT,20,JP
itrb-loc-lt-ltcg,ITRB,LOC 29,LOC,TERMINAL,108900,,,,,,292.260,,18,41.00056,39.77200,0,LT,LTCG,29,TR
itwj-loc-k7-ktpa,ITWJ,LOC 01R,LOC,TERMINAL,111950,,,,,,1.725,,18,27.98998,-82.52812,0,K7,KTPA,01R,US
iuao-loc-k1-kuao,IUAO,LOC 17,LOC,TERMINAL,111150,,,,,,187.115,,18,45.23758,-122.77174,0,K1,KUAO,17,US
iubr-loc-k2-ksan,IUBR,LOC 27,LOC,TERMINAL,110900,,,,,,286.082,,18,32.73744,-117.20567,0,K2,KSAN,27,US
iuki-loc-k2-kuki,IUKI,LOC 15,LOC,TERMINAL,109100,,,,,,168.379,,18,39.11882,-123.19897,0,K2,KUKI,15,US
iunk-loc-pa-paun,IUNK,LOC 15,LOC,TERMINAL,111300,,,,,,164.164,,18,63.88105,-160.79509,0,PA,PAUN,15,US
iuvd-loc-k7-kuox,IUVD,LOC 09,LOC,TERMINAL,111700,,,,,,90.847,,18,34.38418,-89.52410,0,K7,KUOX,09,US
iuvm-loc-k6-kmtv,IUVM,LOC 31,LOC,TERMINAL,111300,,,,,,298.307,,18,36.63530,-80.02886,0,K6,KMTV,31,US
iuxl-loc-k4-kuxl,IUXL,LOC 15,LOC,TERMINAL,109300,,,,,,150.501,,18,30.12307,-93.37070,0,K4,KUXL,15,US
iuy-loc-cy-cyuy,IUY,LOC 08,LOC,TERMINAL,109900,,,,,,63.935,,18,48.21173,-78.81861,0,CY,CYUY,08,CA
ivan-loc-lt-ltci,IVAN,LOC 03,LOC,TERMINAL,108300,,,,,,37.581,,18,38.47908,43.34297,0,LT,LTCI,03,TR
ivaz-loc-k2-kege,IVAZ,LOC 25,LOC,TERMINAL,108300,,,,,,259.052,,18,39.63875,-106.93615,0,K2,KEGE,25,US
ivc-loc-rj-rjdt,IVC,LOC 32,LOC,TERMINAL,108700,,,,,,316.164,,18,34.29204,129.32164,0,RJ,RJDT,32,JP
ivji-loc-k6-kvji,IVJI,LOC 24,LOC,TERMINAL,108300,,,,,,235.913,,18,36.68329,-82.04036,0,K6,KVJI,24,US
ivvm-loc-k7-3j7,IVVM,LOC 25,LOC,TERMINAL,110900,,,,,,244.002,,18,33.59422,-83.14748,0,K7,3J7,25,US
ivvs-loc-k6-kvvs,IVVS,LOC 05,LOC,TERMINAL,110700,,,,,,40.525,,18,39.96543,-79.65267,0,K6,KVVS,05,US
ixjx-loc-k5-kigq,IXJX,LOC 36,LOC,TERMINAL,109150,,,,,,0.141,,18,41.53892,-87.52766,0,K5,KIGQ,36,US
ixz-loc-rj-rjoc,IXZ,LOC 25,LOC,TERMINAL,111700,,,,,,239.341,,18,35.40804,132.87828,0,RJ,RJOC,25,JP
iyn-loc-ro-royn,IYN,LOC 26,LOC,TERMINAL,108550,,,,,,255.201,,18,24.46456,122.96800,0,RO,ROYN,26,JP
la-loc-en-ensb,LA,LOC 28,LOC,TERMINAL,109500,,,,,,302.997,,18,78.24716,15.50960,0,EN,ENSB,28,SJ
lbn-loc-li-limg,LBN,LOC 27,LOC,TERMINAL,108900,,,,,,269.551,,18,44.04914,8.11994,0,LI,LIMG,27,IT
lbw-loc-lf-lfpb,LBW,LOC 25,LOC,TERMINAL,111100,,,,,,274.234,,18,48.97528,2.44589,0,LF,LFPB,25,FR
lk-loc-en-enlk,LK,LOC 02,LOC,TERMINAL,108500,,,,,,0.000,,18,68.14919,13.60284,0,EN,ENLK,02,NO
mcs-loc-vm-vmmc,MCS,LOC 16,LOC,TERMINAL,111700,,,,,,214.880,,18,22.16111,113.54833,0,VM,VMMC,16,MO
me-loc-en-enml,ME,LOC 25,LOC,TERMINAL,109100,,,,,,256.612,,18,62.74896,7.28406,0,EN,ENML,25,NO
mh-loc-en-enmh,MH,LOC 17,LOC,TERMINAL,109500,,,,,,186.041,,18,71.02637,27.82436,0,EN,ENMH,17,NO
ms-loc-en-enms,MS,LOC 34,LOC,TERMINAL,110700,,,,,,350.100,,18,65.77933,13.22066,0,EN,ENMS,34,NO
nl-loc-es-esnl,NL,LOC 32,LOC,TERMINAL,110500,,,,,,322.996,,18,64.55794,18.69933,0,ES,ESNL,32,SE
nst-loc-es-esst,NST,LOC 16,LOC,TERMINAL,108700,,,,,,157.747,,18,60.14869,12.99861,0,ES,ESST,16,SE
nt-loc-en-enno,NT,LOC 12,LOC,TERMINAL,110700,,,,,,113.000,,18,59.56961,9.20487,0,EN,ENNO,12,NO
oej-loc-lo-lowi,OEJ,LOC 08,LOC,TERMINAL,109700,,,,,,68.598,,18,47.31484,11.60217,0,LO,LOWI,08,AT
ra-loc-en-enra,RA,LOC 31,LOC,TERMINAL,111300,,,,,,79.148,,18,66.32762,14.29439,0,EN,ENRA,31,NO
reg-loc-li-licr,REG,LOC 33,LOC,TERMINAL,109300,,,,,,18.994,,18,38.04575,15.66453,0,LI,LICR,33,IT
rxk-loc-k5-kvta,RXK,LOC 09,LOC,TERMINAL,110900,,,,,,86.944,,18,40.02524,-82.44837,0,K5,KVTA,09,US
sf-loc-ek-ekvg,SF,LOC 12,LOC,TERMINAL,109100,,,,,,103.686,,18,62.06852,-7.28043,0,EK,EKVG,12,FO
sgd-loc-en-ensg,SGD,LOC 06,LOC,TERMINAL,108500,,,,,,53.724,,18,61.15529,7.13071,0,EN,ENSG,06,NO
sk-loc-en-ensk,SK,LOC 27,LOC,TERMINAL,109550,,,,,,242.271,,18,68.57996,15.04376,0,EN,ENSK,27,NO
smx-loc-es-esmx,SMX,LOC 01,LOC,TERMINAL,109100,,,,,,13.033,,18,56.94083,14.73294,0,ES,ESMX,01,SE
soy-loc-eg-egpo,SOY,LOC 36,LOC,TERMINAL,110900,,,,,,354.288,,18,58.22568,-6.33297,0,EG,EGPO,36,GB
sp-loc-gv-gvsv,SP,LOC 06,LOC,TERMINAL,109700,,,,,,53.452,,18,16.84125,-25.04397,0,GV,GVSV,06,CV
sr-loc-en-ensr,SR,LOC 14,LOC,TERMINAL,109300,,,,,,193.113,,18,69.79094,20.95117,0,EN,ENSR,14,NO
srd-loc-en-enso,SRD,LOC 14,LOC,TERMINAL,110100,,,,,,146.918,,18,59.78950,5.34272,0,EN,ENSO,14,NO
st-loc-da-daas,ST,LOC 27,LOC,TERMINAL,110900,,,,,,266.861,,18,36.17769,5.31207,0,DA,DAAS,27,DZ
st-loc-en-enst,ST,LOC 20,LOC,TERMINAL,109900,,,,,,197.124,,18,65.96081,12.47496,0,EN,ENST,20,NO
st-loc-es-esst,ST,LOC 34,LOC,TERMINAL,110900,,,,,,337.747,,18,60.16714,12.98344,0,ES,ESST,34,SE
stk-loc-en-ensk,STK,LOC 09,LOC,TERMINAL,110150,,,,,,93.518,,18,68.58025,15.01112,0,EN,ENSK,09,NO
stw-loc-eg-egpo,STW,LOC 18,LOC,TERMINAL,110900,,,,,,174.288,,18,58.20366,-6.32880,0,EG,EGPO,18,GB
sub-loc-eg-egpb,SUB,LOC 09,LOC,TERMINAL,108500,,,,,,80.704,,18,59.88254,-1.28944,0,EG,EGPB,09,GB
sv-loc-en-ensh,SV,LOC 01,LOC,TERMINAL,110500,,,,,,12.611,,18,68.24583,14.67207,0,EN,ENSH,01,NO
svj-loc-ek-ekvj,SVJ,LOC 27,LOC,TERMINAL,110100,,,,,,272.485,,18,55.99049,8.33830,0,EK,EKVJ,27,DK
tiv-loc-ly-lytv,TIV,LOC 32,LOC,TERMINAL,111300,,,,,,339.124,,18,42.39589,18.74142,0,LY,LYTV,32,ME
vd-loc-en-envd,VD,LOC 07,LOC,TERMINAL,108700,,,,,,87.433,,18,70.06549,29.86230,0,EN,ENVD,07,NO
vk-loc-en-enhk,VK,LOC 29,LOC,TERMINAL,111500,,,,,,297.316,,18,70.48662,22.13614,0,EN,ENHK,29,NO
wek-loc-es-eskn,WEK,LOC 08,LOC,TERMINAL,111300,,,,,,83.100,,18,58.78997,16.93281,0,ES,ESKN,08,SE
wsa-loc-es-essa,WSA,LOC 08,LOC,TERMINAL,109550,,,,,,75.871,,18,59.66453,17.98417,0,ES,ESSA,08,SE
wut-loc-es-esut,WUT,LOC 15,LOC,TERMINAL,111500,,,,,,152.540,,18,65.79719,15.09400,0,ES,ESUT,15,SE
xcg-loc-cy-cycg,XCG,LOC 15,LOC,TERMINAL,110100,,,,,,193.000,,18,49.25236,-117.66252,0,CY,CYCG,15,CA
xpp-loc-cy-cyka,XPP,LOC 27,LOC,TERMINAL,109900,,,,,,283.307,,18,50.70566,-120.46069,0,CY,CYKA,27,CA
xyf-loc-cy-cyyf,XYF,LOC 16,LOC,TERMINAL,110300,,,,,,181.422,,18,49.45267,-119.60266,0,CY,CYYF,16,CA
