slug,identifier,name,type,usage,frequency,dme_channel,dme_rx_frequency,dme_tx_frequency,dme_bias,vor_slaved_variation,localizer_heading,glide_slope_angle,reception_range,latitude,longitude,elevation,region,airport,airport_runway,country
ae-mm-sa-sabe,AE,MM 13,MM,TERMINAL,109500,,,,,,124.119,,,-34.54875,-58.43458,0,SA,SABE,13,AR
av-mm-lf-lfoa,AV,MM 24,MM,TERMINAL,110700,,,,,,240.305,,,47.06847,2.66600,0,LF,LFOA,24,FR
bal-mm-lq-lqbk,BAL,MM 17,MM,TERMINAL,108700,,,,,,169.550,,,44.96104,17.29235,0,LQ,LQBK,17,BA
bc-mm-sa-sazb,BC,MM 17L,MM,TERMINAL,109700,,,,,,163.765,,,-38.70684,-62.16103,0,SA,SAZB,17L,AR
bil-mm-ol-olba,BIL,MM 17,MM,TERMINAL,109500,,,,,,176.940,,,33.84750,35.48611,113,OL,OLBA,17,LB
bj-mm-hb-hbba,BJ,MM 17,MM,TERMINAL,110100,,,,,,171.091,,,-3.29855,29.31452,0,HB,HBBA,17,BI
bo-mm-lk-lktb,BO,MM 27,MM,TERMINAL,111500,,,,,,277.548,,,49.14856,16.72615,0,LK,LKTB,27,CZ
br-mm-sa-sazs,BR,MM 29,MM,TERMINAL,109500,,,,,,294.855,,,-41.15947,-71.13369,0,SA,SAZS,29,AR
brm-mm-li-lime,BRM,MM 28,MM,TERMINAL,108700,,,,,,284.897,,,45.66147,9.73803,782,LI,LIME,28,IT
btj-mm-ly-lybt,BTJ,MM 12L,MM,TERMINAL,108900,,,,,,125.428,,,44.95308,20.22672,0,LY,LYBT,12L,RS
caa-mm-lf-lfbc,CAA,MM 24,MM,TERMINAL,110100,,,,,,236.472,,,44.54486,-1.10239,0,LF,LFBC,24,FR
cb-mm-sa-saco,CB,MM 19,MM,TERMINAL,110300,,,,,,179.195,,,-31.28611,-64.20869,1604,SA,SACO,19,AR
cc-mm-lf-lflh,CC,MM 35,MM,TERMINAL,108500,,,,,,350.619,,,46.80139,4.82403,609,LF,LFLH,35,FR
cf-mm-lk-lkcv,CF,MM 31,MM,TERMINAL,111750,,,,,,317.339,,,49.92474,15.40322,0,LK,LKCV,31,CZ
cgc-mm-lf-lfbg,CGC,MM 23,MM,TERMINAL,109900,,,,,,229.585,,,45.66764,-0.29206,0,LF,LFBG,23,FR
ckl-mm-lj-ljce,CKL,MM 09,MM,TERMINAL,111100,,,,,,89.012,,,45.89952,15.49737,0,LJ,LJCE,09,SI
cn-mm-lz-lzpp,CN,MM 01,MM,TERMINAL,109300,,,,,,13.598,,,48.60811,17.82228,567,LZ,LZPP,01,SK
cr-mm-sa-sarc,CR,MM 20,MM,TERMINAL,109700,,,,,,187.828,,,-27.42775,-58.75903,0,SA,SARC,20,AR
cr-mm-sa-savc,CR,MM 25,MM,TERMINAL,110300,,,,,,259.286,,,-45.78111,-67.43408,0,SA,SAVC,25,AR
da-mm-es-estl,DA,MM 29L,MM,TERMINAL,111700,,,,,,293.936,,,56.07544,13.22586,0,ES,ESTL,29L,SE
dcn-mm-lh-lhdc,DCN,MM 04R,MM,TERMINAL,110100,,,,,,47.855,,,47.47531,21.59311,0,LH,LHDC,04R,HU
di-mm-sa-sazt,DI,MM 19,MM,TERMINAL,109900,,,,,,185.074,,,-37.21028,-59.22583,568,SA,SAZT,19,AR
do-mm-sa-same,DO,MM 36,MM,TERMINAL,109900,,,,,,0.718,,,-32.85494,-68.79261,0,SA,SAME,36,AR
ekn-mm-es-eskn,EKN,MM 26,MM,TERMINAL,111900,,,,,,263.100,,,58.79081,16.94608,0,ES,ESKN,26,SE
es-mm-sa-save,ES,MM 23,MM,TERMINAL,109700,,,,,,237.011,,,-42.89278,-71.11250,0,SA,SAVE,23,AR
evx-mm-lf-lfoe,EVX,MM 22,MM,TERMINAL,111300,,,,,,219.800,,,49.04681,1.24378,0,LF,LFOE,22,FR
fee-mm-li-lirf,FEE,MM 25,MM,TERMINAL,110150,,,,,,249.697,,,41.81236,12.27975,0,LI,LIRF,25,IT
fl-mm-en-enfl,FL,MM 07,MM,TERMINAL,108900,,,,,,70.874,,,61.57820,4.99168,37,EN,ENFL,07,NO
for-mm-li-lipk,FOR,MM 12,MM,TERMINAL,109700,,,,,,117.003,,,44.20506,12.04286,0,LI,LIPK,12,IT
fs-mm-lz-lzsl,FS,MM 36,MM,TERMINAL,108700,,,,,,1.934,,,48.61800,19.13308,1044,LZ,LZSL,36,SK
fss-mm-li-lirf,FSS,MM 34R,MM,TERMINAL,111550,,,,,,342.685,,,41.80453,12.27875,0,LI,LIRF,34R,IT
gl-mm-sa-sawg,GL,MM 25,MM,TERMINAL,110300,,,,,,265.558,,,-51.60703,-69.27442,0,SA,SAWG,25,AR
gr-mm-sa-sawe,GR,MM 26,MM,TERMINAL,109500,,,,,,267.457,,,-53.77679,-67.71776,62,SA,SAWE,26,AR
iaca-mm-mm-mmaa,IACA,MM 28,MM,TERMINAL,109900,,,,,,288.269,,,16.74731,-99.72572,0,MM,MMAA,28,MX
iad-mm-eb-ebaw,IAD,MM 29,MM,TERMINAL,111750,,,,,,289.806,,,51.18486,4.48642,0,EB,EBAW,29,BE
iad-mm-uu-uuee,IAD,MM 24C,MM,TERMINAL,111300,,,,,,255.074,,,55.98058,37.45900,0,UU,UUEE,24C,RU
iado-mm-sk-skbo,IADO,MM 13R,MM,TERMINAL,110700,,,,,,127.232,,,4.71621,-74.17672,8357,SK,SKBO,13R,CO
iag-mm-rj-rjta,IAG,MM 01,MM,TERMINAL,111300,,,,,,359.140,,,35.43528,139.45056,0,RJ,RJTA,01,JP
ialf-mm-li-liea,IALF,MM 20,MM,TERMINAL,110150,,,,,,204.515,,,40.65339,8.30356,0,LI,LIEA,20,IT
ialw-mm-ed-edac,IALW,MM 22,MM,TERMINAL,108700,,,,,,219.401,,,50.99387,12.52209,0,ED,EDAC,22,DE
ialy-mm-lt-ltai,IALY,MM 36R,MM,TERMINAL,108100,,,,,,6.280,,,36.87239,30.80678,0,LT,LTAI,36R,TR
iam-mm-us-usrr,IAM,MM 25,MM,TERMINAL,109100,,,,,,269.641,,,61.34394,73.44706,0,US,USRR,25,RU
iam-mm-yb-yamb,IAM,MM 15,MM,TERMINAL,110700,,,,,,158.839,,,-27.61389,152.70250,87,YB,YAMB,15,AU
ian-mm-sb-sban,IAN,MM 24R,MM,TERMINAL,111100,,,,,,218.932,,,-16.20724,-48.94702,3593,SB,SBAN,24R,BR
ian-mm-ut-utfa,IAN,MM 04,MM,TERMINAL,110500,,,,,,45.606,,,40.71171,72.27198,0,UT,UTFA,04,UZ
iand-mm-k7-kand,IAND,MM 05,MM,TERMINAL,111900,,,,,,45.763,,,34.48394,-82.72272,692,K7,KAND,05,US
iank-mm-lt-ltac,IANK,MM 03R,MM,TERMINAL,110300,,,,,,36.084,,,40.10689,32.97644,0,LT,LTAC,03R,TR
iaoh-mm-k5-kaoh,IAOH,MM 28,MM,TERMINAL,109300,,,,,,270.017,,,40.70700,-84.00722,975,K5,KAOH,28,US
iap-mm-uu-uuoo,IAP,MM 30,MM,TERMINAL,111900,,,,,,310.913,,,51.80331,39.25150,0,UU,UUOO,30,RU
ias-mm-ym-ybas,IAS,MM 12,MM,TERMINAL,109900,,,,,,120.386,,,-23.79556,133.88306,1786,YM,YBAS,12,AU
iata-mm-lt-ltba,IATA,MM 23,MM,TERMINAL,111900,,,,,,238.489,,,40.98164,28.84450,0,LT,LTBA,23,TR
iaty-mm-lt-ltai,IATY,MM 18C,MM,TERMINAL,108700,,,,,,186.253,,,36.92458,30.79625,0,LT,LTAI,18C,TR
iayt-mm-lt-ltai,IAYT,MM 36C,MM,TERMINAL,110300,,,,,,6.253,,,36.87572,30.78931,0,LT,LTAI,36C,TR
iaz-mm-ul-ulaa,IAZ,MM 08,MM,TERMINAL,110300,,,,,,96.517,,,64.60228,40.67311,0,UL,ULAA,08,RU
ibac-mm-wi-witt,IBAC,MM 17,MM,TERMINAL,111300,,,,,,168.391,,,5.54497,95.41619,0,WI,WITT,17,ID
ibbw-mm-et-ethb,IBBW,MM 26,MM,TERMINAL,111550,,,,,,257.566,,,52.28256,9.10941,0,ET,ETHB,26,DE
ibc-mm-sb-sbgr,IBC,MM 27L,MM,TERMINAL,111100,,,,,,253.593,,,-23.42833,-46.45067,0,SB,SBGR,27L,BR
ibcd-mm-rp-rpvb,IBCD,MM 03,MM,TERMINAL,109700,,,,,,29.801,,,10.76153,123.01031,0,RP,RPVB,03,PH
ibd-mm-us-ushh,IBD,MM 06,MM,TERMINAL,111900,,,,,,75.358,,,61.02328,69.04489,0,US,USHH,06,RU
ibda-mm-tx-txkf,IBDA,MM 30,MM,TERMINAL,109900,,,,,,281.519,,,32.35833,-64.65278,11,TX,TXKF,30,BM
ibdm-mm-wa-waoo,IBDM,MM 10,MM,TERMINAL,110700,,,,,,101.084,,,-3.43831,114.74056,0,WA,WAOO,10,ID
ibe-mm-sb-sbbe,IBE,MM 06,MM,TERMINAL,109300,,,,,,45.255,,,-1.39450,-48.49167,0,SB,SBBE,06,BR
ibgi-mm-tb-tbpb,IBGI,MM 09,MM,TERMINAL,110100,,,,,,75.856,,,13.06901,-59.51505,0,TB,TBPB,09,BB
ibhm-mm-k7-kbhm,IBHM,MM 06,MM,TERMINAL,110300,,,,,,55.359,,,33.55073,-86.77860,586,K7,KBHM,06,US
ibi-mm-uk-ukbb,IBI,MM 18L,MM,TERMINAL,111300,,,,,,182.683,,,50.36889,30.90714,0,UK,UKBB,18L,UA
ibik-mm-wa-wabb,IBIK,MM 11,MM,TERMINAL,110500,,,,,,109.258,,,-1.18222,136.08544,0,WA,WABB,11,ID
ibil-mm-k1-kbil,IBIL,MM 10L,MM,TERMINAL,111500,,,,,,111.799,,,45.81591,-108.56638,3620,K1,KBIL,10L,US
ibk-mm-un-unkl,IBK,MM 29,MM,TERMINAL,111700,,,,,,293.175,,,56.16333,92.53381,0,UN,UNKL,29,RU
ibkl-mm-wi-wigg,IBKL,MM 13,MM,TERMINAL,111700,,,,,,133.263,,,-3.85100,102.32536,0,WI,WIGG,13,ID
ibl-mm-eb-ebbr,IBL,MM 25L,MM,TERMINAL,110350,,,,,,249.901,,,50.90253,4.53881,0,EB,EBBR,25L,BE
ibpn-mm-wa-wall,IBPN,MM 25,MM,TERMINAL,110900,,,,,,247.028,,,-1.26058,116.91281,0,WA,WALL,25,ID
ibr-mm-eb-ebbr,IBR,MM 25R,MM,TERMINAL,108900,,,,,,245.396,,,50.91558,4.51461,0,EB,EBBR,25R,BE
ibre-mm-ed-eddw,IBRE,MM 09,MM,TERMINAL,110300,,,,,,87.853,,,53.04638,8.76043,0,ED,EDDW,09,DE
ibrw-mm-ed-eddw,IBRW,MM 27,MM,TERMINAL,110900,,,,,,267.853,,,53.04775,8.82236,0,ED,EDDW,27,DE
ibs-mm-li-lipo,IBS,MM 32,MM,TERMINAL,110550,,,,,,315.028,,,45.41456,10.35122,0,LI,LIPO,32,IT
ibs-mm-ui-uibb,IBS,MM 30,MM,TERMINAL,110300,,,,,,294.938,,,56.36039,101.73794,0,UI,UIBB,30,RU
ibtm-mm-wi-widd,IBTM,MM 04,MM,TERMINAL,110100,,,,,,41.412,,,1.10024,104.10053,57,WI,WIDD,04,ID
ibui-mm-k7-ktys,IBUI,MM 23R,MM,TERMINAL,111700,,,,,,224.690,,,35.82655,-83.97825,967,K7,KTYS,23R,US
ibut-mm-vt-vtbu,IBUT,MM 18,MM,TERMINAL,111100,,,,,,184.605,,,12.70167,101.00000,59,VT,VTBU,18,TH
ibw-mm-uu-uuee,IBW,MM 24L,MM,TERMINAL,110500,,,,,,255.079,,,55.97836,37.46156,0,UU,UUEE,24L,RU
ibx-mm-eb-ebbr,IBX,MM 01,MM,TERMINAL,109900,,,,,,14.433,,,50.87775,4.48761,0,EB,EBBR,01,BE
ibx-mm-uu-uuob,IBX,MM 29,MM,TERMINAL,110500,,,,,,297.387,,,50.63442,36.61914,0,UU,UUOB,29,RU
icae-mm-k7-kcae,ICAE,MM 11,MM,TERMINAL,110300,,,,,,104.739,,,33.94622,-81.14729,202,K7,KCAE,11,US
icar-mm-su-sumu,ICAR,MM 24,MM,TERMINAL,109900,,,,,,233.404,,,-34.82344,-56.00628,0,SU,SUMU,24,UY
icb-mm-rj-rjcj,ICB,MM 36R,MM,TERMINAL,110300,,,,,,352.640,,,42.76611,141.67389,0,RJ,RJCJ,36R,JP
icc-mm-ws-wsss,ICC,MM 20C,MM,TERMINAL,109700,,,,,,202.882,,,1.37005,104.00239,0,WS,WSSS,20C,SG
ice-mm-ws-wsss,ICE,MM 02C,MM,TERMINAL,108300,,,,,,22.882,,,1.32084,103.98162,0,WS,WSSS,02C,SG
ices-mm-sg-sges,ICES,MM 23,MM,TERMINAL,111300,,,,,,220.628,,,-25.43667,-54.82556,0,SG,SGES,23,PY
icg-mm-ut-utdk,ICG,MM 01,MM,TERMINAL,108100,,,,,,15.941,,,37.96667,69.79833,2295,UT,UTDK,01,TJ
icg-mm-zb-zbtj,ICG,MM 34L,MM,TERMINAL,110500,,,,,,334.551,,,39.10247,117.35973,0,ZB,ZBTJ,34L,CN
icgf-mm-k5-kcgf,ICGF,MM 24,MM,TERMINAL,111100,,,,,,229.378,,,41.57412,-81.47122,870,K5,KCGF,24,US
icgr-mm-wi-wiii,ICGR,MM 25R,MM,TERMINAL,110900,,,,,,248.152,,,-6.10572,106.67717,0,WI,WIII,25R,ID
ich-mm-nz-nzch,ICH,MM 02,MM,TERMINAL,109900,,,,,,39.977,,,-43.50380,172.51498,0,NZ,NZCH,02,NZ
ich-mm-ws-wsss,ICH,MM 20R,MM,TERMINAL,108900,,,,,,202.884,,,1.38542,103.99284,0,WS,WSSS,20R,SG
ick-mm-ei-eikn,ICK,MM 26,MM,TERMINAL,110700,,,,,,258.718,,,53.91403,-8.78511,0,EI,EIKN,26,IE
icl-mm-fw-fwcl,ICL,MM 10,MM,TERMINAL,110300,,,,,,96.831,,,-15.67639,34.94889,2555,FW,FWCL,10,MW
icms-mm-li-licb,ICMS,MM 05,MM,TERMINAL,108950,,,,,,50.060,,,36.98431,14.59161,756,LI,LICB,05,IT
icn-mm-uk-ukln,ICN,MM 15,MM,TERMINAL,109500,,,,,,153.164,,,48.27586,25.96792,0,UK,UKLN,15,UA
icow-mm-ed-edbc,ICOW,MM 26,MM,TERMINAL,108750,,,,,,257.386,,,51.86043,11.45061,0,ED,EDBC,26,DE
icr-mm-uk-ukln,ICR,MM 33,MM,TERMINAL,110300,,,,,,333.164,,,48.24117,25.99378,0,UK,UKLN,33,UA
icr-mm-uw-uwks,ICR,MM 24,MM,TERMINAL,108300,,,,,,251.808,,,56.09669,47.38231,0,UW,UWKS,24,RU
icrd-mm-lt-ltay,ICRD,MM 23,MM,TERMINAL,110700,,,,,,238.827,,,37.79675,29.72456,2773,LT,LTAY,23,TR
icrm-mm-lt-ltfh,ICRM,MM 13,MM,TERMINAL,110100,,,,,,133.629,,,41.27028,36.54503,0,LT,LTFH,13,TR
ics-mm-yb-ybcs,ICS,MM 15,MM,TERMINAL,109900,,,,,,156.606,,,-16.85819,145.74019,0,YB,YBCS,15,AU
ict-mm-sb-sbct,ICT,MM 15,MM,TERMINAL,109300,,,,,,134.697,,,-25.51467,-49.19150,0,SB,SBCT,15,BR
ictr-mm-vt-vtct,ICTR,MM 03,MM,TERMINAL,109500,,,,,,28.871,,,19.93136,99.87056,1279,VT,VTCT,03,TH
icuc-mm-sk-skcc,ICUC,MM 16,MM,TERMINAL,109900,,,,,,148.936,,,7.95056,-72.52583,1089,SK,SKCC,16,CO
icw-mm-ws-wsss,ICW,MM 02L,MM,TERMINAL,110900,,,,,,22.884,,,1.34098,103.97408,0,WS,WSSS,02L,SG
icwa-mm-k5-kcwa,ICWA,MM 08,MM,TERMINAL,110300,,,,,,77.348,,,44.77819,-89.68634,0,K5,KCWA,08,US
icx-mm-ws-wsss,ICX,MM 02R,MM,TERMINAL,110500,,,,,,23.010,,,1.31433,103.99645,0,WS,WSSS,02R,SG
icz-mm-ws-wsss,ICZ,MM 20L,MM,TERMINAL,108550,,,,,,203.010,,,1.36371,104.01738,0,WS,WSSS,20L,SG
idaa-mm-k6-kdaa,IDAA,MM 32,MM,TERMINAL,108900,,,,,,313.586,,,38.70437,-77.16670,50,K6,KDAA,32,US
idbn-mm-lt-ltcc,IDBN,MM 34,MM,TERMINAL,108500,,,,,,342.669,,,37.87067,40.21011,0,LT,LTCC,34,TR
iddo-mm-k7-kmco,IDDO,MM 35L,MM,TERMINAL,110500,,,,,,359.471,,,28.40042,-81.29552,82,K7,KMCO,35L,US
idel-mm-wi-wimm,IDEL,MM 23,MM,TERMINAL,110900,,,,,,224.781,,,3.65656,98.88889,20,WI,WIMM,23,ID
ides-mm-wi-wimm,IDES,MM 05,MM,TERMINAL,109300,,,,,,44.843,,,3.61914,98.85167,23,WI,WIMM,05,ID
idk-mm-zb-zbaa,IDK,MM 36L,MM,TERMINAL,111700,,,,,,353.111,,,40.06392,116.57571,0,ZB,ZBAA,36L,CN
idl-mm-ey-eysa,IDL,MM 32R,MM,TERMINAL,108700,,,,,,326.162,,,55.87300,23.41994,445,EY,EYSA,32R,LT
idmp-mm-k7-krdu,IDMP,MM 23R,MM,TERMINAL,111700,,,,,,225.027,,,35.89853,-78.77221,410,K7,KRDU,23R,US
idp-mm-uk-ukdd,IDP,MM 08,MM,TERMINAL,109500,,,,,,90.021,,,48.35722,35.06917,0,UK,UKDD,08,UA
idps-mm-wa-wadd,IDPS,MM 27,MM,TERMINAL,110300,,,,,,267.736,,,-8.74733,115.19328,0,WA,WADD,27,ID
idr-mm-uk-ukdd,IDR,MM 26,MM,TERMINAL,110300,,,,,,270.021,,,48.35722,35.13344,0,UK,UKDD,26,UA
idse-mm-ed-eddl,IDSE,MM 05R,MM,TERMINAL,110150,,,,,,52.709,,,51.27526,6.74271,0,ED,EDDL,05R,DE
idu-mm-ld-lddu,IDU,MM 11,MM,TERMINAL,110100,,,,,,118.319,,,42.57439,18.23579,0,LD,LDDU,11,HR
idwe-mm-ed-edlw,IDWE,MM 06,MM,TERMINAL,109150,,,,,,60.522,,,51.51137,7.59247,480,ED,EDLW,06,DE
ieaf-mm-pa-paei,IEAF,MM 32,MM,TERMINAL,109900,,,,,,339.213,,,64.63625,-147.07573,0,PA,PAEI,32,US
ieei-mm-k5-kcvg,IEEI,MM 36R,MM,TERMINAL,110350,,,,,,0.207,,,39.02126,-84.64683,915,K5,KCVG,36R,US
iel-mm-li-liee,IEL,MM 32,MM,TERMINAL,109500,,,,,,318.091,,,39.23606,9.07214,0,LI,LIEE,32,IT
ielg-mm-lt-ltca,IELG,MM 25,MM,TERMINAL,110300,,,,,,256.110,,,38.60317,39.30992,0,LT,LTCA,25,TR
iere-mm-ed-edde,IERE,MM 10,MM,TERMINAL,108300,,,,,,97.246,,,50.98262,10.92286,0,ED,EDDE,10,DE
ierw-mm-ed-edde,IERW,MM 28,MM,TERMINAL,109900,,,,,,277.246,,,50.97727,10.98987,0,ED,EDDE,28,DE
iesf-mm-k4-kesf,IESF,MM 27,MM,TERMINAL,111500,,,,,,270.868,,,31.39404,-92.27572,0,K4,KESF,27,US
ieti-mm-lt-ltad,IETI,MM 11,MM,TERMINAL,110500,,,,,,113.697,,,39.95969,32.66278,0,LT,LTAD,11,TR
ifa-mm-li-lipy,IFA,MM 22,MM,TERMINAL,111900,,,,,,224.802,,,43.63153,13.38281,0,LI,LIPY,22,IT
iffm-mm-k3-kffm,IFFM,MM 31,MM,TERMINAL,111500,,,,,,313.310,,,46.27401,-96.13881,1151,K3,KFFM,31,US
ifhe-mm-ed-edny,IFHE,MM 06,MM,TERMINAL,111900,,,,,,60.068,,,47.66291,9.49107,1329,ED,EDNY,06,DE
ifkl-mm-k6-kfkl,IFKL,MM 21,MM,TERMINAL,110500,,,,,,197.203,,,41.39011,-79.85506,1512,K6,KFKL,21,US
ifkp-mm-k5-khop,IFKP,MM 23,MM,TERMINAL,111900,,,,,,224.085,,,36.69096,-87.46915,567,K5,KHOP,23,US
ifll-mm-li-lirf,IFLL,MM 16L,MM,TERMINAL,108100,,,,,,162.685,,,41.85389,12.25817,0,LI,LIRF,16L,IT
ifn-mm-nf-nffn,IFN,MM 02,MM,TERMINAL,111900,,,,,,37.619,,,-17.77886,177.42428,0,NF,NFFN,02,FJ
ifn-mm-ut-utdd,IFN,MM 09,MM,TERMINAL,110300,,,,,,90.180,,,38.54333,68.79667,0,UT,UTDD,09,TJ
ifqj-mm-k3-kfrm,IFQJ,MM 31,MM,TERMINAL,111100,,,,,,314.220,,,43.63323,-94.40240,1157,K3,KFRM,31,US
ifrr-mm-li-lirf,IFRR,MM 16R,MM,TERMINAL,109750,,,,,,162.666,,,41.82714,12.22147,0,LI,LIRF,16R,IT
ig-mm-sa-sari,IG,MM 31,MM,TERMINAL,110900,,,,,,294.875,,,-25.74806,-54.44783,915,SA,SARI,31,AR
igby-mm-k3-kmml,IGBY,MM 12,MM,TERMINAL,109700,,,,,,130.015,,,44.45942,-95.83953,0,K3,KMML,12,US
igc-mm-eb-ebci,IGC,MM 24,MM,TERMINAL,110900,,,,,,245.484,,,50.46889,4.48472,0,EB,EBCI,24,BE
igh-mm-sb-sbgr,IGH,MM 09R,MM,TERMINAL,111700,,,,,,73.593,,,-23.44167,-46.49533,0,SB,SBGR,09R,BR
igh-mm-um-umms,IGH,MM 31L,MM,TERMINAL,109700,,,,,,318.838,,,53.86361,28.05869,0,UM,UMMS,31L,BY
igk-mm-us-usrr,IGK,MM 07,MM,TERMINAL,110500,,,,,,89.641,,,61.34372,73.35678,0,US,USRR,07,RU
igm-mm-ud-udsg,IGM,MM 02,MM,TERMINAL,110300,,,,,,23.543,,,40.72881,43.84692,0,UD,UDSG,02,AM
igm-mm-um-umgg,IGM,MM 10,MM,TERMINAL,109300,,,,,,110.845,,,52.53458,30.98406,0,UM,UMGG,10,BY
ignp-mm-lt-ltaj,IGNP,MM 28,MM,TERMINAL,109100,,,,,,285.053,,,36.94244,37.50481,0,LT,LTAJ,28,TR
igo-mm-uk-ukkm,IGO,MM 33,MM,TERMINAL,108700,,,,,,334.566,,,50.58111,30.20806,0,UK,UKKM,33,UA
igp-mm-um-ummg,IGP,MM 17,MM,TERMINAL,109500,,,,,,178.161,,,53.62261,24.05267,0,UM,UMMG,17,BY
igri-mm-k3-kgri,IGRI,MM 35,MM,TERMINAL,111900,,,,,,0.300,,,40.94908,-98.31500,1846,K3,KGRI,35,US
igs-mm-sb-sbgr,IGS,MM 27R,MM,TERMINAL,111900,,,,,,253.587,,,-23.42283,-46.44083,0,SB,SBGR,27R,BR
igt-mm-uu-uuww,IGT,MM 06,MM,TERMINAL,108900,,,,,,68.330,,,55.58350,37.22547,0,UU,UUWW,06,RU
igv-mm-ur-urwa,IGV,MM 09,MM,TERMINAL,110300,,,,,,96.858,,,46.28556,47.97847,0,UR,URWA,09,RU
ihae-mm-ed-edfh,IHAE,MM 03,MM,TERMINAL,109300,,,,,,32.408,,,49.92629,7.24181,0,ED,EDFH,03,DE
ihal-mm-wi-wihh,IHAL,MM 24,MM,TERMINAL,111700,,,,,,245.253,,,-6.25813,106.90991,0,WI,WIHH,24,ID
ihaw-mm-ed-edfh,IHAW,MM 21,MM,TERMINAL,111300,,,,,,212.408,,,49.96493,7.28087,0,ED,EDFH,21,DE
ihe-mm-uk-ukoh,IHE,MM 03,MM,TERMINAL,110100,,,,,,32.913,,,46.65917,32.49028,0,UK,UKOH,03,UA
ihew-mm-ed-edah,IHEW,MM 28,MM,TERMINAL,111300,,,,,,285.560,,,53.87394,14.18194,143,ED,EDAH,28,DE
ihg-mm-mu-muhg,IHG,MM 05,MM,TERMINAL,111300,,,,,,46.125,,,20.77051,-76.33184,279,MU,MUHG,05,CU
ihhe-mm-ed-eddh,IHHE,MM 05,MM,TERMINAL,110500,,,,,,50.212,,,53.61470,9.95673,0,ED,EDDH,05,DE
ihhw-mm-ed-eddh,IHHW,MM 23,MM,TERMINAL,111500,,,,,,230.213,,,53.64142,10.01031,0,ED,EDDH,23,DE
ihio-mm-k1-khio,IHIO,MM 13R,MM,TERMINAL,110700,,,,,,143.676,,,45.55564,-122.96583,186,K1,KHIO,13R,US
ihne-mm-ed-eddv,IHNE,MM 09L,MM,TERMINAL,108300,,,,,,92.611,,,52.46863,9.63899,183,ED,EDDV,09L,DE
ihnw-mm-ed-eddv,IHNW,MM 27R,MM,TERMINAL,108900,,,,,,272.611,,,52.46646,9.71722,183,ED,EDDV,27R,DE
ihow-mm-ed-edqm,IHOW,MM 26,MM,TERMINAL,110700,,,,,,266.785,,,50.28929,11.87621,0,ED,EDQM,26,DE
ihsu-mm-rc-rcpo,IHSU,MM 05,MM,TERMINAL,108700,,,,,,44.968,,,24.79983,120.91964,26,RC,RCPO,05,TW
ihsv-mm-k7-khsv,IHSV,MM 18R,MM,TERMINAL,109300,,,,,,180.942,,,34.66034,-86.78195,628,K7,KHSV,18R,US
ihsw-mm-ed-eddv,IHSW,MM 27L,MM,TERMINAL,109500,,,,,,272.625,,,52.45360,9.72746,183,ED,EDDV,27L,DE
ihv-mm-ut-utdl,IHV,MM 26,MM,TERMINAL,109900,,,,,,262.170,,,40.21833,69.72167,1450,UT,UTDL,26,TJ
ihw-mm-nz-nzch,IHW,MM 20,MM,TERMINAL,110300,,,,,,219.977,,,-43.46863,172.55564,0,NZ,NZCH,20,NZ
iif-mm-uk-ukli,IIF,MM 28,MM,TERMINAL,109300,,,,,,284.011,,,48.87889,24.71472,919,UK,UKLI,28,UA
iigw-mm-et-etsi,IIGW,MM 25L,MM,TERMINAL,108100,,,,,,248.166,,,48.71800,11.56951,1215,ET,ETSI,25L,DE
iist-mm-lt-ltba,IIST,MM 05,MM,TERMINAL,110300,,,,,,58.489,,,40.96275,28.80375,0,LT,LTBA,05,TR
iiv-mm-uk-ukli,IIV,MM 10,MM,TERMINAL,108700,,,,,,104.011,,,48.88861,24.65500,919,UK,UKLI,10,UA
iiwt-mm-hl-hllt,IIWT,MM 27,MM,TERMINAL,109500,,,,,,269.001,,,32.66361,13.17833,263,HL,HLLT,27,LY
iiyv-mm-k5-kiln,IIYV,MM 04R,MM,TERMINAL,109350,,,,,,37.214,,,39.40904,-83.80028,1041,K5,KILN,04R,US
ija-mm-rj-rjfy,IJA,MM 26L,MM,TERMINAL,110300,,,,,,259.301,,,31.37018,130.85981,0,RJ,RJFY,26L,JP
ijbd-mm-k7-klbt,IJBD,MM 05,MM,TERMINAL,108950,,,,,,44.994,,,34.60007,-79.07243,124,K7,KLBT,05,US
ijh-mm-us-usnn,IJH,MM 03,MM,TERMINAL,110500,,,,,,42.195,,,60.93192,76.44950,0,US,USNN,03,RU
ijhw-mm-k6-kjhw,IJHW,MM 25,MM,TERMINAL,109700,,,,,,238.858,,,42.16075,-79.23994,1719,K6,KJHW,25,US
ijj-mm-zg-zgkl,IJJ,MM 01,MM,TERMINAL,110100,,,,,,4.957,,,25.19446,110.03704,0,ZG,ZGKL,01,CN
ijmb-mm-wi-wijj,IJMB,MM 31,MM,TERMINAL,109900,,,,,,309.519,,,-1.65092,103.66006,0,WI,WIJJ,31,ID
ijog-mm-wa-wahh,IJOG,MM 09,MM,TERMINAL,109100,,,,,,88.122,,,-7.78894,110.41161,0,WA,WAHH,09,ID
ijp-mm-ut-utsk,IJP,MM 16,MM,TERMINAL,109100,,,,,,163.983,,,38.82297,65.76553,0,UT,UTSK,16,UZ
ijpa-mm-wa-wajj,IJPA,MM 30,MM,TERMINAL,110300,,,,,,306.757,,,-2.59258,140.53725,0,WA,WAJJ,30,ID
ijs-mm-zb-zbtj,IJS,MM 16R,MM,TERMINAL,110900,,,,,,154.551,,,39.14628,117.33262,0,ZB,ZBTJ,16R,CN
ijvh-mm-k6-kbgr,IJVH,MM 15,MM,TERMINAL,109500,,,,,,134.292,,,44.82325,-68.85096,158,K6,KBGR,15,US
ikb-mm-uk-ukbb,IKB,MM 18R,MM,TERMINAL,108900,,,,,,182.645,,,50.36267,30.88236,0,UK,UKBB,18R,UA
ikbe-mm-ed-edsb,IKBE,MM 03,MM,TERMINAL,109950,,,,,,31.703,,,48.76095,8.06262,0,ED,EDSB,03,DE
ikbw-mm-ed-edsb,IKBW,MM 21,MM,TERMINAL,108750,,,,,,211.702,,,48.79802,8.09761,0,ED,EDSB,21,DE
ikc-mm-op-opkc,IKC,MM 25R,MM,TERMINAL,110100,,,,,,254.417,,,24.91502,67.18817,0,OP,OPKC,25R,PK
ike-mm-uk-ukbb,IKE,MM 36L,MM,TERMINAL,110500,,,,,,2.645,,,50.31167,30.87867,0,UK,UKBB,36L,UA
ikes-mm-ed-eddk,IKES,MM 14L,MM,TERMINAL,110900,,,,,,137.577,,,50.88647,7.11998,0,ED,EDDK,14L,DE
ikg-mm-us-usrk,IKG,MM 17,MM,TERMINAL,108500,,,,,,189.937,,,62.21108,74.54139,0,US,USRK,17,RU
ikhe-mm-ed-edhk,IKHE,MM 08,MM,TERMINAL,109500,,,,,,84.820,,,54.37759,10.12024,99,ED,EDHK,08,DE
ikhw-mm-ed-edhk,IKHW,MM 26,MM,TERMINAL,109500,,,,,,262.408,,,54.38137,10.16775,89,ED,EDHK,26,DE
ikm-mm-ul-ulaa,IKM,MM 26,MM,TERMINAL,111700,,,,,,276.517,,,64.59775,40.76608,0,UL,ULAA,26,RU
ikny-mm-lt-ltan,IKNY,MM 01L,MM,TERMINAL,108900,,,,,,16.652,,,37.95711,32.55117,0,LT,LTAN,01L,TR
ikp-mm-sb-sbkp,IKP,MM 15,MM,TERMINAL,110300,,,,,,127.908,,,-22.99267,-47.15517,0,SB,SBKP,15,BR
ikpg-mm-wa-watt,IKPG,MM 25,MM,TERMINAL,110500,,,,,,256.431,,,-10.16674,123.69147,0,WA,WATT,25,ID
ikps-mm-vt-vtbk,IKPS,MM 21,MM,TERMINAL,109900,,,,,,209.402,,,14.12119,99.92840,32,VT,VTBK,21,TH
ikr-mm-ld-ldri,IKR,MM 14,MM,TERMINAL,108500,,,,,,143.783,,,45.23439,14.55235,0,LD,LDRI,14,HR
ikr-mm-um-umkk,IKR,MM 24,MM,TERMINAL,109500,,,,,,245.770,,,54.90153,20.63681,0,UM,UMKK,24,RU
iks-mm-us-uscc,IKS,MM 27,MM,TERMINAL,108700,,,,,,283.649,,,55.30017,61.54419,0,US,USCC,27,RU
ikt-mm-ur-urmt,IKT,MM 25,MM,TERMINAL,110700,,,,,,255.646,,,45.11478,42.14364,0,UR,URMT,25,RU
il-mm-ef-efsi,IL,MM 32,MM,TERMINAL,111500,,,,,,316.239,,,62.67874,22.86043,0,EF,EFSI,32,FI
ila-mm-uw-uwks,ILA,MM 06,MM,TERMINAL,110300,,,,,,71.808,,,56.08375,47.31175,0,UW,UWKS,06,RU
ilb-mm-lp-lppt,ILB,MM 21,MM,TERMINAL,109500,,,,,,202.645,,,38.79983,-9.12617,374,LP,LPPT,21,PT
ilb-mm-us-uscc,ILB,MM 09,MM,TERMINAL,109900,,,,,,103.649,,,55.31125,61.46494,0,US,USCC,09,RU
ilc-mm-uk-ukkm,ILC,MM 15,MM,TERMINAL,111900,,,,,,154.566,,,50.62583,30.17472,0,UK,UKKM,15,UA
ilg-mm-eb-eblg,ILG,MM 22L,MM,TERMINAL,109350,,,,,,225.176,,,50.65556,5.47306,0,EB,EBLG,22L,BE
ilg-mm-zb-zbaa,ILG,MM 18R,MM,TERMINAL,110300,,,,,,173.111,,,40.11176,116.56812,0,ZB,ZBAA,18R,CN
ili-mm-lp-lppt,ILI,MM 03,MM,TERMINAL,109100,,,,,,22.645,,,38.75764,-9.14856,331,LP,LPPT,03,PT
ilks-mm-k5-ksdf,ILKS,MM 29,MM,TERMINAL,109100,,,,,,291.213,,,38.16976,-85.71304,468,K5,KSDF,29,US
ilm-mm-fx-fxmm,ILM,MM 22,MM,TERMINAL,108900,,,,,,195.188,,,-29.43318,27.56159,0,FX,FXMM,22,LS
ilmb-mm-wa-wadl,ILMB,MM 13,MM,TERMINAL,109900,,,,,,129.170,,,-8.74344,116.25814,0,WA,WADL,13,ID
ilne-mm-ed-eddp,ILNE,MM 08L,MM,TERMINAL,108550,,,,,,85.745,,,51.43060,12.20213,418,ED,EDDP,08L,DE
ilnt-mm-li-liml,ILNT,MM 36,MM,TERMINAL,109550,,,,,,355.677,,,45.42606,9.27925,337,LI,LIML,36,IT
ilnw-mm-ed-eddp,ILNW,MM 26R,MM,TERMINAL,108350,,,,,,265.745,,,51.43407,12.28052,448,ED,EDDP,26R,DE
ilos-mm-eg-egqs,ILOS,MM 23,MM,TERMINAL,111550,,,,,,223.662,,,57.72112,-3.31255,0,EG,EGQS,23,GB
ilpa-mm-sl-sllp,ILPA,MM 10,MM,TERMINAL,110300,,,,,,91.883,,,-16.51244,-68.22081,0,SL,SLLP,10,BO
ilrw-mm-ed-edtl,ILRW,MM 21,MM,TERMINAL,109700,,,,,,208.229,,,48.38943,7.84403,0,ED,EDTL,21,DE
ilsf-mm-k7-klsf,ILSF,MM 33,MM,TERMINAL,110700,,,,,,324.832,,,32.31559,-84.97369,0,K7,KLSF,33,US
ilsl-mm-ed-eddp,ILSL,MM 26L,MM,TERMINAL,110300,,,,,,265.736,,,51.41473,12.27128,470,ED,EDDP,26L,DE
ilsr-mm-ed-eddp,ILSR,MM 08R,MM,TERMINAL,111750,,,,,,85.736,,,51.41108,12.19159,428,ED,EDDP,08R,DE
iluw-mm-ed-edhl,ILUW,MM 25,MM,TERMINAL,111700,,,,,,251.966,,,53.81020,10.74439,0,ED,EDHL,25,DE
imak-mm-wa-waaa,IMAK,MM 21,MM,TERMINAL,110100,,,,,,209.865,,,-5.05981,119.56275,0,WA,WAAA,21,ID
imdn-mm-wi-wimk,IMDN,MM 05,MM,TERMINAL,110100,,,,,,46.280,,,3.54357,98.65614,0,WI,WIMK,05,ID
imeb-mm-k7-kmeb,IMEB,MM 05,MM,TERMINAL,110700,,,,,,45.687,,,34.78445,-79.37947,176,K7,KMEB,05,US
imen-mm-lt-ltbj,IMEN,MM 34R,MM,TERMINAL,110300,,,,,,346.660,,,38.26950,27.16383,0,LT,LTBJ,34R,TR
imge-mm-ed-edln,IMGE,MM 13,MM,TERMINAL,108950,,,,,,128.710,,,51.23911,6.48704,0,ED,EDLN,13,DE
imgw-mm-ed-edln,IMGW,MM 31,MM,TERMINAL,110550,,,,,,308.710,,,51.22117,6.52398,0,ED,EDLN,31,DE
imhw-mm-et-etnh,IMHW,MM 26,MM,TERMINAL,108900,,,,,,259.417,,,54.31598,9.57143,0,ET,ETNH,26,DE
imid-mm-mm-mmmd,IMID,MM 10,MM,TERMINAL,111700,,,,,,105.384,,,20.93333,-89.66667,0,MM,MMMD,10,MX
imiq-mm-sv-svmi,IMIQ,MM 10,MM,TERMINAL,110100,,,,,,88.126,,,10.60333,-67.02232,234,SV,SVMI,10,VE
imkb-mm-wi-wiee,IMKB,MM 33,MM,TERMINAL,111500,,,,,,335.208,,,-0.80608,100.28969,18,WI,WIEE,33,ID
imqj-mm-k5-kmqj,IMQJ,MM 25,MM,TERMINAL,108700,,,,,,249.949,,,39.84488,-85.88151,864,K5,KMQJ,25,US
imr-mm-ut-utam,IMR,MM 36R,MM,TERMINAL,109700,,,,,,358.488,,,37.59917,61.89833,728,UT,UTAM,36R,TM
imr-mm-uu-uuee,IMR,MM 06C,MM,TERMINAL,108100,,,,,,75.074,,,55.96758,37.37228,0,UU,UUEE,06C,RU
ims-mm-fd-fdms,IMS,MM 07,MM,TERMINAL,109700,,,,,,53.305,,,-26.54278,31.28667,0,FD,FDMS,07,SZ
imtc-mm-k5-kmtc,IMTC,MM 19,MM,TERMINAL,110100,,,,,,181.466,,,42.63481,-82.83556,590,K5,KMTC,19,US
imv-mm-um-umgg,IMV,MM 28,MM,TERMINAL,108700,,,,,,290.845,,,52.51908,31.05103,0,UM,UMGG,28,BY
imwh-mm-k1-kmwh,IMWH,MM 32R,MM,TERMINAL,109500,,,,,,342.187,,,47.18311,-119.30637,1162,K1,KMWH,32R,US
imxk-mm-k6-kadw,IMXK,MM 19R,MM,TERMINAL,111500,,,,,,179.859,,,38.83273,-76.87072,257,K6,KADW,19R,US
ina-mm-ug-ugtb,INA,MM 31L,MM,TERMINAL,108900,,,,,,316.664,,,41.65056,44.97456,0,UG,UGTB,31L,GE
inat-mm-mp-mpto,INAT,MM 03R,MM,TERMINAL,110700,,,,,,29.331,,,9.04033,-79.39675,135,MP,MPTO,03R,PA
inc-mm-un-unee,INC,MM 23,MM,TERMINAL,109100,,,,,,233.533,,,55.28410,86.14094,0,UN,UNEE,23,RU
inf-mm-ur-urmn,INF,MM 24,MM,TERMINAL,111500,,,,,,242.764,,,43.52158,43.65944,0,UR,URMN,24,RU
iniw-mm-ed-edlv,INIW,MM 27,MM,TERMINAL,110700,,,,,,272.052,,,51.60168,6.17285,105,ED,EDLV,27,DE
ink-mm-uw-uwke,INK,MM 21,MM,TERMINAL,109900,,,,,,226.954,,,55.57839,52.11864,0,UW,UWKE,21,RU
inl-mm-uu-uuee,INL,MM 06R,MM,TERMINAL,109100,,,,,,75.079,,,55.96506,37.37256,0,UU,UUEE,06R,RU
inll-mm-rk-rksi,INLL,MM 33L,MM,TERMINAL,109300,,,,,,324.787,,,37.44650,126.46772,0,RK,RKSI,33L,KR
ino-mm-uk-ukbb,INO,MM 36R,MM,TERMINAL,109700,,,,,,2.683,,,50.31569,30.90311,0,UK,UKBB,36R,UA
ino-mm-ut-utst,INO,MM 25,MM,TERMINAL,110300,,,,,,254.107,,,37.29259,67.33514,0,UT,UTST,25,UZ
inow-mm-et-etmn,INOW,MM 26,MM,TERMINAL,111750,,,,,,258.512,,,53.77173,8.69125,0,ET,ETMN,26,DE
inpl-mm-li-lirn,INPL,MM 24,MM,TERMINAL,109500,,,,,,238.053,,,40.89711,14.31428,0,LI,LIRN,24,IT
inr-mm-ub-ubbn,INR,MM 14R,MM,TERMINAL,111700,,,,,,137.726,,,39.20536,45.43858,0,UB,UBBN,14R,AZ
inrr-mm-rk-rksi,INRR,MM 33R,MM,TERMINAL,108900,,,,,,324.788,,,37.44867,126.47153,0,RK,RKSI,33R,KR
insw-mm-et-ethn,INSW,MM 25,MM,TERMINAL,108900,,,,,,254.608,,,49.39604,9.97911,0,ET,ETHN,25,DE
inu-mm-ut-utnu,INU,MM 31,MM,TERMINAL,109500,,,,,,319.646,,,41.56594,60.66267,0,UT,UTNU,31,UZ
inu-mm-uu-uubp,INU,MM 34,MM,TERMINAL,109900,,,,,,351.378,,,53.19550,34.18075,0,UU,UUBP,34,RU
inv-mm-es-esnv,INV,MM 28,MM,TERMINAL,109900,,,,,,283.158,,,64.57589,16.86525,0,ES,ESNV,28,SE
inz-mm-us-usnn,INZ,MM 21,MM,TERMINAL,111900,,,,,,222.195,,,60.96794,76.51689,0,US,USNN,21,RU
iob-mm-uu-uuww,IOB,MM 24,MM,TERMINAL,111100,,,,,,248.330,,,55.60147,37.30550,0,UU,UUWW,24,RU
iod-mm-uk-ukoo,IOD,MM 16,MM,TERMINAL,108300,,,,,,163.432,,,46.44722,30.66778,0,UK,UKOO,16,UA
ioe-mm-uk-ukoo,IOE,MM 34,MM,TERMINAL,110300,,,,,,343.432,,,46.40611,30.68528,0,UK,UKOO,34,UA
iojp-mm-k7-kmco,IOJP,MM 36R,MM,TERMINAL,110700,,,,,,359.466,,,28.40886,-81.32188,85,K7,KMCO,36R,US
iol-mm-us-usrk,IOL,MM 35,MM,TERMINAL,109500,,,,,,9.937,,,62.17139,74.52653,0,US,USRK,35,RU
iop-mm-ur-urmt,IOP,MM 07,MM,TERMINAL,110500,,,,,,75.646,,,45.10403,42.08431,0,UR,URMT,07,RU
iopn-mm-k7-kopn,IOPN,MM 30,MM,TERMINAL,109750,,,,,,297.873,,,32.94846,-84.24934,779,K7,KOPN,30,US
ior-mm-uw-uwor,IOR,MM 25,MM,TERMINAL,108100,,,,,,256.706,,,51.07775,58.63094,0,UW,UWOR,25,RU
ior-mm-zb-zbaa,IOR,MM 18L,MM,TERMINAL,109300,,,,,,173.140,,,40.09705,116.59361,0,ZB,ZBAA,18L,CN
ios-mm-eb-ebos,IOS,MM 26,MM,TERMINAL,109500,,,,,,256.519,,,51.20467,2.90703,0,EB,EBOS,26,BE
ios-mm-ld-ldos,IOS,MM 29,MM,TERMINAL,111500,,,,,,290.627,,,45.45546,18.83747,0,LD,LDOS,29,HR
iotg-mm-k3-kotg,IOTG,MM 29,MM,TERMINAL,111700,,,,,,294.813,,,43.64802,-95.55655,1558,K3,KOTG,29,US
iou-mm-uc-ucfo,IOU,MM 12,MM,TERMINAL,111100,,,,,,125.721,,,40.62104,72.77106,0,UC,UCFO,12,KG
iouw-mm-k6-kekn,IOUW,MM 05,MM,TERMINAL,109900,,,,,,188.313,,,38.89994,-79.86040,2015,K6,KEKN,05,US
ipa-mm-zg-zgkl,IPA,MM 19,MM,TERMINAL,108500,,,,,,184.957,,,25.24302,110.04170,0,ZG,ZGKL,19,CN
ipaj-mm-k3-kmci,IPAJ,MM 19R,MM,TERMINAL,109100,,,,,,192.888,,,39.33035,-94.71839,965,K3,KMCI,19R,US
ipas-mm-sk-skcl,IPAS,MM 02,MM,TERMINAL,109900,,,,,,9.932,,,3.52010,-76.38574,3149,SK,SKCL,02,CO
ipaw-mm-ed-edop,IPAW,MM 24,MM,TERMINAL,109500,,,,,,244.997,,,53.43647,11.81757,166,ED,EDOP,24,DE
ipc-mm-ym-ypea,IPC,MM 36R,MM,TERMINAL,111900,,,,,,353.538,,,-31.69250,116.01750,0,YM,YPEA,36R,AU
ipd-mm-lb-lbpd,IPD,MM 30,MM,TERMINAL,109900,,,,,,307.348,,,42.05494,24.87361,0,LB,LBPD,30,BG
ipe-mm-ym-ypea,IPE,MM 18L,MM,TERMINAL,110700,,,,,,173.538,,,-31.65306,116.01250,0,YM,YPEA,18L,AU
ipf-mm-ul-ulmm,IPF,MM 13,MM,TERMINAL,110300,,,,,,146.221,,,68.79889,32.71958,0,UL,ULMM,13,RU
ipgv-mm-k7-kpgv,IPGV,MM 20,MM,TERMINAL,110700,,,,,,187.538,,,35.65024,-77.38183,30,K7,KPGV,20,US
ipi-mm-li-lirp,IPI,MM 04R,MM,TERMINAL,109700,,,,,,36.733,,,43.66764,10.37756,0,LI,LIRP,04R,IT
ipib-mm-k7-kpib,IPIB,MM 18,MM,TERMINAL,109500,,,,,,179.939,,,31.48264,-89.33701,270,K7,KPIB,18,US
ipkd-mm-k3-kpkd,IPKD,MM 31,MM,TERMINAL,110900,,,,,,315.162,,,46.89101,-95.05824,1435,K3,KPKD,31,US
ipkn-mm-wa-wagi,IPKN,MM 31,MM,TERMINAL,111900,,,,,,312.616,,,-2.71667,111.68601,0,WA,WAGI,31,ID
ipkt-mm-vt-vtsp,IPKT,MM 27,MM,TERMINAL,109900,,,,,,266.010,,,8.11540,98.33770,0,VT,VTSP,27,TH
ipku-mm-wi-wibb,IPKU,MM 36,MM,TERMINAL,111100,,,,,,1.633,,,0.44531,101.44392,0,WI,WIBB,36,ID
iplb-mm-wi-wipp,IPLB,MM 29,MM,TERMINAL,110500,,,,,,292.845,,,-2.90661,104.71878,0,WI,WIPP,29,ID
iplm-mm-wi-wipp,IPLM,MM 11,MM,TERMINAL,111100,,,,,,112.845,,,-2.88928,104.67850,37,WI,WIPP,11,ID
iplr-mm-wa-wagg,IPLR,MM 34,MM,TERMINAL,111700,,,,,,339.033,,,-2.24702,113.95098,0,WA,WAGG,34,ID
ipnc-mm-k4-kpnc,IPNC,MM 17,MM,TERMINAL,111900,,,,,,179.632,,,36.74714,-97.09989,980,K4,KPNC,17,US
ipnk-mm-wi-wioo,IPNK,MM 15,MM,TERMINAL,111300,,,,,,157.867,,,-0.13558,109.39797,0,WI,WIOO,15,ID
ipo-mm-lp-lppi,IPO,MM 27,MM,TERMINAL,111700,,,,,,262.620,,,38.55817,-28.40344,0,LP,LPPI,27,PT
iprq-mm-k4-khou,IPRQ,MM 13R,MM,TERMINAL,111300,,,,,,134.116,,,29.65622,-95.29167,43,K4,KHOU,13R,US
ips-mm-uu-uumo,IPS,MM 25,MM,TERMINAL,108300,,,,,,264.848,,,55.50889,37.53111,0,UU,UUMO,25,RU
ipst-mm-sg-sgas,IPST,MM 20,MM,TERMINAL,109500,,,,,,192.401,,,-25.21611,-57.51333,0,SG,SGAS,20,PY
ipu-mm-ld-ldpl,IPU,MM 27,MM,TERMINAL,111500,,,,,,268.272,,,44.89422,13.95359,0,LD,LDPL,27,HR
ipvl-mm-k3-kmci,IPVL,MM 01R,MM,TERMINAL,110750,,,,,,12.897,,,39.27434,-94.71110,995,K3,KMCI,01R,US
iqu-mm-zb-zbaa,IQU,MM 36R,MM,TERMINAL,109900,,,,,,353.140,,,40.04653,116.60159,0,ZB,ZBAA,36R,CN
irds-mm-lg-lgrp,IRDS,MM 24,MM,TERMINAL,110300,,,,,,250.008,,,36.41320,28.11297,0,LG,LGRP,24,GR
irhx-mm-k5-kiln,IRHX,MM 22L,MM,TERMINAL,109350,,,,,,217.214,,,39.43952,-83.77031,1074,K5,KILN,22L,US
irkn-mm-rk-rksi,IRKN,MM 34,MM,TERMINAL,108100,,,,,,324.773,,,37.43569,126.44858,0,RK,RKSI,34,KR
irks-mm-rk-rksi,IRKS,MM 16,MM,TERMINAL,110350,,,,,,144.773,,,37.48053,126.40869,0,RK,RKSI,16,KR
iro-mm-uk-ukdr,IRO,MM 36,MM,TERMINAL,108300,,,,,,5.315,,,48.02453,33.20528,0,UK,UKDR,36,UA
iro-mm-un-unnt,IRO,MM 07,MM,TERMINAL,110100,,,,,,81.026,,,55.00842,82.60672,365,UN,UNNT,07,RU
isa-mm-ut-utfn,ISA,MM 28,MM,TERMINAL,110100,,,,,,288.550,,,40.97567,71.59275,0,UT,UTFN,28,UZ
isab-mm-lt-ltfj,ISAB,MM 06,MM,TERMINAL,109900,,,,,,64.034,,,40.88892,29.28306,0,LT,LTFJ,06,TR
isan-mm-oy-oysn,ISAN,MM 18,MM,TERMINAL,110900,,,,,,179.655,,,15.49956,44.21961,0,OY,OYSN,18,YE
isb-mm-fv-fvrg,ISB,MM 05,MM,TERMINAL,110300,,,,,,44.814,,,-17.95389,31.06978,0,FV,FVRG,05,ZW
isbh-mm-hl-hlls,ISBH,MM 13,MM,TERMINAL,110300,,,,,,132.819,,,27.04728,14.39922,1427,HL,HLLS,13,LY
isbh-mm-lt-ltfj,ISBH,MM 24,MM,TERMINAL,110900,,,,,,244.034,,,40.90806,29.33528,0,LT,LTFJ,24,TR
isby-mm-wa-warr,ISBY,MM 10,MM,TERMINAL,110100,,,,,,99.289,,,-7.37622,112.76483,0,WA,WARR,10,ID
isg-mm-ue-uerr,ISG,MM 25,MM,TERMINAL,110300,,,,,,236.127,,,62.54764,114.08100,0,UE,UERR,25,RU
isgb-mm-k2-ksaf,ISGB,MM 02,MM,TERMINAL,111700,,,,,,35.005,,,35.60046,-106.10335,6240,K2,KSAF,02,US
ish-mm-rj-rjtl,ISH,MM 19,MM,TERMINAL,109100,,,,,,180.000,,,35.81833,140.01167,0,RJ,RJTL,19,JP
isib-mm-ob-obbs,ISIB,MM 33R,MM,TERMINAL,110150,,,,,,333.950,,,25.89446,50.60362,0,OB,OBBS,33R,BH
isiw-mm-ed-edgs,ISIW,MM 31,MM,TERMINAL,108900,,,,,,308.124,,,50.69825,8.10130,0,ED,EDGS,31,DE
isll-mm-rk-rksi,ISLL,MM 15L,MM,TERMINAL,111900,,,,,,144.788,,,37.49167,126.43328,0,RK,RKSI,15L,KR
islo-mm-wa-wahq,ISLO,MM 26,MM,TERMINAL,111500,,,,,,257.372,,,-7.51070,110.78100,0,WA,WAHQ,26,ID
ism-mm-li-lieo,ISM,MM 05,MM,TERMINAL,109900,,,,,,55.304,,,40.88964,9.50039,0,LI,LIEO,05,IT
isrr-mm-rk-rksi,ISRR,MM 15R,MM,TERMINAL,109100,,,,,,144.787,,,37.48950,126.42947,0,RK,RKSI,15R,KR
ist-mm-ld-ldsp,IST,MM 05,MM,TERMINAL,110500,,,,,,52.492,,,43.52726,16.27697,0,LD,LDSP,05,HR
istc-mm-k3-kstc,ISTC,MM 31,MM,TERMINAL,111900,,,,,,316.101,,,45.53434,-94.04323,1015,K3,KSTC,31,US
istx-mm-ti-tisx,ISTX,MM 10,MM,TERMINAL,109500,,,,,,83.938,,,17.69984,-64.81754,0,TI,TISX,10,VI
isu-mm-wb-wbgs,ISU,MM 13,MM,TERMINAL,110500,,,,,,130.216,,,2.27527,111.96969,0,WB,WBGS,13,MY
isvn-mm-k7-ksvn,ISVN,MM 28,MM,TERMINAL,109500,,,,,,272.210,,,32.00938,-81.11511,0,K7,KSVN,28,US
isvs-mm-lt-ltar,ISVS,MM 01,MM,TERMINAL,109100,,,,,,17.848,,,39.78969,36.89339,0,LT,LTAR,01,TR
isw-mm-ei-einn,ISW,MM 24,MM,TERMINAL,110950,,,,,,232.182,,,52.71522,-8.89664,0,EI,EINN,24,IE
iswe-mm-k3-krrt,ISWE,MM 31,MM,TERMINAL,110100,,,,,,318.677,,,48.92814,-95.33071,1073,K3,KRRT,31,US
iswh-mm-ed-edty,ISWH,MM 28,MM,TERMINAL,111500,,,,,,278.815,,,49.11618,9.80770,0,ED,EDTY,28,DE
isz-mm-ey-eysa,ISZ,MM 14L,MM,TERMINAL,108300,,,,,,146.162,,,55.91472,23.37003,445,EY,EYSA,14L,LT
itam-mm-mm-mmtm,ITAM,MM 13,MM,TERMINAL,109300,,,,,,145.029,,,22.30000,-97.86667,80,MM,MMTM,13,MX
itb-mm-sb-sbgl,ITB,MM 10,MM,TERMINAL,109300,,,,,,74.375,,,-22.80417,-43.26400,26,SB,SBGL,10,BR
itfe-mm-k7-kmco,ITFE,MM 18R,MM,TERMINAL,111900,,,,,,179.457,,,28.45557,-81.32705,87,K7,KMCO,18R,US
itge-mm-ed-eddt,ITGE,MM 08R,MM,TERMINAL,108500,,,,,,80.864,,,52.55527,13.26062,121,ED,EDDT,08R,DE
itgw-mm-ed-eddt,ITGW,MM 26L,MM,TERMINAL,109300,,,,,,260.864,,,52.56116,13.32081,0,ED,EDDT,26L,DE
itij-mm-mm-mmtj,ITIJ,MM 09,MM,TERMINAL,111500,,,,,,99.139,,,32.54472,-116.99361,0,MM,MMTJ,09,MX
itkl-mm-vt-vtpi,ITKL,MM 18,MM,TERMINAL,108700,,,,,,181.272,,,15.29992,100.29638,0,VT,VTPI,18,TH
itle-mm-ed-eddt,ITLE,MM 08L,MM,TERMINAL,109100,,,,,,80.858,,,52.55629,13.25197,121,ED,EDDT,08L,DE
itlw-mm-ed-eddt,ITLW,MM 26R,MM,TERMINAL,110100,,,,,,260.858,,,52.56274,13.32301,121,ED,EDDT,26R,DE
itmk-mm-wa-wayy,ITMK,MM 12,MM,TERMINAL,110700,,,,,,121.934,,,-4.51900,136.87025,116,WA,WAYY,12,ID
itoc-mm-li-limf,ITOC,MM 36,MM,TERMINAL,108700,,,,,,2.562,,,45.18031,7.64828,989,LI,LIMF,36,IT
itpn-mm-wi-wikt,ITPN,MM 36,MM,TERMINAL,109500,,,,,,356.198,,,-2.76511,107.75592,0,WI,WIKT,36,ID
ituu-mm-k6-khts,ITUU,MM 30,MM,TERMINAL,108700,,,,,,292.464,,,38.36150,-82.53825,703,K6,KHTS,30,US
itw-mm-yb-ystw,ITW,MM 30R,MM,TERMINAL,109900,,,,,,313.000,,,-31.09100,150.86194,0,YB,YSTW,30R,AU
itzk-mm-lt-ltaz,ITZK,MM 11,MM,TERMINAL,110700,,,,,,117.332,,,38.78233,34.50842,0,LT,LTAZ,11,TR
iuc-mm-sb-sbgr,IUC,MM 09L,MM,TERMINAL,110700,,,,,,73.587,,,-23.43633,-46.49117,0,SB,SBGR,09L,BR
iuel-mm-sc-scel,IUEL,MM 17L,MM,TERMINAL,110300,,,,,,177.427,,,-33.36639,-70.78750,0,SC,SCEL,17L,CL
iuh-mm-ut-utsb,IUH,MM 01,MM,TERMINAL,110300,,,,,,10.138,,,39.75292,64.47708,0,UT,UTSB,01,UZ
iujp-mm-wa-waaa,IUJP,MM 03,MM,TERMINAL,110500,,,,,,29.865,,,-5.10050,119.53931,0,WA,WAAA,03,ID
iul-mm-uw-uwlw,IUL,MM 02,MM,TERMINAL,110100,,,,,,31.196,,,54.37514,48.77578,0,UW,UWLW,02,RU
iupg-mm-wa-waaa,IUPG,MM 13,MM,TERMINAL,111300,,,,,,130.711,,,-5.04819,119.53842,0,WA,WAAA,13,ID
iuu-mm-um-umii,IUU,MM 23,MM,TERMINAL,111900,,,,,,242.133,,,55.13553,30.38025,0,UM,UMII,23,BY
ivdm-mm-sc-scvm,IVDM,MM 05,MM,TERMINAL,110700,,,,,,52.157,,,-32.96028,-71.49500,0,SC,SCVM,05,CL
ivp-mm-ug-ugtb,IVP,MM 13R,MM,TERMINAL,110300,,,,,,136.664,,,41.68289,44.93369,0,UG,UGTB,13R,GE
ivqo-mm-k6-kpvc,IVQO,MM 07,MM,TERMINAL,111100,,,,,,59.217,,,42.06583,-70.23728,12,K6,KPVC,07,US
ivrn-mm-li-lipx,IVRN,MM 04,MM,TERMINAL,111750,,,,,,45.612,,,45.38197,10.86872,0,LI,LIPX,04,IT
ivx-mm-um-umms,IVX,MM 13R,MM,TERMINAL,108900,,,,,,138.838,,,53.90181,28.00200,0,UM,UMMS,13R,BY
iwes-mm-ed-edxw,IWES,MM 32,MM,TERMINAL,111500,,,,,,324.534,,,54.89728,8.36026,0,ED,EDXW,32,DE
iwm-mm-uu-uuww,IWM,MM 01,MM,TERMINAL,111700,,,,,,23.358,,,55.57872,37.25164,0,UU,UUWW,01,RU
iwn-mm-ue-uerp,IWN,MM 35,MM,TERMINAL,108100,,,,,,343.788,,,66.37750,112.04664,0,UE,UERP,35,RU
iwn-mm-uk-ukww,IWN,MM 31,MM,TERMINAL,110300,,,,,,318.289,,,49.22786,28.63447,0,UK,UKWW,31,UA
iwn-mm-uw-uwlw,IWN,MM 20,MM,TERMINAL,110100,,,,,,211.196,,,54.42792,48.83061,0,UW,UWLW,20,RU
iym-mm-gb-gbyd,IYM,MM 32,MM,TERMINAL,109500,,,,,,310.801,,,13.32123,-16.63246,95,GB,GBYD,32,GM
iys-mm-sb-sbys,IYS,MM 02C,MM,TERMINAL,109300,,,,,,0.000,,,-22.00250,-47.34117,1959,SB,SBYS,02C,BR
iza-mm-ld-ldza,IZA,MM 04,MM,TERMINAL,109500,,,,,,46.715,,,45.72540,16.04214,0,LD,LDZA,04,HR
izd-mm-ld-ldzd,IZD,MM 13,MM,TERMINAL,110100,,,,,,135.801,,,44.12320,15.32646,243,LD,LDZD,13,HR
izfp-mm-my-mygf,IZFP,MM 06,MM,TERMINAL,109700,,,,,,60.812,,,26.54701,-78.71905,0,MY,MYGF,06,BS
izg-mm-ld-ldza,IZG,MM 22,MM,TERMINAL,109100,,,,,,226.714,,,45.75831,16.09218,0,LD,LDZA,22,HR
izj-mm-us-ushh,IZJ,MM 24,MM,TERMINAL,110100,,,,,,255.358,,,61.03389,69.12869,0,US,USHH,24,RU
izr-mm-ut-utnn,IZR,MM 33,MM,TERMINAL,110300,,,,,,334.683,,,42.46906,59.63567,0,UT,UTNN,33,UZ
izu-mm-ut-utff,IZU,MM 18,MM,TERMINAL,109700,,,,,,183.244,,,40.38004,71.74631,0,UT,UTFF,18,UZ
ju-mm-sa-sasj,JU,MM 34,MM,TERMINAL,110100,,,,,,330.269,,,-24.41250,-65.08544,0,SA,SASJ,34,AR
kd-mm-lk-lkkb,KD,MM 24,MM,TERMINAL,108350,,,,,,242.304,,,50.12969,14.56821,0,LK,LKKB,24,CZ
ke-mm-lz-lzkz,KE,MM 01,MM,TERMINAL,109500,,,,,,13.005,,,48.64111,21.23350,755,LZ,LZKZ,01,SK
kee-mm-lh-lhke,KEE,MM 30,MM,TERMINAL,109950,,,,,,302.825,,,46.90628,19.77467,0,LH,LHKE,30,HU
kew-mm-lh-lhke,KEW,MM 12,MM,TERMINAL,111300,,,,,,123.000,,,46.92856,19.72417,0,LH,LHKE,12,HU
km-mm-fw-fwki,KM,MM 14,MM,TERMINAL,109900,,,,,,129.937,,,-13.77278,33.76083,0,FW,FWKI,14,MW
kvy-mm-lk-lkkv,KVY,MM 29,MM,TERMINAL,111550,,,,,,293.160,,,50.19577,12.94164,1989,LK,LKKV,29,CZ
la-mm-lk-lkna,LA,MM 30,MM,TERMINAL,111350,,,,,,309.419,,,49.15054,16.15348,0,LK,LKNA,30,CZ
lev-mm-li-limz,LEV,MM 21,MM,TERMINAL,110950,,,,,,212.514,,,44.56269,7.63683,0,LI,LIMZ,21,IT
ljb-mm-lj-ljlj,LJB,MM 30,MM,TERMINAL,110500,,,,,,306.491,,,46.20989,14.48453,0,LJ,LJLJ,30,SI
lo-mm-fl-flkk,LO,MM 10,MM,TERMINAL,110300,,,,,,95.180,,,-15.32306,28.42083,3781,FL,FLKK,10,ZM
lsl-mm-es-essl,LSL,MM 11,MM,TERMINAL,108700,,,,,,112.224,,,58.41336,15.64725,0,ES,ESSL,11,SE
lxi-mm-lf-lfsx,LXI,MM 11,MM,TERMINAL,108100,,,,,,113.157,,,47.79528,6.32158,0,LF,LFSX,11,FR
ma-mm-lp-lpaz,MA,MM 18,MM,TERMINAL,110300,,,,,,171.071,,,36.99667,-25.17572,283,LP,LPAZ,18,PT
mar-mm-lj-ljmb,MAR,MM 32,MM,TERMINAL,110100,,,,,,326.202,,,46.46261,15.70289,0,LJ,LJMB,32,SI
mdm-mm-lf-lfbm,MDM,MM 27,MM,TERMINAL,110500,,,,,,267.217,,,43.91269,-0.47531,0,LF,LFBM,27,FR
mi-mm-ef-efmi,MI,MM 11,MM,TERMINAL,109500,,,,,,112.637,,,61.69210,27.17471,329,EF,EFMI,11,FI
mi-mm-lf-lfsg,MI,MM 26,MM,TERMINAL,110900,,,,,,265.071,,,48.32689,6.09936,1084,LF,LFSG,26,FR
mlp-mm-li-limc,MLP,MM 35R,MM,TERMINAL,109900,,,,,,349.069,,,45.60686,8.73994,0,LI,LIMC,35R,IT
mm13-mm-vh-vhhx,MM13,MM 13,MM,TERMINAL,111900,,,,,,85.000,,,22.32994,114.16851,208,VH,VHHX,13,HK
moh-mm-lw-lwoh,MOH,MM 01,MM,TERMINAL,108900,,,,,,17.612,,,41.16583,20.73639,2280,LW,LWOH,01,MK
mp-mm-sa-sazm,MP,MM 13,MM,TERMINAL,109500,,,,,,122.777,,,-37.92417,-57.59303,0,SA,SAZM,13,AR
mq-mm-es-esmq,MQ,MM 16,MM,TERMINAL,108700,,,,,,152.231,,,56.70517,16.26867,17,ES,ESMQ,16,SE
msk-mm-lw-lwsk,MSK,MM 34,MM,TERMINAL,108700,,,,,,345.485,,,41.94056,21.62889,0,LW,LWSK,34,MK
mt-mm-es-esmt,MT,MM 19,MM,TERMINAL,110100,,,,,,186.193,,,56.70925,12.82378,0,ES,ESMT,19,SE
mx-mm-es-esmx,MX,MM 19,MM,TERMINAL,109700,,,,,,193.033,,,56.94719,14.73536,0,ES,ESMX,19,SE
nay-mm-lf-lfso,NAY,MM 20,MM,TERMINAL,108700,,,,,,199.453,,,48.60100,5.96403,0,LF,LFSO,20,FR
nb-mm-vv-vvnb,NB,MM 11L,MM,TERMINAL,110500,,,,,,107.233,,,21.22793,105.78305,43,VV,VVNB,11L,VN
ngg-mm-es-esgg,NGG,MM 21,MM,TERMINAL,108500,,,,,,205.961,,,57.68411,12.29917,0,ES,ESGG,21,SE
nkm-mm-es-eskm,NKM,MM 16,MM,TERMINAL,109700,,,,,,161.255,,,60.97525,14.49928,0,ES,ESKM,16,SE
nl-mm-lp-lppd,NL,MM 30,MM,TERMINAL,109500,,,,,,291.731,,,37.73494,-25.67492,259,LP,LPPD,30,PT
nnn-mm-es-esnn,NNN,MM 16,MM,TERMINAL,108700,,,,,,160.165,,,62.54606,17.43014,0,ES,ESNN,16,SE
nok-mm-es-esok,NOK,MM 21,MM,TERMINAL,110700,,,,,,205.630,,,59.46339,13.35500,0,ES,ESOK,21,SE
oan-mm-lf-lfoj,OAN,MM 25,MM,TERMINAL,111300,,,,,,249.277,,,47.99486,1.78883,0,LF,LFOJ,25,FR
ob-mm-lz-lzib,OB,MM 31,MM,TERMINAL,110700,,,,,,314.020,,,48.15078,17.24267,436,LZ,LZIB,31,SK
okr-mm-lz-lzib,OKR,MM 22,MM,TERMINAL,108300,,,,,,223.838,,,48.18642,17.23625,433,LZ,LZIB,22,SK
org-mm-lf-lfmo,ORG,MM 14,MM,TERMINAL,109900,,,,,,144.269,,,44.15544,4.85328,193,LF,LFMO,14,FR
pa-mm-es-espa,PA,MM 14,MM,TERMINAL,110300,,,,,,137.290,,,65.56172,22.08197,65,ES,ESPA,14,SE
pa-mm-sa-saap,PA,MM 20,MM,TERMINAL,110300,,,,,,188.411,,,-31.77660,-60.47703,234,SA,SAAP,20,AR
pc-mm-sa-saez,PC,MM 11,MM,TERMINAL,110100,,,,,,102.310,,,-34.81706,-58.56472,0,SA,SAEZ,11,AR
pcd-mm-lh-lhpa,PCD,MM 34,MM,TERMINAL,108550,,,,,,340.443,,,47.34481,17.51064,0,LH,LHPA,34,HU
pcn-mm-lh-lhpa,PCN,MM 16,MM,TERMINAL,108550,,,,,,160.443,,,47.38203,17.49111,0,LH,LHPA,16,HU
pk-mm-lk-lkpd,PK,MM 27,MM,TERMINAL,109350,,,,,,272.777,,,50.01247,15.77051,732,LK,LKPD,27,CZ
ra-mm-en-enra,RA,MM 31,MM,TERMINAL,111300,,,,,,79.148,,,66.32744,14.29474,0,EN,ENRA,31,NO
rai-mm-li-licj,RAI,MM 25,MM,TERMINAL,109500,,,,,,246.845,,,38.18889,13.12981,50,LI,LICJ,25,IT
reg-mm-li-licr,REG,MM 33,MM,TERMINAL,109300,,,,,,18.994,,,38.03794,15.66131,0,LI,LICR,33,IT
rnc-mm-li-lipq,RNC,MM 09,MM,TERMINAL,110750,,,,,,90.444,,,45.82797,13.43544,0,LI,LIPQ,09,IT
ro-mm-sa-saar,RO,MM 20,MM,TERMINAL,109900,,,,,,190.817,,,-32.88236,-60.77981,0,SA,SAAR,20,AR
ry-mm-sa-saor,RY,MM 06,MM,TERMINAL,109500,,,,,,58.383,,,-33.73250,-65.39389,1591,SA,SAOR,06,AR
sa-mm-sa-sasa,SA,MM 02,MM,TERMINAL,110300,,,,,,11.231,,,-24.88308,-65.49225,4117,SA,SASA,02,AR
sal-mm-lf-lfmy,SAL,MM 16,MM,TERMINAL,110900,,,,,,159.712,,,43.62314,5.10078,0,LF,LFMY,16,FR
sdi-mm-lf-lfsi,SDI,MM 29,MM,TERMINAL,108900,,,,,,293.095,,,48.62839,4.92667,0,LF,LFSI,29,FR
sf-mm-ek-ekvg,SF,MM 12,MM,TERMINAL,109100,,,,,,103.686,,,62.07572,-7.32226,0,EK,EKVG,12,FO
sgg-mm-es-esgg,SGG,MM 03,MM,TERMINAL,110300,,,,,,25.962,,,57.64064,12.25964,0,ES,ESGG,03,SE
sj-mm-es-esgj,SJ,MM 19,MM,TERMINAL,109900,,,,,,198.043,,,57.77592,14.07989,0,ES,ESGJ,19,SE
sl-mm-es-essl,SL,MM 29,MM,TERMINAL,108100,,,,,,292.224,,,58.39928,15.71392,0,ES,ESSL,29,SE
soe-mm-es-esoe,SOE,MM 01,MM,TERMINAL,109100,,,,,,11.663,,,59.19958,15.02822,0,ES,ESOE,01,SE
sok-mm-es-esok,SOK,MM 03,MM,TERMINAL,109350,,,,,,25.630,,,59.42603,13.31975,0,ES,ESOK,03,SE
svj-mm-ek-ekvj,SVJ,MM 27,MM,TERMINAL,110100,,,,,,272.485,,,55.98906,8.39100,0,EK,EKVJ,27,DK
sy-mm-es-esgr,SY,MM 19,MM,TERMINAL,108300,,,,,,195.688,,,58.47294,13.98153,295,ES,ESGR,19,SE
sza-mm-lf-lfks,SZA,MM 18,MM,TERMINAL,109100,,,,,,178.954,,,41.94422,9.40486,3,LF,LFKS,18,FR
tre-mm-li-liph,TRE,MM 07,MM,TERMINAL,109300,,,,,,69.220,,,45.64100,12.16686,56,LI,LIPH,07,IT
trh-mm-es-esgt,TRH,MM 33,MM,TERMINAL,111900,,,,,,326.133,,,58.30464,12.36164,0,ES,ESGT,33,SE
tt-mm-lz-lztt,TT,MM 27,MM,TERMINAL,110100,,,,,,274.141,,,49.07214,20.27253,0,LZ,LZTT,27,SK
tu-mm-sa-sant,TU,MM 02,MM,TERMINAL,109900,,,,,,9.722,,,-26.86269,-65.10911,0,SA,SANT,02,AR
vts-mm-li-lipz,VTS,MM 04R,MM,TERMINAL,109950,,,,,,42.038,,,45.48817,12.32994,0,LI,LIPZ,04R,IT
ybe-mm-ly-lybe,YBE,MM 30,MM,TERMINAL,109900,,,,,,302.028,,,44.80689,20.33514,0,LY,LYBE,30,RS
yub-mm-ly-lybe,YUB,MM 12,MM,TERMINAL,110300,,,,,,122.028,,,44.83181,20.27911,0,LY,LYBE,12,RS
yui-mm-ly-lypg,YUI,MM 36,MM,TERMINAL,109900,,,,,,4.303,,,42.33828,19.24981,0,LY,LYPG,36,ME
