slug,identifier,name,type,usage,frequency,dme_channel,dme_rx_frequency,dme_tx_frequency,dme_bias,vor_slaved_variation,localizer_heading,glide_slope_angle,reception_range,latitude,longitude,elevation,region,airport,airport_runway,country
ae-om-sa-sabe,AE,OM 13,OM,TERMINAL,109500,,,,,,124.119,,,-34.52031,-58.48603,0,SA,SABE,13,AR
av-om-lf-lfoa,AV,OM 24,OM,TERMINAL,110700,,,,,,240.305,,,47.09528,2.73394,0,LF,LFOA,24,FR
bap-om-li-libd,BAP,OM 07,OM,TERMINAL,111350,,,,,,69.413,,,41.11044,16.66089,0,LI,LIBD,07,IT
bc-om-sa-sazb,BC,OM 17L,OM,TERMINAL,109700,,,,,,163.765,,,-38.64481,-62.18447,0,SA,SAZB,17L,AR
bj-om-hb-hbba,BJ,OM 17,OM,TERMINAL,110100,,,,,,171.091,,,-3.24879,29.30671,0,HB,HBBA,17,BI
bsi-om-fa-fael,BSI,OM 11,OM,TERMINAL,110900,,,,,,81.923,,,-33.04575,27.73986,435,FA,FAEL,11,ZA
btj-om-ly-lybt,BTJ,OM 12L,OM,TERMINAL,108900,,,,,,125.428,,,44.96836,20.19631,0,LY,LYBT,12L,RS
cc-om-lf-lflh,CC,OM 35,OM,TERMINAL,108500,,,,,,350.619,,,46.72125,4.84292,623,LF,LFLH,35,FR
cf-om-lk-lkcv,CF,OM 31,OM,TERMINAL,111750,,,,,,317.339,,,49.90398,15.43292,0,LK,LKCV,31,CZ
cgc-om-lf-lfbg,CGC,OM 23,OM,TERMINAL,109900,,,,,,229.585,,,45.70567,-0.22942,0,LF,LFBG,23,FR
ckl-om-lj-ljce,CKL,OM 09,OM,TERMINAL,111100,,,,,,89.012,,,45.89819,15.39151,0,LJ,LJCE,09,SI
cr-om-sa-savc,CR,OM 25,OM,TERMINAL,110300,,,,,,259.286,,,-45.77308,-67.37339,0,SA,SAVC,25,AR
da-om-es-estl,DA,OM 29L,OM,TERMINAL,111700,,,,,,293.936,,,56.05083,13.32511,0,ES,ESTL,29L,SE
di-om-sa-sazt,DI,OM 19,OM,TERMINAL,109900,,,,,,185.074,,,-37.15917,-59.22028,568,SA,SAZT,19,AR
ekn-om-es-eskn,EKN,OM 26,OM,TERMINAL,111900,,,,,,263.100,,,58.79608,17.04425,0,ES,ESKN,26,SE
ekp-om-k5-kisw,EKP,OM 02,OM,TERMINAL,108700,,,,,,20.000,,,44.25980,-89.88769,931,K5,KISW,02,US
eli-om-fa-fael,ELI,OM 29,OM,TERMINAL,109900,,,,,,261.923,,,-33.02650,27.89975,387,FA,FAEL,29,ZA
es-om-sa-save,ES,OM 23,OM,TERMINAL,109700,,,,,,237.011,,,-42.87306,-71.07111,0,SA,SAVE,23,AR
evx-om-lf-lfoe,EVX,OM 22,OM,TERMINAL,111300,,,,,,219.800,,,49.09000,1.29750,0,LF,LFOE,22,FR
ez-om-sa-saez,EZ,OM 35,OM,TERMINAL,108700,,,,,,344.081,,,-34.89028,-58.50600,0,SA,SAEZ,35,AR
fee-om-li-lirf,FEE,OM 25,OM,TERMINAL,110150,,,,,,249.697,,,41.83133,12.35078,0,LI,LIRF,25,IT
for-om-li-lipk,FOR,OM 12,OM,TERMINAL,109700,,,,,,117.003,,,44.22914,11.97700,0,LI,LIPK,12,IT
fs-om-lz-lzsl,FS,OM 36,OM,TERMINAL,108700,,,,,,1.934,,,48.56258,19.13000,1044,LZ,LZSL,36,SK
iaam-om-k3-kfar,IAAM,OM 18,OM,TERMINAL,108900,,,,,,180.467,,,47.00905,-96.81518,891,K3,KFAR,18,US
iaay-om-k4-klit,IAAY,OM 22R,OM,TERMINAL,110300,,,,,,226.385,,,34.78361,-92.15942,250,K4,KLIT,22R,US
iabi-om-k4-kabi,IABI,OM 35R,OM,TERMINAL,110300,,,,,,359.762,,,32.29889,-99.67419,1895,K4,KABI,35R,US
iabr-om-k3-kabr,IABR,OM 31,OM,TERMINAL,109900,,,,,,315.163,,,45.38601,-98.32836,1296,K3,KABR,31,US
iad-om-eb-ebaw,IAD,OM 29,OM,TERMINAL,111750,,,,,,289.806,,,51.16728,4.56631,0,EB,EBAW,29,BE
iad-om-uu-uuee,IAD,OM 24C,OM,TERMINAL,111300,,,,,,255.074,,,55.98633,37.50000,0,UU,UUEE,24C,RU
iaeg-om-k2-kaeg,IAEG,OM 22,OM,TERMINAL,110100,,,,,,226.057,,,35.21735,-106.71284,5453,K2,KAEG,22,US
iags-om-k7-kags,IAGS,OM 35,OM,TERMINAL,110500,,,,,,348.269,,,33.28696,-81.94688,299,K7,KAGS,35,US
iaid-om-k5-kaid,IAID,OM 30,OM,TERMINAL,110100,,,,,,295.132,,,40.06953,-85.51088,968,K5,KAID,30,US
iaiw-om-k4-kadm,IAIW,OM 31,OM,TERMINAL,108900,,,,,,315.550,,,34.23234,-96.93313,710,K4,KADM,31,US
iaj-om-un-unkl,IAJ,OM 11,OM,TERMINAL,110500,,,,,,113.175,,,56.18347,92.44894,0,UN,UNKL,11,RU
iakr-om-k5-kakr,IAKR,OM 25,OM,TERMINAL,110900,,,,,,241.875,,,41.06973,-81.38737,1150,K5,KAKR,25,US
iale-om-os-osap,IALE,OM 27,OM,TERMINAL,110100,,,,,,276.726,,,36.17311,37.30755,0,OS,OSAP,27,SY
ialw-om-ed-edac,IALW,OM 22,OM,TERMINAL,108700,,,,,,219.401,,,51.03976,12.58067,0,ED,EDAC,22,DE
ialw-om-k1-kalw,IALW,OM 20,OM,TERMINAL,111700,,,,,,216.101,,,46.17557,-118.19636,1443,K1,KALW,20,US
iam-om-us-usrr,IAM,OM 25,OM,TERMINAL,109100,,,,,,269.641,,,61.34417,73.50486,0,US,USRR,25,RU
iam-om-yb-yamb,IAM,OM 15,OM,TERMINAL,110700,,,,,,158.839,,,-27.53923,152.66880,87,YB,YAMB,15,AU
iama-om-k4-kama,IAMA,OM 04,OM,TERMINAL,110300,,,,,,45.862,,,35.14647,-101.80554,3623,K4,KAMA,04,US
ian-om-sb-sban,IAN,OM 24R,OM,TERMINAL,111100,,,,,,218.932,,,-16.14416,-48.89397,3242,SB,SBAN,24R,BR
ian-om-ut-utfa,IAN,OM 04,OM,TERMINAL,110500,,,,,,45.606,,,40.69347,72.24744,0,UT,UTFA,04,UZ
ianb-om-k7-kanb,IANB,OM 05,OM,TERMINAL,111500,,,,,,48.331,,,33.53435,-85.93079,590,K7,KANB,05,US
iank-om-lt-ltac,IANK,OM 03R,OM,TERMINAL,110300,,,,,,36.084,,,40.06100,32.93267,0,LT,LTAC,03R,TR
iant-om-k4-ksat,IANT,OM 13R,OM,TERMINAL,110900,,,,,,131.760,,,29.60758,-98.56973,1054,K4,KSAT,13R,US
iaoo-om-k6-kaoo,IAOO,OM 21,OM,TERMINAL,111100,,,,,,195.924,,,40.39988,-78.28113,1200,K6,KAOO,21,US
iap-om-uu-uuoo,IAP,OM 30,OM,TERMINAL,111900,,,,,,310.913,,,51.77692,39.30139,0,UU,UUOO,30,RU
iapn-om-k5-kapn,IAPN,OM 01,OM,TERMINAL,109700,,,,,,359.804,,,44.96077,-83.56009,726,K5,KAPN,01,US
iaqz-om-k5-katw,IAQZ,OM 30,OM,TERMINAL,109700,,,,,,296.210,,,44.21589,-88.39899,754,K5,KATW,30,US
iart-om-k6-kart,IART,OM 07,OM,TERMINAL,111100,,,,,,53.367,,,43.94025,-76.11854,276,K6,KART,07,US
ias-om-ym-ybas,IAS,OM 12,OM,TERMINAL,109900,,,,,,120.386,,,-23.76722,133.83056,0,YM,YBAS,12,AU
iata-om-lt-ltba,IATA,OM 23,OM,TERMINAL,111900,,,,,,238.489,,,41.01050,28.90706,0,LT,LTBA,23,TR
iatd-om-k5-kday,IATD,OM 06L,OM,TERMINAL,108900,,,,,,55.246,,,39.84700,-84.33481,953,K5,KDAY,06L,US
iaty-om-lt-ltai,IATY,OM 18C,OM,TERMINAL,108700,,,,,,186.253,,,36.99986,30.80481,0,LT,LTAI,18C,TR
iaug-om-k6-kaug,IAUG,OM 17,OM,TERMINAL,108700,,,,,,153.172,,,44.41092,-69.86067,239,K6,KAUG,17,US
iawo-om-k1-kawo,IAWO,OM 34,OM,TERMINAL,111500,,,,,,359.099,,,48.07612,-122.15391,65,K1,KAWO,34,US
iays-om-k7-kays,IAYS,OM 19,OM,TERMINAL,108300,,,,,,179.248,,,31.32526,-82.39708,110,K7,KAYS,19,US
iaz-om-ul-ulaa,IAZ,OM 08,OM,TERMINAL,110300,,,,,,96.517,,,64.60678,40.58461,0,UL,ULAA,08,RU
iazo-om-k5-kazo,IAZO,OM 35,OM,TERMINAL,110900,,,,,,351.128,,,42.13108,-85.52976,856,K5,KAZO,35,US
iba-om-os-oslk,IBA,OM 17R,OM,TERMINAL,109100,,,,,,176.621,,,35.48028,35.94225,0,OS,OSLK,17R,SY
ibak-om-k5-kbak,IBAK,OM 23,OM,TERMINAL,110700,,,,,,224.929,,,39.32199,-85.81860,702,K5,KBAK,23,US
ibbw-om-et-ethb,IBBW,OM 26,OM,TERMINAL,111550,,,,,,257.566,,,52.29432,9.19702,0,ET,ETHB,26,DE
ibc-om-sb-sbgr,IBC,OM 27L,OM,TERMINAL,111100,,,,,,253.593,,,-23.40717,-46.38500,0,SB,SBGR,27L,BR
ibd-om-us-ushh,IBD,OM 06,OM,TERMINAL,111900,,,,,,75.358,,,61.01658,68.98900,0,US,USHH,06,RU
ibdm-om-wa-waoo,IBDM,OM 10,OM,TERMINAL,110700,,,,,,101.084,,,-3.42836,114.68725,0,WA,WAOO,10,ID
ibfd-om-k6-kbfd,IBFD,OM 32,OM,TERMINAL,108300,,,,,,313.988,,,41.75419,-78.57428,2185,K6,KBFD,32,US
ibhm-om-k7-kbhm,IBHM,OM 06,OM,TERMINAL,110300,,,,,,55.359,,,33.51150,-86.84563,569,K7,KBHM,06,US
ibi-om-uk-ukbb,IBI,OM 18L,OM,TERMINAL,111300,,,,,,182.683,,,50.39744,30.90911,0,UK,UKBB,18L,UA
ibk-om-un-unkl,IBK,OM 29,OM,TERMINAL,111700,,,,,,293.175,,,56.15156,92.58403,0,UN,UNKL,29,RU
ibkx-om-k3-kbkx,IBKX,OM 12,OM,TERMINAL,111350,,,,,,118.422,,,44.35453,-96.94682,1664,K3,KBKX,12,US
ibl-om-eb-ebbr,IBL,OM 25L,OM,TERMINAL,110350,,,,,,249.901,,,50.92025,4.61642,0,EB,EBBR,25L,BE
iblf-om-k6-kblf,IBLF,OM 23,OM,TERMINAL,109500,,,,,,221.755,,,37.36110,-81.13080,2450,K6,KBLF,23,US
ibmi-om-k5-kbmi,IBMI,OM 29,OM,TERMINAL,110950,,,,,,287.958,,,40.44383,-88.77355,833,K5,KBMI,29,US
ibne-om-k6-kric,IBNE,OM 34,OM,TERMINAL,110700,,,,,,327.575,,,37.43121,-77.25545,135,K6,KRIC,34,US
ibon-om-k7-ktri,IBON,OM 05,OM,TERMINAL,111500,,,,,,42.451,,,36.39858,-82.49617,1561,K7,KTRI,05,US
ibpt-om-k4-kbpt,IBPT,OM 12,OM,TERMINAL,110150,,,,,,121.088,,,29.99634,-94.10639,0,K4,KBPT,12,US
ibr-om-eb-ebbr,IBR,OM 25R,OM,TERMINAL,108900,,,,,,245.396,,,50.93869,4.59247,0,EB,EBBR,25R,BE
ibrd-om-k3-kbrd,IBRD,OM 23,OM,TERMINAL,109900,,,,,,233.457,,,46.45658,-94.02249,1260,K3,KBRD,23,US
ibrl-om-k3-kbrl,IBRL,OM 36,OM,TERMINAL,108900,,,,,,359.547,,,40.65426,-91.12324,579,K3,KBRL,36,US
ibro-om-k4-kbro,IBRO,OM 13,OM,TERMINAL,110300,,,,,,135.561,,,25.98360,-97.50907,29,K4,KBRO,13,US
ibs-om-ui-uibb,IBS,OM 30,OM,TERMINAL,110300,,,,,,294.938,,,56.35022,101.77758,0,UI,UIBB,30,RU
ibsm-om-k4-kaus,IBSM,OM 35L,OM,TERMINAL,110950,,,,,,358.693,,,30.08973,-97.67603,584,K4,KAUS,35L,US
ibtl-om-k5-kbtl,IBTL,OM 23R,OM,TERMINAL,110500,,,,,,222.503,,,42.36199,-85.18441,891,K5,KBTL,23R,US
ibtr-om-k4-kbtr,IBTR,OM 13,OM,TERMINAL,110300,,,,,,133.618,,,30.58290,-91.21104,68,K4,KBTR,13,US
ibtv-om-k6-kbtv,IBTV,OM 15,OM,TERMINAL,110300,,,,,,130.926,,,44.53224,-73.24945,130,K6,KBTV,15,US
ibuf-om-k6-kbuf,IBUF,OM 23,OM,TERMINAL,111300,,,,,,223.846,,,43.00028,-78.65087,630,K6,KBUF,23,US
ibui-om-k7-ktys,IBUI,OM 23R,OM,TERMINAL,111700,,,,,,224.690,,,35.87180,-83.92461,850,K7,KTYS,23R,US
ibul-om-k7-kmia,IBUL,OM 09,OM,TERMINAL,110900,,,,,,87.373,,,25.78315,-80.38427,4,K7,KMIA,09,US
ibur-om-k2-kbur,IBUR,OM 08,OM,TERMINAL,109500,,,,,,90.831,,,34.19961,-118.49109,750,K2,KBUR,08,US
ibuz-om-k5-ktzr,IBUZ,OM 04,OM,TERMINAL,111700,,,,,,32.068,,,39.81914,-83.20482,924,K5,KTZR,04,US
ibvi-om-k6-kbvi,IBVI,OM 10,OM,TERMINAL,109300,,,,,,93.876,,,40.77654,-80.52297,936,K6,KBVI,10,US
ibvo-om-k4-kbvo,IBVO,OM 17,OM,TERMINAL,111300,,,,,,178.870,,,36.83956,-96.01409,889,K4,KBVO,17,US
ibvx-om-k4-kbvx,IBVX,OM 08,OM,TERMINAL,109700,,,,,,79.763,,,35.70321,-91.79771,0,K4,KBVX,08,US
ibw-om-uu-uuee,IBW,OM 24L,OM,TERMINAL,110500,,,,,,255.079,,,55.98472,37.50656,0,UU,UUEE,24L,RU
ibwd-om-k4-kbwd,IBWD,OM 17,OM,TERMINAL,109100,,,,,,179.367,,,31.86336,-98.95473,1556,K4,KBWD,17,US
ibwg-om-k5-kbwg,IBWG,OM 03,OM,TERMINAL,108750,,,,,,29.787,,,36.87997,-86.48164,614,K5,KBWG,03,US
ibx-om-eb-ebbr,IBX,OM 01,OM,TERMINAL,109900,,,,,,14.433,,,50.82686,4.46700,0,EB,EBBR,01,BE
ibx-om-uu-uuob,IBX,OM 29,OM,TERMINAL,110500,,,,,,297.387,,,50.62247,36.65547,0,UU,UUOB,29,RU
iby-om-um-umbb,IBY,OM 29,OM,TERMINAL,110300,,,,,,294.023,,,52.08969,23.96408,0,UM,UMBB,29,BY
ibzf-om-k4-kcsm,IBZF,OM 17R,OM,TERMINAL,109500,,,,,,180.084,,,35.45066,-99.20148,1740,K4,KCSM,17R,US
ibzn-om-k1-kbzn,IBZN,OM 12,OM,TERMINAL,109300,,,,,,135.867,,,45.87181,-111.28574,4218,K1,KBZN,12,US
ibzx-om-k3-kbis,IBZX,OM 13,OM,TERMINAL,111500,,,,,,137.688,,,46.85317,-100.85381,1638,K3,KBIS,13,US
icac-om-k3-kewk,ICAC,OM 17,OM,TERMINAL,111700,,,,,,180.000,,,38.14493,-97.27614,1530,K3,KEWK,17,US
icae-om-k7-kcae,ICAE,OM 11,OM,TERMINAL,110300,,,,,,104.739,,,33.96717,-81.24469,328,K7,KCAE,11,US
icak-om-k5-kcak,ICAK,OM 01,OM,TERMINAL,109500,,,,,,2.468,,,40.84854,-81.44521,1117,K5,KCAK,01,US
icar-om-su-sumu,ICAR,OM 24,OM,TERMINAL,109900,,,,,,233.404,,,-34.78469,-55.94342,0,SU,SUMU,24,UY
icdr-om-k3-kcdr,ICDR,OM 03,OM,TERMINAL,110900,,,,,,34.996,,,42.75518,-103.17470,3511,K3,KCDR,03,US
ices-om-sg-sges,ICES,OM 23,OM,TERMINAL,111300,,,,,,220.628,,,-25.36806,-54.76139,0,SG,SGES,23,PY
icew-om-k7-kcew,ICEW,OM 17,OM,TERMINAL,111900,,,,,,171.036,,,30.85285,-86.53661,261,K7,KCEW,17,US
icg-om-ut-utdk,ICG,OM 01,OM,TERMINAL,108100,,,,,,15.941,,,37.94167,69.79000,2295,UT,UTDK,01,TJ
icg-om-zb-zbtj,ICG,OM 34L,OM,TERMINAL,110500,,,,,,334.551,,,39.04826,117.39363,0,ZB,ZBTJ,34L,CN
icgi-om-k3-kcgi,ICGI,OM 10,OM,TERMINAL,109500,,,,,,105.881,,,37.25338,-89.70061,352,K3,KCGI,10,US
icgr-om-wi-wiii,ICGR,OM 25R,OM,TERMINAL,110900,,,,,,248.152,,,-6.08737,106.72403,0,WI,WIII,25R,ID
icgw-om-k7-kcha,ICGW,OM 02,OM,TERMINAL,108300,,,,,,16.632,,,34.94856,-85.23436,770,K7,KCHA,02,US
ich-om-nz-nzch,ICH,OM 02,OM,TERMINAL,109900,,,,,,39.977,,,-43.56164,172.44799,0,NZ,NZCH,02,NZ
icha-om-k7-kcha,ICHA,OM 20,OM,TERMINAL,109500,,,,,,196.632,,,35.10817,-85.17626,778,K7,KCHA,20,US
ichs-om-k7-kchs,ICHS,OM 15,OM,TERMINAL,109700,,,,,,147.545,,,32.97639,-80.09766,36,K7,KCHS,15,US
iciu-om-k5-kciu,ICIU,OM 16,OM,TERMINAL,110300,,,,,,150.079,,,46.33220,-84.54217,644,K5,KCIU,16,US
icjf-om-k5-kspi,ICJF,OM 31,OM,TERMINAL,110150,,,,,,306.726,,,39.79460,-89.59274,584,K5,KSPI,31,US
ick-om-ei-eikn,ICK,OM 26,OM,TERMINAL,110700,,,,,,258.718,,,53.92397,-8.69981,0,EI,EIKN,26,IE
ickb-om-k6-kckb,ICKB,OM 21,OM,TERMINAL,109300,,,,,,202.747,,,39.38298,-80.18165,1129,K6,KCKB,21,US
ickv-om-k7-kckv,ICKV,OM 35,OM,TERMINAL,111700,,,,,,346.190,,,36.52707,-87.38672,501,K7,KCKV,35,US
icl-om-fw-fwcl,ICL,OM 10,OM,TERMINAL,110300,,,,,,96.831,,,-15.67028,34.89500,2555,FW,FWCL,10,MW
icll-om-k4-kcll,ICLL,OM 35,OM,TERMINAL,110550,,,,,,348.931,,,30.49373,-96.33769,232,K4,KCLL,35,US
iclm-om-k1-kclm,ICLM,OM 08,OM,TERMINAL,108900,,,,,,104.625,,,48.15028,-123.67024,1096,K1,KCLM,08,US
icmi-om-k5-kcmi,ICMI,OM 32R,OM,TERMINAL,109100,,,,,,315.727,,,39.96622,-88.18244,684,K5,KCMI,32R,US
icmx-om-k5-kcmx,ICMX,OM 31,OM,TERMINAL,110300,,,,,,310.962,,,47.11570,-88.40123,611,K5,KCMX,31,US
icn-om-uk-ukln,ICN,OM 15,OM,TERMINAL,109500,,,,,,153.164,,,48.29875,25.94967,0,UK,UKLN,15,UA
icon-om-k6-kcon,ICON,OM 35,OM,TERMINAL,108700,,,,,,335.143,,,43.11883,-71.45270,348,K6,KCON,35,US
icos-om-k2-kcos,ICOS,OM 35L,OM,TERMINAL,109900,,,,,,0.053,,,38.69432,-104.71634,0,K2,KCOS,35L,US
icow-om-ed-edbc,ICOW,OM 26,OM,TERMINAL,108750,,,,,,257.386,,,51.87218,11.53952,0,ED,EDBC,26,DE
icpq-om-k5-klan,ICPQ,OM 10R,OM,TERMINAL,111700,,,,,,90.620,,,42.77870,-84.70277,847,K5,KLAN,10R,US
icps-om-k5-kcps,ICPS,OM 30L,OM,TERMINAL,109100,,,,,,302.333,,,38.51986,-90.05919,551,K5,KCPS,30L,US
icr-om-uk-ukln,ICR,OM 33,OM,TERMINAL,110300,,,,,,333.164,,,48.21269,26.01550,0,UK,UKLN,33,UA
icr-om-uw-uwks,ICR,OM 24,OM,TERMINAL,108300,,,,,,251.808,,,56.10472,47.42514,0,UW,UWKS,24,RU
icsg-om-k7-kcsg,ICSG,OM 06,OM,TERMINAL,110300,,,,,,53.720,,,32.45196,-85.04194,386,K7,KCSG,06,US
icsv-om-k7-kcsv,ICSV,OM 26,OM,TERMINAL,109100,,,,,,253.387,,,35.97819,-84.97471,0,K7,KCSV,26,US
ict-om-sb-sbct,ICT,OM 15,OM,TERMINAL,109300,,,,,,134.697,,,-25.46267,-49.24817,0,SB,SBCT,15,BR
icuc-om-sk-skcc,ICUC,OM 16,OM,TERMINAL,109900,,,,,,148.936,,,8.03444,-72.57583,1089,SK,SKCC,16,CO
icvd-om-k2-kcnm,ICVD,OM 03,OM,TERMINAL,111900,,,,,,44.016,,,32.26679,-104.33851,3831,K2,KCNM,03,US
icvn-om-k2-kcvn,ICVN,OM 04,OM,TERMINAL,108900,,,,,,45.475,,,34.35069,-103.17441,4157,K2,KCVN,04,US
icwf-om-k4-kcwf,ICWF,OM 15,OM,TERMINAL,110700,,,,,,154.541,,,30.30664,-93.19620,23,K4,KCWF,15,US
icxo-om-k4-kcxo,ICXO,OM 14,OM,TERMINAL,108700,,,,,,145.617,,,30.43201,-95.47624,371,K4,KCXO,14,US
iczh-om-k7-kjax,ICZH,OM 14,OM,TERMINAL,110500,,,,,,130.686,,,30.54378,-81.77146,11,K7,KJAX,14,US
ida-om-os-osdi,IDA,OM 23R,OM,TERMINAL,109900,,,,,,228.345,,,33.48755,36.60172,2020,OS,OSDI,23R,SY
idal-om-k4-kdal,IDAL,OM 13L,OM,TERMINAL,111500,,,,,,135.777,,,32.90679,-96.91345,433,K4,KDAL,13L,US
idan-om-k6-kdan,IDAN,OM 02,OM,TERMINAL,110700,,,,,,16.247,,,36.49096,-79.36701,436,K6,KDAN,02,US
idbn-om-k7-kdbn,IDBN,OM 02,OM,TERMINAL,109100,,,,,,16.240,,,32.48384,-83.01098,278,K7,KDBN,02,US
idbq-om-k3-kdbq,IDBQ,OM 31,OM,TERMINAL,108700,,,,,,315.047,,,42.32299,-90.59886,980,K3,KDBQ,31,US
iddv-om-k5-klck,IDDV,OM 05R,OM,TERMINAL,110100,,,,,,45.206,,,39.74295,-83.02030,706,K5,KLCK,05R,US
idec-om-k5-kdec,IDEC,OM 06,OM,TERMINAL,110900,,,,,,59.042,,,39.79053,-88.95382,694,K5,KDEC,06,US
idhn-om-k7-kdhn,IDHN,OM 32,OM,TERMINAL,108300,,,,,,315.095,,,31.25044,-85.36947,312,K7,KDHN,32,US
idk-om-zb-zbaa,IDK,OM 36L,OM,TERMINAL,111700,,,,,,353.111,,,40.03662,116.58007,0,ZB,ZBAA,36L,CN
idkx-om-k7-kdkx,IDKX,OM 26,OM,TERMINAL,111300,,,,,,255.119,,,35.98779,-83.76730,1102,K7,KDKX,26,US
idlh-om-k3-kdlh,IDLH,OM 09,OM,TERMINAL,110300,,,,,,92.296,,,46.84579,-92.35509,1418,K3,KDLH,09,US
idnv-om-k5-kdnv,IDNV,OM 21,OM,TERMINAL,108500,,,,,,209.098,,,40.28962,-87.52984,700,K5,KDNV,21,US
idof-om-k5-karv,IDOF,OM 36,OM,TERMINAL,111700,,,,,,358.926,,,45.83471,-89.73026,1636,K5,KARV,36,US
idp-om-uk-ukdd,IDP,OM 08,OM,TERMINAL,109500,,,,,,90.021,,,48.35714,35.02633,0,UK,UKDD,08,UA
idpa-om-k5-kdpa,IDPA,OM 10,OM,TERMINAL,109500,,,,,,96.047,,,41.92122,-88.37516,821,K5,KDPA,10,US
idr-om-uk-ukdd,IDR,OM 26,OM,TERMINAL,110300,,,,,,270.021,,,48.35744,35.17492,0,UK,UKDD,26,UA
idrt-om-k4-kdrt,IDRT,OM 13,OM,TERMINAL,111900,,,,,,140.375,,,29.44269,-100.99228,1149,K4,KDRT,13,US
idsy-om-k4-ksrc,IDSY,OM 01,OM,TERMINAL,110100,,,,,,12.594,,,35.12251,-91.76161,223,K4,KSRC,01,US
idtn-om-k4-kdtn,IDTN,OM 14,OM,TERMINAL,111700,,,,,,137.946,,,32.60170,-93.80795,209,K4,KDTN,14,US
idto-om-k4-kdto,IDTO,OM 18L,OM,TERMINAL,109100,,,,,,181.053,,,33.28307,-97.19626,739,K4,KDTO,18L,US
iduj-om-k6-kduj,IDUJ,OM 25,OM,TERMINAL,109900,,,,,,242.337,,,41.21993,-78.80206,1714,K6,KDUJ,25,US
idur-om-su-sudu,IDUR,OM 21,OM,TERMINAL,109900,,,,,,203.180,,,-33.27039,-56.45386,0,SU,SUDU,21,UY
idvr-om-k6-kleb,IDVR,OM 18,OM,TERMINAL,111900,,,,,,170.972,,,43.73280,-72.33348,798,K6,KLEB,18,US
idvs-om-k5-kgrr,IDVS,OM 35,OM,TERMINAL,111900,,,,,,351.342,,,42.78656,-85.49704,800,K5,KGRR,35,US
idwe-om-ed-edlw,IDWE,OM 06,OM,TERMINAL,109150,,,,,,60.522,,,51.48269,7.50920,424,ED,EDLW,06,DE
ieen-om-k6-keen,IEEN,OM 02,OM,TERMINAL,108900,,,,,,3.223,,,42.78242,-72.27861,0,K6,KEEN,02,US
ieez-om-k3-kaxn,IEEZ,OM 31,OM,TERMINAL,110500,,,,,,319.399,,,45.79172,-95.30554,1404,K3,KAXN,31,US
ieiu-om-k4-kwdg,IEIU,OM 35,OM,TERMINAL,108300,,,,,,0.017,,,36.27502,-97.79076,1104,K4,KWDG,35,US
iel-om-li-liee,IEL,OM 32,OM,TERMINAL,109500,,,,,,318.091,,,39.21461,9.09717,0,LI,LIEE,32,IT
ield-om-k4-keld,IELD,OM 22,OM,TERMINAL,111100,,,,,,225.799,,,33.28607,-92.72815,140,K4,KELD,22,US
ielp-om-k4-kelp,IELP,OM 22,OM,TERMINAL,111500,,,,,,229.867,,,31.86029,-106.31785,3993,K4,KELP,22,US
ienw-om-k5-kenw,IENW,OM 07L,OM,TERMINAL,109350,,,,,,63.678,,,42.56045,-88.02877,731,K5,KENW,07L,US
ies-om-ym-ymes,IES,OM 22,OM,TERMINAL,109500,,,,,,233.750,,,-38.05782,147.22066,0,YM,YMES,22,AU
iesc-om-k5-kesc,IESC,OM 09,OM,TERMINAL,109300,,,,,,90.905,,,45.72273,-87.22484,696,K5,KESC,09,US
ieti-om-lt-ltad,IETI,OM 11,OM,TERMINAL,110500,,,,,,113.697,,,39.99886,32.54819,0,LT,LTAD,11,TR
ieuy-om-k5-kcey,IEUY,OM 23,OM,TERMINAL,110500,,,,,,229.756,,,36.72065,-88.28997,482,K5,KCEY,23,US
iewn-om-k7-kewn,IEWN,OM 04,OM,TERMINAL,110500,,,,,,30.602,,,35.02159,-77.07949,37,K7,KEWN,04,US
iexw-om-k6-kmrb,IEXW,OM 26,OM,TERMINAL,108300,,,,,,250.580,,,39.43479,-77.86434,487,K6,KMRB,26,US
iffm-om-k3-kffm,IFFM,OM 31,OM,TERMINAL,111500,,,,,,313.310,,,46.21982,-96.05768,1187,K3,KFFM,31,US
ifkp-om-k5-khop,IFKP,OM 23,OM,TERMINAL,111900,,,,,,224.085,,,36.73687,-87.41370,593,K5,KHOP,23,US
ifll-om-li-lirf,IFLL,OM 16L,OM,TERMINAL,108100,,,,,,162.685,,,41.91036,12.23469,0,LI,LIRF,16L,IT
iflo-om-k7-kflo,IFLO,OM 09,OM,TERMINAL,109100,,,,,,83.531,,,34.17424,-79.85254,141,K7,KFLO,09,US
ifmn-om-k2-kfmn,IFMN,OM 25,OM,TERMINAL,111900,,,,,,268.310,,,36.74293,-108.10586,5713,K2,KFMN,25,US
ifmy-om-k7-kfmy,IFMY,OM 05,OM,TERMINAL,110700,,,,,,47.710,,,26.51613,-81.95027,18,K7,KFMY,05,US
ifn-om-nf-nffn,IFN,OM 02,OM,TERMINAL,111900,,,,,,37.619,,,-17.82500,177.38778,0,NF,NFFN,02,FJ
ifn-om-ut-utdd,IFN,OM 09,OM,TERMINAL,110300,,,,,,90.180,,,38.54333,68.75500,0,UT,UTDD,09,TJ
ifnl-om-k2-kfnl,IFNL,OM 33,OM,TERMINAL,109500,,,,,,340.510,,,40.36318,-104.97136,4957,K2,KFNL,33,US
ifno-om-k3-kcwi,IFNO,OM 03,OM,TERMINAL,109700,,,,,,29.563,,,41.75167,-90.39050,633,K3,KCWI,03,US
ifod-om-k3-kfod,IFOD,OM 06,OM,TERMINAL,109100,,,,,,64.935,,,42.51449,-94.30558,1146,K3,KFOD,06,US
ifog-om-k4-kshv,IFOG,OM 32,OM,TERMINAL,110300,,,,,,322.847,,,32.37249,-93.76079,180,K4,KSHV,32,US
ifqj-om-k3-kfrm,IFQJ,OM 31,OM,TERMINAL,111100,,,,,,314.220,,,43.57363,-94.31796,1145,K3,KFRM,31,US
ifrg-om-k6-kfrg,IFRG,OM 14,OM,TERMINAL,111900,,,,,,132.360,,,40.77653,-73.48242,146,K6,KFRG,14,US
ifrr-om-li-lirf,IFRR,OM 16R,OM,TERMINAL,109750,,,,,,162.666,,,41.87958,12.19942,0,LI,LIRF,16R,IT
ifsd-om-k3-kfsd,IFSD,OM 03,OM,TERMINAL,109900,,,,,,34.808,,,43.49411,-96.82881,1532,K3,KFSD,03,US
iftw-om-k4-kftw,IFTW,OM 16,OM,TERMINAL,109900,,,,,,171.942,,,32.89301,-97.37338,746,K4,KFTW,16,US
ifty-om-k7-kfty,IFTY,OM 08,OM,TERMINAL,109100,,,,,,79.633,,,33.76229,-84.63902,882,K7,KFTY,08,US
ifuq-om-k3-kdbq,IFUQ,OM 36,OM,TERMINAL,110900,,,,,,359.946,,,42.30891,-90.71396,1000,K3,KDBQ,36,US
ifzu-om-k3-ksus,IFZU,OM 26L,OM,TERMINAL,111100,,,,,,258.040,,,38.67740,-90.54749,458,K3,KSUS,26L,US
igbd-om-k3-kgbd,IGBD,OM 35,OM,TERMINAL,111900,,,,,,359.589,,,38.25170,-98.85581,1932,K3,KGBD,35,US
igbi-om-k6-kbuf,IGBI,OM 05,OM,TERMINAL,108500,,,,,,43.846,,,42.87389,-78.81658,593,K6,KBUF,05,US
igby-om-k3-kmml,IGBY,OM 12,OM,TERMINAL,109700,,,,,,130.015,,,44.50175,-95.91097,1180,K3,KMML,12,US
igc-om-eb-ebci,IGC,OM 24,OM,TERMINAL,110900,,,,,,245.484,,,50.48944,4.55528,0,EB,EBCI,24,BE
igck-om-k3-kgck,IGCK,OM 35,OM,TERMINAL,109900,,,,,,0.420,,,37.82873,-100.72417,2827,K3,KGCK,35,US
igdl-om-mm-mmgl,IGDL,OM 28,OM,TERMINAL,111300,,,,,,294.163,,,20.46859,-103.17468,0,MM,MMGL,28,MX
igfk-om-k3-kgfk,IGFK,OM 35L,OM,TERMINAL,109100,,,,,,0.026,,,47.84640,-97.18152,861,K3,KGFK,35L,US
igfl-om-k6-kgfl,IGFL,OM 01,OM,TERMINAL,110700,,,,,,358.430,,,43.25512,-73.60576,234,K6,KGFL,01,US
iggg-om-k4-kggg,IGGG,OM 13,OM,TERMINAL,109500,,,,,,133.923,,,32.45558,-94.79759,264,K4,KGGG,13,US
igh-om-sb-sbgr,IGH,OM 09R,OM,TERMINAL,111700,,,,,,73.593,,,-23.46183,-46.57350,0,SB,SBGR,09R,BR
igh-om-um-umms,IGH,OM 31L,OM,TERMINAL,109700,,,,,,318.838,,,53.84364,28.08894,0,UM,UMMS,31L,BY
igjc-om-k7-kcae,IGJC,OM 05,OM,TERMINAL,108950,,,,,,44.531,,,33.85639,-81.20815,493,K7,KCAE,05,US
igk-om-us-usrr,IGK,OM 07,OM,TERMINAL,110500,,,,,,89.641,,,61.34394,73.29881,0,US,USRR,07,RU
igkj-om-k6-kgkj,IGKJ,OM 25,OM,TERMINAL,108500,,,,,,241.135,,,41.67694,-80.09706,1289,K6,KGKJ,25,US
igld-om-k3-kgld,IGLD,OM 30,OM,TERMINAL,108900,,,,,,314.487,,,39.29382,-101.60034,3599,K3,KGLD,30,US
iglh-om-k7-kglh,IGLH,OM 18L,OM,TERMINAL,109100,,,,,,180.000,,,33.57653,-90.98244,120,K7,KGLH,18L,US
iglr-om-k5-kglr,IGLR,OM 09,OM,TERMINAL,111100,,,,,,90.115,,,45.01462,-84.80808,1385,K5,KGLR,09,US
igm-om-ud-udsg,IGM,OM 02,OM,TERMINAL,110300,,,,,,23.543,,,40.70361,43.83247,0,UD,UDSG,02,AM
igm-om-um-umgg,IGM,OM 10,OM,TERMINAL,109300,,,,,,110.845,,,52.54350,30.94517,0,UM,UMGG,10,BY
igmu-om-k7-kgmu,IGMU,OM 01,OM,TERMINAL,109700,,,,,,1.199,,,34.78015,-82.34978,826,K7,KGMU,01,US
igmx-om-k7-kilm,IGMX,OM 24,OM,TERMINAL,111550,,,,,,228.234,,,34.33724,-77.81179,29,K7,KILM,24,US
ignj-om-k5-klex,IGNJ,OM 22,OM,TERMINAL,111750,,,,,,221.454,,,38.12454,-84.50702,912,K5,KLEX,22,US
ignp-om-lt-ltaj,IGNP,OM 28,OM,TERMINAL,109100,,,,,,285.053,,,36.92800,37.57297,0,LT,LTAJ,28,TR
ignv-om-k7-kgnv,IGNV,OM 29,OM,TERMINAL,111300,,,,,,282.348,,,29.67002,-82.17213,114,K7,KGNV,29,US
igo-om-uk-ukkm,IGO,OM 33,OM,TERMINAL,108700,,,,,,334.566,,,50.55806,30.22500,0,UK,UKKM,33,UA
igp-om-um-ummg,IGP,OM 17,OM,TERMINAL,109500,,,,,,178.161,,,53.65028,24.05061,0,UM,UMMG,17,BY
igpt-om-k7-kgpt,IGPT,OM 14,OM,TERMINAL,110900,,,,,,135.070,,,30.48556,-89.16224,84,K7,KGPT,14,US
igpz-om-k3-kgpz,IGPZ,OM 34,OM,TERMINAL,110100,,,,,,345.654,,,47.13031,-93.48133,1310,K3,KGPZ,34,US
igrb-om-k5-kgrb,IGRB,OM 06,OM,TERMINAL,109500,,,,,,59.843,,,44.44046,-88.23963,711,K5,KGRB,06,US
igri-om-k3-kgri,IGRI,OM 35,OM,TERMINAL,111900,,,,,,0.300,,,40.87289,-98.31472,1850,K3,KGRI,35,US
igrr-om-k5-kgrr,IGRR,OM 26L,OM,TERMINAL,109700,,,,,,261.288,,,42.89561,-85.37857,797,K5,KGRR,26L,US
igtr-om-k7-kgtr,IGTR,OM 18,OM,TERMINAL,110700,,,,,,180.471,,,33.53372,-88.59267,0,K7,KGTR,18,US
igup-om-k2-kgup,IGUP,OM 06,OM,TERMINAL,111700,,,,,,73.818,,,35.48511,-108.90106,6362,K2,KGUP,06,US
igv-om-ur-urwa,IGV,OM 09,OM,TERMINAL,110300,,,,,,96.858,,,46.28869,47.94036,0,UR,URWA,09,RU
igvk-om-k5-kdpa,IGVK,OM 02L,OM,TERMINAL,111700,,,,,,13.969,,,41.81077,-88.28348,746,K5,KDPA,02L,US
igvq-om-k6-kgvq,IGVQ,OM 28,OM,TERMINAL,108900,,,,,,270.843,,,43.02903,-78.06502,780,K6,KGVQ,28,US
igwb-om-k5-kgwb,IGWB,OM 27,OM,TERMINAL,108750,,,,,,269.319,,,41.30818,-84.94420,841,K5,KGWB,27,US
igwo-om-k7-kgwo,IGWO,OM 18,OM,TERMINAL,111300,,,,,,181.419,,,33.59202,-90.08439,140,K7,KGWO,18,US
igyi-om-k4-kgyi,IGYI,OM 17L,OM,TERMINAL,111700,,,,,,181.772,,,33.82650,-96.66889,642,K4,KGYI,17L,US
igyy-om-k5-kgyy,IGYY,OM 30,OM,TERMINAL,108750,,,,,,304.275,,,41.57239,-87.32722,0,K5,KGYY,30,US
igzx-om-k5-kpia,IGZX,OM 13,OM,TERMINAL,109900,,,,,,126.624,,,40.72578,-89.80442,695,K5,KPIA,13,US
ihae-om-ed-edfh,IHAE,OM 03,OM,TERMINAL,109300,,,,,,32.408,,,49.88475,7.20021,0,ED,EDFH,03,DE
ihaw-om-ed-edfh,IHAW,OM 21,OM,TERMINAL,111300,,,,,,212.408,,,50.01307,7.32748,0,ED,EDFH,21,DE
ihd-om-ut-utdl,IHD,OM 08,OM,TERMINAL,111500,,,,,,82.169,,,40.20833,69.63667,1450,UT,UTDL,08,TJ
ihe-om-uk-ukoh,IHE,OM 03,OM,TERMINAL,110100,,,,,,32.913,,,46.63750,32.47056,0,UK,UKOH,03,UA
ihg-om-mu-muhg,IHG,OM 05,OM,TERMINAL,111300,,,,,,46.125,,,20.73051,-76.37640,279,MU,MUHG,05,CU
ihhw-om-ed-eddh,IHHW,OM 23,OM,TERMINAL,111500,,,,,,230.213,,,53.67704,10.08300,0,ED,EDDH,23,DE
ihib-om-k3-khib,IHIB,OM 31,OM,TERMINAL,109500,,,,,,312.315,,,47.30139,-92.70382,1311,K3,KHIB,31,US
ihih-om-k7-kgso,IHIH,OM 23L,OM,TERMINAL,109300,,,,,,225.878,,,36.17295,-79.83706,723,K7,KGSO,23L,US
ihky-om-k7-khky,IHKY,OM 24,OM,TERMINAL,108700,,,,,,235.251,,,35.78661,-81.30565,976,K7,KHKY,24,US
ihln-om-k1-khln,IHLN,OM 27,OM,TERMINAL,110100,,,,,,282.754,,,46.58567,-111.85116,3993,K1,KHLN,27,US
ihnl-om-ph-phnl,IHNL,OM 08L,OM,TERMINAL,111700,,,,,,90.007,,,21.32492,-158.04886,42,PH,PHNL,08L,US
ihob-om-k2-khob,IHOB,OM 03,OM,TERMINAL,108500,,,,,,44.977,,,32.63994,-103.27172,3665,K2,KHOB,03,US
ihon-om-k3-khon,IHON,OM 12,OM,TERMINAL,110300,,,,,,128.181,,,44.44389,-98.33684,1315,K3,KHON,12,US
ihot-om-k4-khot,IHOT,OM 05,OM,TERMINAL,111500,,,,,,54.155,,,34.42261,-93.18965,473,K4,KHOT,05,US
ihov-om-k3-kict,IHOV,OM 19R,OM,TERMINAL,110500,,,,,,199.925,,,37.73795,-97.40027,1326,K3,KICT,19R,US
ihpf-om-k4-khdc,IHPF,OM 18,OM,TERMINAL,111500,,,,,,179.521,,,30.60633,-90.42117,94,K4,KHDC,18,US
ihqa-om-k6-kmdt,IHQA,OM 31,OM,TERMINAL,110900,,,,,,296.882,,,40.14706,-76.64166,558,K6,KMDT,31,US
ihrl-om-k4-khrl,IHRL,OM 17R,OM,TERMINAL,111500,,,,,,180.631,,,26.30517,-97.65736,29,K4,KHRL,17R,US
ihsp-om-k6-khsp,IHSP,OM 25,OM,TERMINAL,108700,,,,,,238.723,,,37.98654,-79.75900,2080,K6,KHSP,25,US
ihts-om-k6-khts,IHTS,OM 12,OM,TERMINAL,109900,,,,,,112.464,,,38.39907,-82.65401,755,K6,KHTS,12,US
ihuf-om-k5-khuf,IHUF,OM 05,OM,TERMINAL,109700,,,,,,47.097,,,39.38781,-87.39768,557,K5,KHUF,05,US
ihut-om-k3-khut,IHUT,OM 13,OM,TERMINAL,110100,,,,,,138.405,,,38.12372,-97.92702,1619,K3,KHUT,13,US
ihv-om-ut-utdl,IHV,OM 26,OM,TERMINAL,109900,,,,,,262.170,,,40.22167,69.75833,1450,UT,UTDL,26,TJ
ihvd-om-k5-kfwa,IHVD,OM 05,OM,TERMINAL,111900,,,,,,44.166,,,40.90154,-85.28890,820,K5,KFWA,05,US
ihw-om-nz-nzch,IHW,OM 20,OM,TERMINAL,110300,,,,,,219.977,,,-43.41698,172.61541,0,NZ,NZCH,20,NZ
ihwm-om-k5-kiln,IHWM,OM 04L,OM,TERMINAL,110700,,,,,,37.205,,,39.35344,-83.87579,996,K5,KILN,04L,US
ihwv-om-k6-khwv,IHWV,OM 06,OM,TERMINAL,108950,,,,,,44.895,,,40.76571,-72.94950,35,K6,KHWV,06,US
ihys-om-k3-khys,IHYS,OM 34,OM,TERMINAL,111500,,,,,,347.432,,,38.76923,-99.25128,1978,K3,KHYS,34,US
ihzk-om-k7-katl,IHZK,OM 09L,OM,TERMINAL,110500,,,,,,90.016,,,33.63252,-84.53419,0,K7,KATL,09L,US
iiag-om-k6-kiag,IIAG,OM 28R,OM,TERMINAL,110100,,,,,,270.120,,,43.10903,-78.83839,615,K6,KIAG,28R,US
iict-om-k3-kict,IICT,OM 01R,OM,TERMINAL,110300,,,,,,19.939,,,37.57819,-97.45586,0,K3,KICT,01R,US
iidp-om-k3-kidp,IIDP,OM 35,OM,TERMINAL,110700,,,,,,0.285,,,37.06583,-95.77776,803,K3,KIDP,35,US
iif-om-uk-ukli,IIF,OM 28,OM,TERMINAL,109300,,,,,,284.011,,,48.87167,24.75917,919,UK,UKLI,28,UA
iigw-om-et-etsi,IIGW,OM 25L,OM,TERMINAL,108100,,,,,,248.166,,,48.73783,11.64477,1213,ET,ETSI,25L,DE
iii-om-k5-ksue,III,OM 02,OM,TERMINAL,111900,,,,,,13.000,,,44.75594,-87.44923,697,K5,KSUE,02,US
iikk-om-k5-kikk,IIKK,OM 04,OM,TERMINAL,108700,,,,,,34.201,,,41.01792,-87.90372,669,K5,KIKK,04,US
iile-om-k4-kile,IILE,OM 01,OM,TERMINAL,108300,,,,,,16.718,,,31.02406,-97.70809,853,K4,KILE,01,US
iilg-om-k6-kilg,IILG,OM 01,OM,TERMINAL,110300,,,,,,5.053,,,39.58121,-75.61389,22,K6,KILG,01,US
iilm-om-k7-kilm,IILM,OM 35,OM,TERMINAL,110300,,,,,,339.313,,,34.19134,-77.86631,12,K7,KILM,35,US
iiln-om-k5-kiln,IILN,OM 22R,OM,TERMINAL,110700,,,,,,217.205,,,39.49303,-83.73818,1050,K5,KILN,22R,US
iimo-om-k7-kavl,IIMO,OM 17,OM,TERMINAL,110900,,,,,,159.910,,,35.53278,-82.58745,2124,K7,KAVL,17,US
iinl-om-k3-kinl,IINL,OM 31,OM,TERMINAL,111950,,,,,,315.998,,,48.48135,-93.27807,1120,K3,KINL,31,US
iint-om-k7-kint,IINT,OM 33,OM,TERMINAL,110300,,,,,,324.756,,,36.07094,-80.16683,864,K7,KINT,33,US
iiso-om-k7-kiso,IISO,OM 05,OM,TERMINAL,111300,,,,,,40.983,,,35.24388,-77.69839,44,K7,KISO,05,US
iith-om-k6-kith,IITH,OM 32,OM,TERMINAL,108700,,,,,,312.618,,,42.43006,-76.36796,1497,K6,KITH,32,US
iiv-om-uk-ukli,IIV,OM 10,OM,TERMINAL,108700,,,,,,104.011,,,48.89528,24.61500,919,UK,UKLI,10,UA
iivi-om-k2-kryn,IIVI,OM 06R,OM,TERMINAL,111100,,,,,,70.245,,,32.10778,-111.28268,2458,K2,KRYN,06R,US
iiwd-om-k5-kiwd,IIWD,OM 27,OM,TERMINAL,111500,,,,,,270.215,,,46.52734,-90.04162,1272,K5,KIWD,27,US
iiwt-om-hl-hllt,IIWT,OM 27,OM,TERMINAL,109500,,,,,,269.001,,,32.66500,13.24750,263,HL,HLLT,27,LY
iizr-om-k4-ksat,IIZR,OM 31L,OM,TERMINAL,110900,,,,,,311.760,,,29.46844,-98.38864,694,K4,KSAT,31L,US
ijan-om-k7-kjan,IJAN,OM 16L,OM,TERMINAL,110500,,,,,,158.083,,,32.41250,-90.11954,330,K7,KJAN,16L,US
ijax-om-k7-kjax,IJAX,OM 08,OM,TERMINAL,110700,,,,,,70.465,,,30.46508,-81.80142,18,K7,KJAX,08,US
ijbd-om-k7-klbt,IJBD,OM 05,OM,TERMINAL,108950,,,,,,44.994,,,34.54582,-79.13851,135,K7,KLBT,05,US
ijbr-om-k4-kjbr,IJBR,OM 23,OM,TERMINAL,110150,,,,,,230.103,,,35.90032,-90.54627,246,K4,KJBR,23,US
ijdl-om-pa-pajn,IJDL,OM 08,OM,TERMINAL,109900,,,,,,90.403,,,58.35932,-134.69945,58,PA,PAJN,08,US
ijdu-om-k5-kblv,IJDU,OM 32R,OM,TERMINAL,111150,,,,,,316.686,,,38.47797,-89.73787,421,K5,KBLV,32R,US
ijef-om-k3-kjef,IJEF,OM 30,OM,TERMINAL,110500,,,,,,302.641,,,38.54799,-92.07170,584,K3,KJEF,30,US
ijh-om-us-usnn,IJH,OM 03,OM,TERMINAL,110500,,,,,,42.195,,,60.91244,76.41314,0,US,USNN,03,RU
ijhf-om-k7-khks,IJHF,OM 16,OM,TERMINAL,111700,,,,,,158.829,,,32.41303,-90.26128,314,K7,KHKS,16,US
ijln-om-k3-kjln,IJLN,OM 13,OM,TERMINAL,110300,,,,,,138.103,,,37.20315,-94.55855,912,K3,KJLN,13,US
ijnk-om-k5-kmie,IJNK,OM 32,OM,TERMINAL,109100,,,,,,316.221,,,40.18086,-85.32092,978,K5,KMIE,32,US
ijog-om-wa-wahh,IJOG,OM 09,OM,TERMINAL,109100,,,,,,88.122,,,-7.79917,110.30944,0,WA,WAHH,09,ID
ijou-om-k3-kfsd,IJOU,OM 21,OM,TERMINAL,111100,,,,,,214.808,,,43.65925,-96.67043,1447,K3,KFSD,21,US
ijp-om-ut-utsk,IJP,OM 16,OM,TERMINAL,109100,,,,,,163.983,,,38.84881,65.75622,0,UT,UTSK,16,UZ
ijs-om-zb-zbtj,IJS,OM 16R,OM,TERMINAL,110900,,,,,,154.551,,,39.17382,117.31541,0,ZB,ZBTJ,16R,CN
ijud-om-k3-kdlh,IJUD,OM 27,OM,TERMINAL,108700,,,,,,272.296,,,46.83758,-92.05409,1090,K3,KDLH,27,US
ijvl-om-k5-kjvl,IJVL,OM 04,OM,TERMINAL,109100,,,,,,41.428,,,42.54103,-89.13424,790,K5,KJVL,04,US
ijvy-om-k5-kjvy,IJVY,OM 18,OM,TERMINAL,111700,,,,,,179.974,,,38.47396,-85.73722,528,K5,KJVY,18,US
ijxn-om-k5-kjxn,IJXN,OM 25,OM,TERMINAL,109100,,,,,,247.158,,,42.31783,-84.36556,914,K5,KJXN,25,US
ijzm-om-k3-klwc,IJZM,OM 33,OM,TERMINAL,108900,,,,,,333.566,,,38.91365,-95.15375,856,K3,KLWC,33,US
ijzw-om-k4-kfws,IJZW,OM 35L,OM,TERMINAL,110950,,,,,,0.106,,,32.47644,-97.31057,760,K4,KFWS,35L,US
ikb-om-uk-ukbb,IKB,OM 18R,OM,TERMINAL,108900,,,,,,182.645,,,50.38639,30.88408,0,UK,UKBB,18R,UA
ikbe-om-ed-edsb,IKBE,OM 03,OM,TERMINAL,109950,,,,,,31.703,,,48.71337,8.01849,0,ED,EDSB,03,DE
ikbw-om-ed-edsb,IKBW,OM 21,OM,TERMINAL,108750,,,,,,211.702,,,48.84207,8.13958,0,ED,EDSB,21,DE
ikc-om-op-opkc,IKC,OM 25R,OM,TERMINAL,110100,,,,,,254.417,,,24.92986,67.24713,0,OP,OPKC,25R,PK
ike-om-uk-ukbb,IKE,OM 36L,OM,TERMINAL,110500,,,,,,2.645,,,50.28286,30.87658,0,UK,UKBB,36L,UA
ikes-om-ed-eddk,IKES,OM 14L,OM,TERMINAL,110900,,,,,,137.577,,,50.92699,7.06215,0,ED,EDDK,14L,DE
ikg-om-us-usrk,IKG,OM 17,OM,TERMINAL,108500,,,,,,189.937,,,62.24675,74.55481,0,US,USRK,17,RU
ikhe-om-ed-edhk,IKHE,OM 08,OM,TERMINAL,109500,,,,,,84.820,,,54.37203,10.03196,99,ED,EDHK,08,DE
ikhw-om-ed-edhk,IKHW,OM 26,OM,TERMINAL,109500,,,,,,262.408,,,54.38754,10.25909,89,ED,EDHK,26,DE
ikm-om-ul-ulaa,IKM,OM 26,OM,TERMINAL,111700,,,,,,276.517,,,64.59461,40.83328,0,UL,ULAA,26,RU
ikp-om-sb-sbkp,IKP,OM 15,OM,TERMINAL,110300,,,,,,127.908,,,-22.95747,-47.20417,0,SB,SBKP,15,BR
ikps-om-vt-vtbk,IKPS,OM 21,OM,TERMINAL,109900,,,,,,209.402,,,14.17040,99.95681,32,VT,VTBK,21,TH
ikr-om-ld-ldri,IKR,OM 14,OM,TERMINAL,108500,,,,,,143.783,,,45.33465,14.44682,0,LD,LDRI,14,HR
ikr-om-um-umkk,IKR,OM 24,OM,TERMINAL,109500,,,,,,245.770,,,54.91453,20.68711,0,UM,UMKK,24,RU
iks-om-us-uscc,IKS,OM 27,OM,TERMINAL,108700,,,,,,283.649,,,55.29425,61.58706,0,US,USCC,27,RU
ikt-om-ur-urmt,IKT,OM 25,OM,TERMINAL,110700,,,,,,255.646,,,45.12156,42.18064,0,UR,URMT,25,RU
il-om-ef-efsi,IL,OM 32,OM,TERMINAL,111500,,,,,,316.239,,,62.64211,22.93667,0,EF,EFSI,32,FI
ila-om-uw-uwks,ILA,OM 06,OM,TERMINAL,110300,,,,,,71.808,,,56.07381,47.25686,0,UW,UWKS,06,RU
ilaf-om-k5-klaf,ILAF,OM 10,OM,TERMINAL,110300,,,,,,99.138,,,40.42643,-87.05193,677,K5,KLAF,10,US
ilak-om-eg-egul,ILAK,OM 06,OM,TERMINAL,109900,,,,,,55.630,,,52.34965,0.41827,0,EG,EGUL,06,GB
ilaw-om-k4-klaw,ILAW,OM 35,OM,TERMINAL,109100,,,,,,356.932,,,34.49422,-98.41241,1103,K4,KLAW,35,US
ilb-om-lp-lppt,ILB,OM 21,OM,TERMINAL,109500,,,,,,202.645,,,38.85331,-9.09739,374,LP,LPPT,21,PT
ilb-om-us-uscc,ILB,OM 09,OM,TERMINAL,109900,,,,,,103.649,,,55.31744,61.42000,0,US,USCC,09,RU
ilbe-om-k6-klbe,ILBE,OM 24,OM,TERMINAL,110900,,,,,,225.668,,,40.32727,-79.33504,1187,K6,KLBE,24,US
ilbf-om-k3-klbf,ILBF,OM 30,OM,TERMINAL,111500,,,,,,306.009,,,41.06828,-100.57256,2724,K3,KLBF,30,US
ilbl-om-k3-klbl,ILBL,OM 35,OM,TERMINAL,111300,,,,,,359.896,,,36.96456,-100.95628,2845,K3,KLBL,35,US
ilc-om-uk-ukkm,ILC,OM 15,OM,TERMINAL,111900,,,,,,154.566,,,50.65083,30.15583,0,UK,UKKM,15,UA
ilci-om-k6-klci,ILCI,OM 08,OM,TERMINAL,108500,,,,,,67.479,,,43.53665,-71.53703,762,K6,KLCI,08,US
ilck-om-k5-klck,ILCK,OM 23L,OM,TERMINAL,110100,,,,,,225.206,,,39.88105,-82.83604,764,K5,KLCK,23L,US
ildt-om-k4-klbb,ILDT,OM 26,OM,TERMINAL,111900,,,,,,269.673,,,33.66269,-101.72311,3198,K4,KLBB,26,US
ilew-om-k6-klew,ILEW,OM 04,OM,TERMINAL,108900,,,,,,24.313,,,43.96226,-70.33795,310,K6,KLEW,04,US
ilex-om-k5-klex,ILEX,OM 04,OM,TERMINAL,110100,,,,,,41.453,,,37.98689,-84.66013,930,K5,KLEX,04,US
ilfk-om-k4-klfk,ILFK,OM 07,OM,TERMINAL,111300,,,,,,75.180,,,31.21885,-94.82497,204,K4,KLFK,07,US
ilft-om-k4-klft,ILFT,OM 22L,OM,TERMINAL,109500,,,,,,218.619,,,30.28927,-91.90795,21,K4,KLFT,22L,US
ilg-om-eb-eblg,ILG,OM 22L,OM,TERMINAL,109350,,,,,,225.176,,,50.70111,5.54917,0,EB,EBLG,22L,BE
ilhj-om-k5-kbmi,ILHJ,OM 20,OM,TERMINAL,111900,,,,,,197.846,,,40.56035,-88.87463,772,K5,KBMI,20,US
ili-om-lp-lppt,ILI,OM 03,OM,TERMINAL,109100,,,,,,22.645,,,38.70231,-9.17869,331,LP,LPPT,03,PT
ilit-om-k4-klit,ILIT,OM 04L,OM,TERMINAL,110300,,,,,,46.385,,,34.66900,-92.30549,247,K4,KLIT,04L,US
ilkh-om-eg-egul,ILKH,OM 24,OM,TERMINAL,109900,,,,,,235.630,,,52.45170,0.66254,0,EG,EGUL,24,GB
ilks-om-k5-ksdf,ILKS,OM 29,OM,TERMINAL,109100,,,,,,291.213,,,38.14484,-85.63330,613,K5,KSDF,29,US
ill-om-zy-zyhb,ILL,OM 05,OM,TERMINAL,110300,,,,,,39.353,,,45.55289,126.16872,0,ZY,ZYHB,05,CN
ilm-om-fx-fxmm,ILM,OM 22,OM,TERMINAL,108900,,,,,,195.188,,,-29.34313,27.58963,0,FX,FXMM,22,LS
ilnk-om-k3-klnk,ILNK,OM 36,OM,TERMINAL,109900,,,,,,0.282,,,40.74716,-96.76243,1255,K3,KLNK,36,US
ilnt-om-li-liml,ILNT,OM 36,OM,TERMINAL,109550,,,,,,355.677,,,45.34406,9.28831,337,LI,LIML,36,IT
ilow-om-k1-kwys,ILOW,OM 01,OM,TERMINAL,110700,,,,,,26.184,,,44.57541,-111.19757,0,K1,KWYS,01,US
ilpa-om-k3-kmhe,ILPA,OM 31,OM,TERMINAL,109700,,,,,,314.521,,,43.70222,-97.94114,1322,K3,KMHE,31,US
ilqg-om-k5-klpr,ILQG,OM 07,OM,TERMINAL,111700,,,,,,64.937,,,41.30975,-82.27349,825,K5,KLPR,07,US
ilqy-om-k5-kspi,ILQY,OM 22,OM,TERMINAL,111700,,,,,,221.517,,,39.91074,-89.60121,581,K5,KSPI,22,US
ilse-om-k5-klse,ILSE,OM 18,OM,TERMINAL,111100,,,,,,179.451,,,44.00396,-91.26067,861,K5,KLSE,18,US
ilsf-om-k7-klsf,ILSF,OM 33,OM,TERMINAL,110700,,,,,,324.832,,,32.26377,-84.93090,0,K7,KLSF,33,US
iluw-om-ed-edhl,ILUW,OM 25,OM,TERMINAL,111700,,,,,,251.966,,,53.82634,10.83173,0,ED,EDHL,25,DE
ilvn-om-k3-klvn,ILVN,OM 30,OM,TERMINAL,108900,,,,,,297.523,,,44.58700,-93.11666,960,K3,KLVN,30,US
ilwb-om-k6-klwb,ILWB,OM 04,OM,TERMINAL,110350,,,,,,37.173,,,37.78225,-80.46851,2163,K6,KLWB,04,US
ilyh-om-k6-klyh,ILYH,OM 04,OM,TERMINAL,110100,,,,,,27.708,,,37.26247,-79.24321,809,K6,KLYH,04,US
imaf-om-k4-kmaf,IMAF,OM 10,OM,TERMINAL,110300,,,,,,113.695,,,31.98801,-102.32506,2955,K4,KMAF,10,US
imay-om-k5-kcad,IMAY,OM 07,OM,TERMINAL,108550,,,,,,66.304,,,44.23707,-85.54735,1309,K5,KCAD,07,US
imbl-om-k5-kmbl,IMBL,OM 28,OM,TERMINAL,108350,,,,,,271.447,,,44.27075,-86.14275,677,K5,KMBL,28,US
imbs-om-k5-kmbs,IMBS,OM 05,OM,TERMINAL,108700,,,,,,45.529,,,43.46150,-84.17983,625,K5,KMBS,05,US
imcb-om-k7-kmcb,IMCB,OM 16,OM,TERMINAL,109100,,,,,,155.748,,,31.25451,-90.51042,447,K7,KMCB,16,US
imcw-om-k3-kmcw,IMCW,OM 36,OM,TERMINAL,109500,,,,,,359.915,,,43.05262,-93.32776,1175,K3,KMCW,36,US
imdh-om-k5-kmdh,IMDH,OM 18L,OM,TERMINAL,110900,,,,,,181.218,,,37.87011,-89.24554,409,K5,KMDH,18L,US
imdn-om-wi-wimk,IMDN,OM 05,OM,TERMINAL,110100,,,,,,46.280,,,3.50081,98.61235,0,WI,WIMK,05,ID
imdt-om-k6-kmdt,IMDT,OM 13,OM,TERMINAL,110900,,,,,,116.882,,,40.24638,-76.90064,462,K6,KMDT,13,US
imeb-om-k7-kmeb,IMEB,OM 05,OM,TERMINAL,110700,,,,,,45.687,,,34.73315,-79.44377,212,K7,KMEB,05,US
imen-om-lt-ltbj,IMEN,OM 34R,OM,TERMINAL,110300,,,,,,346.660,,,38.19761,27.18561,0,LT,LTBJ,34R,TR
imfd-om-k5-kmfd,IMFD,OM 32,OM,TERMINAL,110500,,,,,,317.063,,,40.76608,-82.44499,1313,K5,KMFD,32,US
imfe-om-k4-kmfe,IMFE,OM 14,OM,TERMINAL,111700,,,,,,140.726,,,26.25385,-98.31038,160,K4,KMFE,14,US
imgm-om-k7-kmgm,IMGM,OM 10,OM,TERMINAL,109900,,,,,,96.050,,,32.31161,-86.51063,240,K7,KMGM,10,US
imgw-om-k6-kmgw,IMGW,OM 18,OM,TERMINAL,108500,,,,,,172.422,,,39.72729,-79.93213,1103,K6,KMGW,18,US
imhw-om-et-etnh,IMHW,OM 26,OM,TERMINAL,108900,,,,,,259.417,,,54.32651,9.67029,59,ET,ETNH,26,DE
imid-om-mm-mmmd,IMID,OM 10,OM,TERMINAL,111700,,,,,,105.384,,,20.95194,-89.72694,0,MM,MMMD,10,MX
imiv-om-k6-kmiv,IMIV,OM 10,OM,TERMINAL,110900,,,,,,90.036,,,39.36701,-75.19797,66,K6,KMIV,10,US
imje-om-k6-kmht,IMJE,OM 06,OM,TERMINAL,109950,,,,,,42.325,,,42.86421,-71.52879,233,K6,KMHT,06,US
imjx-om-k6-kmjx,IMJX,OM 06,OM,TERMINAL,109900,,,,,,49.757,,,39.87319,-74.37594,146,K6,KMJX,06,US
imkl-om-k7-kmkl,IMKL,OM 02,OM,TERMINAL,109100,,,,,,22.149,,,35.51579,-88.95696,0,K7,KMKL,02,US
imkt-om-k3-kmkt,IMKT,OM 33,OM,TERMINAL,108700,,,,,,334.646,,,44.15265,-93.87136,1018,K3,KMKT,33,US
imlu-om-k4-kmlu,IMLU,OM 04,OM,TERMINAL,109500,,,,,,44.907,,,32.45412,-92.10432,0,K4,KMLU,04,US
imqj-om-k5-kmqj,IMQJ,OM 25,OM,TERMINAL,108700,,,,,,249.949,,,39.87355,-85.78136,907,K5,KMQJ,25,US
imqk-om-k5-kyng,IMQK,OM 14,OM,TERMINAL,110100,,,,,,135.077,,,41.33189,-80.77408,926,K5,KYNG,14,US
imqs-om-k6-kmqs,IMQS,OM 29,OM,TERMINAL,108500,,,,,,281.685,,,39.96054,-75.75051,535,K6,KMQS,29,US
imr-om-ut-utam,IMR,OM 36R,OM,TERMINAL,109700,,,,,,358.488,,,37.57139,61.89917,0,UT,UTAM,36R,TM
imr-om-uu-uuee,IMR,OM 06C,OM,TERMINAL,108100,,,,,,75.074,,,55.95972,37.32258,0,UU,UUEE,06C,RU
imry-om-k2-kmry,IMRY,OM 10R,OM,TERMINAL,110700,,,,,,112.848,,,36.62076,-121.93864,52,K2,KMRY,10R,US
imss-om-k6-kmss,IMSS,OM 05,OM,TERMINAL,108700,,,,,,31.142,,,44.85408,-74.91580,245,K6,KMSS,05,US
imsv-om-k6-kmsv,IMSV,OM 15,OM,TERMINAL,109100,,,,,,143.045,,,41.76667,-74.86071,1387,K6,KMSV,15,US
imto-om-k5-kmto,IMTO,OM 29,OM,TERMINAL,111100,,,,,,293.005,,,39.44244,-88.17346,578,K5,KMTO,29,US
imtw-om-k5-kmtw,IMTW,OM 17,OM,TERMINAL,111300,,,,,,170.014,,,44.19965,-87.70227,673,K5,KMTW,17,US
imv-om-um-umgg,IMV,OM 28,OM,TERMINAL,108700,,,,,,290.845,,,52.51231,31.08006,0,UM,UMGG,28,BY
imwa-om-k5-kmwa,IMWA,OM 20,OM,TERMINAL,109300,,,,,,202.575,,,37.83916,-88.97076,390,K5,KMWA,20,US
imwd-om-k6-kroc,IMWD,OM 22,OM,TERMINAL,110700,,,,,,211.558,,,43.20551,-77.60541,405,K6,KROC,22,US
imwh-om-k1-kmwh,IMWH,OM 32R,OM,TERMINAL,109500,,,,,,342.187,,,47.11539,-119.27487,1137,K1,KMWH,32R,US
imwo-om-k5-kmwo,IMWO,OM 23,OM,TERMINAL,111100,,,,,,229.333,,,39.57825,-84.32349,684,K5,KMWO,23,US
imxk-om-k6-kadw,IMXK,OM 19R,OM,TERMINAL,111500,,,,,,179.859,,,38.91961,-76.87122,74,K6,KADW,19R,US
imzr-om-k4-kmlu,IMZR,OM 22,OM,TERMINAL,109500,,,,,,224.907,,,32.57549,-91.96221,65,K4,KMLU,22,US
ina-om-ug-ugtb,INA,OM 31L,OM,TERMINAL,108900,,,,,,316.664,,,41.63269,44.99708,0,UG,UGTB,31L,GE
ina-om-ym-ysnw,INA,OM 21,OM,TERMINAL,108500,,,,,,224.251,,,-34.86530,150.63575,0,YM,YSNW,21,AU
inc-om-un-unee,INC,OM 23,OM,TERMINAL,109100,,,,,,233.533,,,55.29982,86.17831,0,UN,UNEE,23,RU
inf-om-ur-urmn,INF,OM 24,OM,TERMINAL,111500,,,,,,242.764,,,43.53358,43.69219,0,UR,URMN,24,RU
iniw-om-ed-edlv,INIW,OM 27,OM,TERMINAL,110700,,,,,,272.052,,,51.59960,6.26632,106,ED,EDLV,27,DE
ink-om-uw-uwke,INK,OM 21,OM,TERMINAL,109900,,,,,,226.954,,,55.59803,52.15619,0,UW,UWKE,21,RU
inl-om-uu-uuee,INL,OM 06R,OM,TERMINAL,109100,,,,,,75.079,,,55.95828,37.32778,0,UU,UUEE,06R,RU
ino-om-uk-ukbb,INO,OM 36R,OM,TERMINAL,109700,,,,,,2.683,,,50.28747,30.90106,0,UK,UKBB,36R,UA
ino-om-ut-utst,INO,OM 25,OM,TERMINAL,110300,,,,,,254.107,,,37.29947,67.36408,0,UT,UTST,25,UZ
inow-om-et-etmn,INOW,OM 26,OM,TERMINAL,111750,,,,,,258.512,,,53.78522,8.80657,0,ET,ETMN,26,DE
inpl-om-li-lirn,INPL,OM 24,OM,TERMINAL,109500,,,,,,238.053,,,40.92847,14.38317,0,LI,LIRN,24,IT
inr-om-gm-gmmn,INR,OM 35R,OM,TERMINAL,109900,,,,,,344.036,,,33.27348,-7.55551,0,GM,GMMN,35R,MA
inu-om-ut-utnu,INU,OM 31,OM,TERMINAL,109500,,,,,,319.646,,,41.54517,60.68622,0,UT,UTNU,31,UZ
inu-om-uu-uubp,INU,OM 34,OM,TERMINAL,109900,,,,,,351.378,,,53.16922,34.18642,0,UU,UUBP,34,RU
inv-om-es-esnv,INV,OM 28,OM,TERMINAL,109900,,,,,,283.158,,,64.56019,17.03219,0,ES,ESNV,28,SE
inz-om-us-usnn,INZ,OM 21,OM,TERMINAL,111900,,,,,,222.195,,,60.98653,76.55208,0,US,USNN,21,RU
ioaj-om-k7-koaj,IOAJ,OM 05,OM,TERMINAL,108700,,,,,,44.274,,,34.75051,-77.70443,76,K7,KOAJ,05,US
iocz-om-k3-klnk,IOCZ,OM 18,OM,TERMINAL,111100,,,,,,180.282,,,40.94490,-96.76165,1255,K3,KLNK,18,US
iod-om-uk-ukoo,IOD,OM 16,OM,TERMINAL,108300,,,,,,163.432,,,46.47389,30.65611,0,UK,UKOO,16,UA
ioe-om-uk-ukoo,IOE,OM 34,OM,TERMINAL,110300,,,,,,343.432,,,46.38000,30.69667,0,UK,UKOO,34,UA
iofk-om-k3-kofk,IOFK,OM 02,OM,TERMINAL,111500,,,,,,19.336,,,41.88763,-97.48026,1719,K3,KOFK,02,US
iogs-om-k6-kogs,IOGS,OM 27,OM,TERMINAL,110700,,,,,,255.969,,,44.70151,-75.35295,358,K6,KOGS,27,US
ioiq-om-k3-ksux,IOIQ,OM 13,OM,TERMINAL,111300,,,,,,135.798,,,42.46016,-96.46221,1105,K3,KSUX,13,US
iok-om-yb-ybok,IOK,OM 14,OM,TERMINAL,110500,,,,,,145.242,,,-27.35056,151.69639,1334,YB,YBOK,14,AU
iokm-om-k4-kokm,IOKM,OM 18,OM,TERMINAL,109100,,,,,,180.174,,,35.75525,-95.94876,734,K4,KOKM,18,US
iol-om-us-usrk,IOL,OM 35,OM,TERMINAL,109500,,,,,,9.937,,,62.14578,74.51797,0,US,USRK,35,RU
iole-om-k6-kole,IOLE,OM 22,OM,TERMINAL,109300,,,,,,212.106,,,42.31180,-78.31059,1604,K6,KOLE,22,US
ionp-om-k1-konp,IONP,OM 16,OM,TERMINAL,111500,,,,,,177.332,,,44.67601,-124.06512,339,K1,KONP,16,US
iop-om-ur-urmt,IOP,OM 07,OM,TERMINAL,110500,,,,,,75.646,,,45.09767,42.04867,0,UR,URMT,07,RU
iopf-om-k7-kopf,IOPF,OM 09L,OM,TERMINAL,110500,,,,,,86.929,,,25.90693,-80.38866,3,K7,KOPF,09L,US
iopn-om-k7-kopn,IOPN,OM 30,OM,TERMINAL,109750,,,,,,297.873,,,32.91904,-84.18741,691,K7,KOPN,30,US
ior-om-uw-uwor,IOR,OM 25,OM,TERMINAL,108100,,,,,,256.706,,,51.08333,58.66875,0,UW,UWOR,25,RU
ior-om-zb-zbaa,IOR,OM 18L,OM,TERMINAL,109300,,,,,,173.140,,,40.12208,116.58960,0,ZB,ZBAA,18L,CN
iorf-om-k6-korf,IORF,OM 05,OM,TERMINAL,109100,,,,,,37.676,,,36.84047,-76.25122,4,K6,KORF,05,US
ios-om-eb-ebos,IOS,OM 26,OM,TERMINAL,109500,,,,,,256.519,,,51.22036,3.01181,0,EB,EBOS,26,BE
iosh-om-k5-kosh,IOSH,OM 36,OM,TERMINAL,110500,,,,,,0.543,,,43.87379,-88.55764,852,K5,KOSH,36,US
iosu-om-k5-kosu,IOSU,OM 09R,OM,TERMINAL,108500,,,,,,87.073,,,40.07368,-83.19809,942,K5,KOSU,09R,US
iotg-om-k3-kotg,IOTG,OM 29,OM,TERMINAL,111700,,,,,,294.813,,,43.61738,-95.46407,1511,K3,KOTG,29,US
iou-om-uc-ucfo,IOU,OM 12,OM,TERMINAL,111100,,,,,,125.721,,,40.63675,72.74198,0,UC,UCFO,12,UZ
ioup-om-k5-kekm,IOUP,OM 27,OM,TERMINAL,111500,,,,,,269.900,,,41.72169,-85.90199,772,K5,KEKM,27,US
iowa-om-k3-kowa,IOWA,OM 30,OM,TERMINAL,109550,,,,,,304.092,,,44.07383,-93.15528,1226,K3,KOWA,30,US
iowd-om-k6-kowd,IOWD,OM 35,OM,TERMINAL,108300,,,,,,334.853,,,42.11976,-71.12842,181,K6,KOWD,35,US
ioxr-om-k2-koxr,IOXR,OM 25,OM,TERMINAL,108700,,,,,,270.523,,,34.19955,-119.10057,49,K2,KOXR,25,US
ipah-om-k5-kpah,IPAH,OM 04,OM,TERMINAL,108500,,,,,,43.577,,,37.00861,-88.83666,476,K5,KPAH,04,US
ipas-om-sk-skcl,IPAS,OM 02,OM,TERMINAL,109900,,,,,,9.932,,,3.39803,-76.40670,0,SK,SKCL,02,CO
ipaw-om-ed-edop,IPAW,OM 24,OM,TERMINAL,109500,,,,,,244.997,,,53.46122,11.90683,166,ED,EDOP,24,DE
ipbf-om-k4-kpbf,IPBF,OM 18,OM,TERMINAL,111700,,,,,,179.800,,,34.26262,-91.93494,215,K4,KPBF,18,US
ipc-om-ym-ypea,IPC,OM 36R,OM,TERMINAL,111900,,,,,,353.538,,,-31.77333,116.02806,0,YM,YPEA,36R,AU
ipd-om-lb-lbpd,IPD,OM 30,OM,TERMINAL,109900,,,,,,307.348,,,42.03861,24.90253,0,LB,LBPD,30,BG
ipe-om-ym-ypea,IPE,OM 18L,OM,TERMINAL,110700,,,,,,173.538,,,-31.57750,116.00194,0,YM,YPEA,18L,AU
ipek-om-k7-kjax,IPEK,OM 26,OM,TERMINAL,110300,,,,,,250.465,,,30.52814,-81.59444,20,K7,KJAX,26,US
ipf-om-ul-ulmm,IPF,OM 13,OM,TERMINAL,110300,,,,,,146.221,,,68.82369,32.67361,0,UL,ULMM,13,RU
iphn-om-k5-kphn,IPHN,OM 04,OM,TERMINAL,110900,,,,,,36.042,,,42.84292,-82.59669,635,K5,KPHN,04,US
iphy-om-k4-koun,IPHY,OM 03,OM,TERMINAL,111100,,,,,,36.095,,,35.17524,-97.53015,1190,K4,KOUN,03,US
ipi-om-li-lirp,IPI,OM 04R,OM,TERMINAL,109700,,,,,,36.733,,,43.58928,10.29678,0,LI,LIRP,04R,IT
ipia-om-k5-kpia,IPIA,OM 31,OM,TERMINAL,109900,,,,,,306.624,,,40.60568,-89.59324,601,K5,KPIA,31,US
ipib-om-k7-kpib,IPIB,OM 18,OM,TERMINAL,109500,,,,,,179.939,,,31.55886,-89.33798,260,K7,KPIB,18,US
ipie-om-k7-kpie,IPIE,OM 18,OM,TERMINAL,109100,,,,,,171.355,,,27.99511,-82.70384,24,K7,KPIE,18,US
ipih-om-k1-kpih,IPIH,OM 21,OM,TERMINAL,110300,,,,,,224.878,,,42.96374,-112.51638,4462,K1,KPIH,21,US
ipkb-om-k6-kpkb,IPKB,OM 03,OM,TERMINAL,110700,,,,,,19.906,,,39.25407,-81.48494,811,K6,KPKB,03,US
ipkd-om-k3-kpkd,IPKD,OM 31,OM,TERMINAL,110900,,,,,,315.162,,,46.83404,-94.97556,1413,K3,KPKD,31,US
ipkx-om-k3-kojc,IPKX,OM 36,OM,TERMINAL,108300,,,,,,0.132,,,38.75315,-94.73685,1102,K3,KOJC,36,US
iplb-om-wi-wipp,IPLB,OM 29,OM,TERMINAL,110500,,,,,,292.845,,,-2.92800,104.77056,0,WI,WIPP,29,ID
iplq-om-k7-ktlh,IPLQ,OM 27,OM,TERMINAL,111900,,,,,,269.483,,,30.39142,-84.23568,51,K7,KTLH,27,US
ipnc-om-k4-kpnc,IPNC,OM 17,OM,TERMINAL,111900,,,,,,179.632,,,36.82503,-97.10053,1041,K4,KPNC,17,US
ipnk-om-wi-wioo,IPNK,OM 15,OM,TERMINAL,111300,,,,,,157.867,,,-0.07792,109.37488,0,WI,WIOO,15,ID
ipr-om-li-limp,IPR,OM 20,OM,TERMINAL,110500,,,,,,197.328,,,44.88983,10.32492,0,LI,LIMP,20,IT
ips-om-uu-uumo,IPS,OM 25,OM,TERMINAL,108300,,,,,,264.848,,,55.51194,37.58306,0,UU,UUMO,25,RU
ipsk-om-k6-kpsk,IPSK,OM 06,OM,TERMINAL,110900,,,,,,52.008,,,37.07929,-80.77104,0,K6,KPSK,06,US
ipu-om-ld-ldpl,IPU,OM 27,OM,TERMINAL,111500,,,,,,268.272,,,44.89536,14.00808,0,LD,LDPL,27,HR
ipub-om-k2-kpub,IPUB,OM 08R,OM,TERMINAL,109500,,,,,,88.281,,,38.28396,-104.64708,4730,K2,KPUB,08R,US
ipwa-om-k4-kpwa,IPWA,OM 17L,OM,TERMINAL,110150,,,,,,179.986,,,35.62603,-97.64756,1105,K4,KPWA,17L,US
ipwk-om-k5-kpwk,IPWK,OM 16,OM,TERMINAL,109750,,,,,,158.680,,,42.19921,-87.94778,682,K5,KPWK,16,US
iqu-om-zb-zbaa,IQU,OM 36R,OM,TERMINAL,109900,,,,,,353.140,,,39.99289,116.61015,0,ZB,ZBAA,36R,CN
irds-om-lg-lgrp,IRDS,OM 24,OM,TERMINAL,110300,,,,,,250.008,,,36.44125,28.20903,0,LG,LGRP,24,GR
irgk-om-k3-krgk,IRGK,OM 09,OM,TERMINAL,110100,,,,,,93.065,,,44.59782,-92.64748,1040,K3,KRGK,09,US
irgo-om-k5-kcak,IRGO,OM 19,OM,TERMINAL,109500,,,,,,182.468,,,40.99676,-81.43714,1072,K5,KCAK,19,US
irgr-om-k4-kokc,IRGR,OM 35R,OM,TERMINAL,110900,,,,,,359.961,,,35.29506,-97.58868,1198,K4,KOKC,35R,US
irhi-om-k5-krhi,IRHI,OM 09,OM,TERMINAL,111300,,,,,,88.288,,,45.62810,-89.61887,1561,K5,KRHI,09,US
iro-om-uk-ukdr,IRO,OM 36,OM,TERMINAL,108300,,,,,,5.315,,,47.99319,33.20111,0,UK,UKDR,36,UA
iro-om-un-unnt,IRO,OM 07,OM,TERMINAL,110100,,,,,,81.026,,,55.00442,82.56272,365,UN,UNNT,07,RU
iroa-om-k6-kroa,IROA,OM 34,OM,TERMINAL,109700,,,,,,328.032,,,37.25699,-79.92521,917,K6,KROA,34,US
irow-om-k2-krow,IROW,OM 21,OM,TERMINAL,109900,,,,,,225.006,,,33.36537,-104.44224,0,K2,KROW,21,US
irpd-om-k5-krpd,IRPD,OM 01,OM,TERMINAL,108300,,,,,,11.670,,,45.31793,-91.80256,1216,K5,KRPD,01,US
irum-om-k4-khyi,IRUM,OM 13,OM,TERMINAL,108700,,,,,,133.027,,,29.95881,-97.94897,820,K4,KHYI,13,US
iruq-om-k7-kruq,IRUQ,OM 20,OM,TERMINAL,109950,,,,,,195.925,,,35.73312,-80.48957,700,K7,KRUQ,20,US
irvs-om-k4-krvs,IRVS,OM 01L,OM,TERMINAL,109950,,,,,,13.282,,,35.94024,-96.01528,732,K4,KRVS,01L,US
irwi-om-k7-krwi,IRWI,OM 04,OM,TERMINAL,108300,,,,,,33.182,,,35.76763,-77.96458,151,K7,KRWI,04,US
irxn-om-k6-kisp,IRXN,OM 24,OM,TERMINAL,108300,,,,,,224.889,,,40.84265,-73.03954,272,K6,KISP,24,US
isa-om-ut-utfn,ISA,OM 28,OM,TERMINAL,110100,,,,,,288.550,,,40.96839,71.62133,0,UT,UTFN,28,UZ
isan-om-oy-oysn,ISAN,OM 18,OM,TERMINAL,110900,,,,,,179.655,,,15.55622,44.21975,7237,OY,OYSN,18,YE
isb-om-fv-fvrg,ISB,OM 05,OM,TERMINAL,110300,,,,,,44.814,,,-17.99442,31.02741,0,FV,FVRG,05,ZW
isbn-om-k5-ksbn,ISBN,OM 27L,OM,TERMINAL,109300,,,,,,268.806,,,41.70561,-86.21903,750,K5,KSBN,27L,US
isbp-om-k2-ksbp,ISBP,OM 11,OM,TERMINAL,109700,,,,,,124.892,,,35.29724,-120.75021,148,K2,KSBP,11,US
isby-om-wa-warr,ISBY,OM 10,OM,TERMINAL,110100,,,,,,99.289,,,-7.36689,112.70700,0,WA,WARR,10,ID
isch-om-k6-ksch,ISCH,OM 04,OM,TERMINAL,109700,,,,,,25.913,,,42.77182,-73.98602,313,K6,KSCH,04,US
isem-om-k7-ksem,ISEM,OM 33,OM,TERMINAL,110500,,,,,,325.936,,,32.26979,-86.92744,236,K7,KSEM,33,US
isg-om-ue-uerr,ISG,OM 25,OM,TERMINAL,110300,,,,,,236.127,,,62.56211,114.12792,0,UE,UERR,25,RU
isgz-om-k5-kgrb,ISGZ,OM 36,OM,TERMINAL,109900,,,,,,359.924,,,44.39852,-88.13286,638,K5,KGRB,36,US
ishd-om-k6-kshd,ISHD,OM 05,OM,TERMINAL,109500,,,,,,38.094,,,38.20174,-78.95736,1240,K6,KSHD,05,US
isij-om-k3-kmsp,ISIJ,OM 22,OM,TERMINAL,110500,,,,,,224.921,,,44.95269,-93.12306,1022,K3,KMSP,22,US
isjt-om-k4-ksjt,ISJT,OM 03,OM,TERMINAL,109700,,,,,,43.013,,,31.27977,-100.57613,2128,K4,KSJT,03,US
isju-om-tj-tjsj,ISJU,OM 08,OM,TERMINAL,110300,,,,,,66.871,,,18.40884,-66.08940,67,TJ,TJSJ,08,PR
iskc-om-k5-kues,ISKC,OM 10,OM,TERMINAL,109500,,,,,,102.008,,,43.05579,-88.33942,897,K5,KUES,10,US
islk-om-k6-kslk,ISLK,OM 23,OM,TERMINAL,108900,,,,,,214.805,,,44.47682,-74.12409,1678,K6,KSLK,23,US
isln-om-k3-ksln,ISLN,OM 35,OM,TERMINAL,108900,,,,,,359.890,,,38.68151,-97.64506,1318,K3,KSLN,35,US
islo-om-wa-wahq,ISLO,OM 26,OM,TERMINAL,111500,,,,,,257.372,,,-7.49333,110.85833,0,WA,WAHQ,26,ID
ismx-om-k2-ksmx,ISMX,OM 12,OM,TERMINAL,108900,,,,,,135.540,,,34.96838,-120.53470,127,K2,KSMX,12,US
isns-om-k2-ksns,ISNS,OM 31,OM,TERMINAL,108500,,,,,,327.940,,,36.59229,-121.55135,92,K2,KSNS,31,US
ispa-om-k7-kspa,ISPA,OM 05,OM,TERMINAL,109100,,,,,,41.462,,,34.86262,-82.01315,703,K7,KSPA,05,US
ispi-om-k5-kspi,ISPI,OM 04,OM,TERMINAL,109500,,,,,,41.517,,,39.77312,-89.75990,603,K5,KSPI,04,US
ispw-om-k3-kspw,ISPW,OM 12,OM,TERMINAL,110900,,,,,,126.360,,,43.23401,-95.32795,1423,K3,KSPW,12,US
isqk-om-k5-kcev,ISQK,OM 18,OM,TERMINAL,108350,,,,,,180.528,,,39.77711,-85.12989,919,K5,KCEV,18,US
ist-om-ld-ldsp,IST,OM 05,OM,TERMINAL,110500,,,,,,52.492,,,43.49685,16.22252,0,LD,LDSP,05,HR
istc-om-k3-kstc,ISTC,OM 31,OM,TERMINAL,111900,,,,,,316.101,,,45.47894,-93.96868,985,K3,KSTC,31,US
istj-om-k3-kstj,ISTJ,OM 35,OM,TERMINAL,110300,,,,,,0.000,,,39.67573,-94.90684,809,K3,KSTJ,35,US
istx-om-ti-tisx,ISTX,OM 10,OM,TERMINAL,109500,,,,,,83.938,,,17.69192,-64.88465,40,TI,TISX,10,VI
isus-om-k3-ksus,ISUS,OM 08R,OM,TERMINAL,110550,,,,,,78.040,,,38.63908,-90.76696,468,K3,KSUS,08R,US
isux-om-k3-ksux,ISUX,OM 31,OM,TERMINAL,109300,,,,,,315.798,,,42.32752,-96.29041,1081,K3,KSUX,31,US
isvc-om-k2-ksvc,ISVC,OM 26,OM,TERMINAL,111700,,,,,,270.220,,,32.63206,-108.06333,5350,K2,KSVC,26,US
isvn-om-k7-ksvn,ISVN,OM 28,OM,TERMINAL,109500,,,,,,272.210,,,32.00410,-80.98622,9,K7,KSVN,28,US
isvs-om-lt-ltar,ISVS,OM 01,OM,TERMINAL,109100,,,,,,17.848,,,39.71964,36.86331,0,LT,LTAR,01,TR
iswe-om-k3-krrt,ISWE,OM 31,OM,TERMINAL,110100,,,,,,318.677,,,48.86275,-95.24188,1084,K3,KRRT,31,US
iswf-om-k6-kswf,ISWF,OM 09,OM,TERMINAL,110100,,,,,,78.343,,,41.48582,-74.22792,405,K6,KSWF,09,US
iswo-om-k4-kswo,ISWO,OM 17,OM,TERMINAL,109150,,,,,,179.494,,,36.23615,-97.08731,982,K4,KSWO,17,US
isyd-om-k1-kcpr,ISYD,OM 03,OM,TERMINAL,111300,,,,,,43.802,,,42.82581,-106.56226,5371,K1,KCPR,03,US
iszk-om-k6-kroa,ISZK,OM 06,OM,TERMINAL,111100,,,,,,63.983,,,37.28734,-80.07114,1026,K6,KROA,06,US
itb-om-sb-sbgl,ITB,OM 10,OM,TERMINAL,109300,,,,,,74.375,,,-22.82917,-43.36200,35,SB,SBGL,10,BR
itcl-om-k7-ktcl,ITCL,OM 04,OM,TERMINAL,109100,,,,,,40.894,,,33.15846,-87.67030,140,K7,KTCL,04,US
iteb-om-k6-kteb,ITEB,OM 06,OM,TERMINAL,108900,,,,,,48.058,,,40.80441,-74.13252,0,K6,KTEB,06,US
itge-om-ed-eddt,ITGE,OM 08R,OM,TERMINAL,108500,,,,,,80.864,,,52.54570,13.15108,121,ED,EDDT,08R,DE
itgw-om-ed-eddt,ITGW,OM 26L,OM,TERMINAL,109300,,,,,,260.864,,,52.57229,13.42605,121,ED,EDDT,26L,DE
itiw-om-k1-ktiw,ITIW,OM 17,OM,TERMINAL,109100,,,,,,186.988,,,47.35788,-122.56232,354,K1,KTIW,17,US
itjy-om-k4-ktul,ITJY,OM 18R,OM,TERMINAL,111100,,,,,,183.067,,,36.30733,-95.89516,668,K4,KTUL,18R,US
itle-om-ed-eddt,ITLE,OM 08L,OM,TERMINAL,109100,,,,,,80.858,,,52.54570,13.15108,121,ED,EDDT,08L,DE
itlw-om-ed-eddt,ITLW,OM 26R,OM,TERMINAL,110100,,,,,,260.858,,,52.57229,13.42605,121,ED,EDDT,26R,DE
itnq-om-k5-kmnm,ITNQ,OM 03,OM,TERMINAL,108700,,,,,,30.810,,,45.06159,-87.69602,613,K5,KMNM,03,US
itoc-om-li-limf,ITOC,OM 36,OM,TERMINAL,108700,,,,,,2.562,,,45.12350,7.64478,989,LI,LIMF,36,IT
itol-om-k5-ktol,ITOL,OM 07,OM,TERMINAL,109700,,,,,,67.104,,,41.55347,-83.92109,676,K5,KTOL,07,US
itop-om-k3-ktop,ITOP,OM 13,OM,TERMINAL,110700,,,,,,134.458,,,39.12045,-95.68710,922,K3,KTOP,13,US
itpa-om-k7-ktpa,ITPA,OM 19L,OM,TERMINAL,110300,,,,,,181.725,,,28.08533,-82.52525,43,K7,KTPA,19L,US
itpl-om-k4-ktpl,ITPL,OM 15,OM,TERMINAL,111500,,,,,,162.698,,,31.20809,-97.43015,0,K4,KTPL,15,US
itri-om-k7-ktri,ITRI,OM 23,OM,TERMINAL,109900,,,,,,222.451,,,36.55542,-82.31795,1778,K7,KTRI,23,US
ittl-om-k4-ksgt,ITTL,OM 36,OM,TERMINAL,110550,,,,,,1.847,,,34.50582,-91.58177,196,K4,KSGT,36,US
itul-om-k4-ktul,ITUL,OM 36R,OM,TERMINAL,110300,,,,,,3.068,,,36.09739,-95.88877,709,K4,KTUL,36R,US
itup-om-k7-ktup,ITUP,OM 36,OM,TERMINAL,108500,,,,,,359.873,,,34.18038,-88.76870,325,K7,KTUP,36,US
ituu-om-k6-khts,ITUU,OM 30,OM,TERMINAL,108700,,,,,,292.464,,,38.34315,-82.48038,695,K6,KHTS,30,US
itvc-om-k5-ktvc,ITVC,OM 28,OM,TERMINAL,110700,,,,,,273.738,,,44.73453,-85.42925,895,K5,KTVC,28,US
itw-om-yb-ystw,ITW,OM 30R,OM,TERMINAL,109900,,,,,,313.000,,,-31.14575,150.93058,0,YB,YSTW,30R,AU
itwf-om-k1-ktwf,ITWF,OM 26,OM,TERMINAL,108300,,,,,,271.329,,,42.47864,-114.35446,4065,K1,KTWF,26,US
itwi-om-k3-kict,ITWI,OM 01L,OM,TERMINAL,109100,,,,,,19.925,,,37.55943,-97.48105,1310,K3,KICT,01L,US
itxk-om-k4-ktxk,ITXK,OM 22,OM,TERMINAL,111900,,,,,,224.842,,,33.52411,-93.90605,260,K4,KTXK,22,US
itxp-om-k7-klzu,ITXP,OM 25,OM,TERMINAL,109950,,,,,,243.589,,,34.01993,-83.86284,984,K7,KLZU,25,US
itys-om-k7-ktys,ITYS,OM 05L,OM,TERMINAL,110750,,,,,,44.690,,,35.74222,-84.08120,1127,K7,KTYS,05L,US
iucy-om-k7-kucy,IUCY,OM 01,OM,TERMINAL,109700,,,,,,6.348,,,36.29760,-88.99487,320,K7,KUCY,01,US
iudy-om-k5-krfd,IUDY,OM 07,OM,TERMINAL,109550,,,,,,65.345,,,42.15722,-89.21844,850,K5,KRFD,07,US
iuel-om-sc-scel,IUEL,OM 17L,OM,TERMINAL,110300,,,,,,177.427,,,-33.30500,-70.79000,0,SC,SCEL,17L,CL
iuf-om-um-umoo,IUF,OM 13,OM,TERMINAL,111100,,,,,,136.662,,,53.98772,30.04275,0,UM,UMOO,13,BY
iugn-om-k5-kugn,IUGN,OM 23,OM,TERMINAL,110700,,,,,,228.357,,,42.46404,-87.80139,587,K5,KUGN,23,US
iuh-om-ut-utsb,IUH,OM 01,OM,TERMINAL,110300,,,,,,10.138,,,39.72900,64.47158,0,UT,UTSB,01,UZ
iuin-om-k5-kuin,IUIN,OM 04,OM,TERMINAL,110100,,,,,,40.206,,,39.88687,-91.25369,0,K5,KUIN,04,US
iuki-om-k2-kuki,IUKI,OM 15,OM,TERMINAL,109100,,,,,,168.379,,,39.27591,-123.24066,873,K2,KUKI,15,US
iul-om-uw-uwlw,IUL,OM 02,OM,TERMINAL,110100,,,,,,31.196,,,54.35164,48.75142,0,UW,UWLW,02,RU
iunv-om-k6-kunv,IUNV,OM 24,OM,TERMINAL,111700,,,,,,232.645,,,40.91031,-77.74172,942,K6,KUNV,24,US
iuu-om-um-umii,IUU,OM 23,OM,TERMINAL,111900,,,,,,242.133,,,55.14964,30.42711,0,UM,UMII,23,BY
iuur-om-k7-kcrx,IUUR,OM 18,OM,TERMINAL,111100,,,,,,173.579,,,35.01554,-88.61568,511,K7,KCRX,18,US
iuvd-om-k7-kuox,IUVD,OM 09,OM,TERMINAL,111700,,,,,,90.847,,,34.38512,-89.62602,413,K7,KUOX,09,US
iuvm-om-k6-kmtv,IUVM,OM 31,OM,TERMINAL,111300,,,,,,298.307,,,36.59015,-79.91764,1087,K6,KMTV,31,US
iuxl-om-k4-kuxl,IUXL,OM 15,OM,TERMINAL,109300,,,,,,150.501,,,30.19852,-93.42064,10,K4,KUXL,15,US
iuxt-om-k4-kftw,IUXT,OM 34,OM,TERMINAL,109900,,,,,,351.942,,,32.74188,-97.34727,554,K4,KFTW,34,US
iuxw-om-k5-ksbn,IUXW,OM 09R,OM,TERMINAL,109300,,,,,,88.806,,,41.70199,-86.44822,740,K5,KSBN,09R,US
iuza-om-k7-kuza,IUZA,OM 02,OM,TERMINAL,108500,,,,,,11.179,,,34.88999,-81.08085,525,K7,KUZA,02,US
ivmu-om-k4-kmez,IVMU,OM 27,OM,TERMINAL,108700,,,,,,272.207,,,34.53920,-94.07264,911,K4,KMEZ,27,US
ivok-om-k5-kvok,IVOK,OM 27,OM,TERMINAL,108500,,,,,,269.022,,,43.94136,-90.12096,0,K5,KVOK,27,US
ivp-om-ug-ugtb,IVP,OM 13R,OM,TERMINAL,110300,,,,,,136.664,,,41.71306,44.89561,0,UG,UGTB,13R,GE
ivpz-om-k5-kvpz,IVPZ,OM 27,OM,TERMINAL,109700,,,,,,270.133,,,41.45126,-86.87725,741,K5,KVPZ,27,US
ivrn-om-li-lipx,IVRN,OM 04,OM,TERMINAL,111750,,,,,,45.612,,,45.32461,10.78561,0,LI,LIPX,04,IT
ivuj-om-k7-kvuj,IVUJ,OM 22L,OM,TERMINAL,110550,,,,,,217.069,,,35.48916,-80.08346,603,K7,KVUJ,22L,US
ivx-om-um-umms,IVX,OM 13R,OM,TERMINAL,108900,,,,,,138.838,,,53.92161,27.97258,0,UM,UMMS,13R,BY
ivyk-om-k7-kcae,IVYK,OM 29,OM,TERMINAL,108300,,,,,,284.739,,,33.92163,-81.03390,121,K7,KCAE,29,US
iwes-om-ed-edxw,IWES,OM 32,OM,TERMINAL,111500,,,,,,324.534,,,54.85652,8.41000,0,ED,EDXW,32,DE
iwn-om-ue-uerp,IWN,OM 35,OM,TERMINAL,108100,,,,,,343.788,,,66.35439,112.06372,0,UE,UERP,35,RU
iwn-om-uk-ukww,IWN,OM 31,OM,TERMINAL,110300,,,,,,318.289,,,49.20606,28.66417,0,UK,UKWW,31,UA
iwn-om-uw-uwlw,IWN,OM 20,OM,TERMINAL,110100,,,,,,211.196,,,54.45311,48.85692,0,UW,UWLW,20,RU
iww-om-zg-zgha,IWW,OM 18R,OM,TERMINAL,110300,,,,,,176.885,,,28.26770,113.21507,0,ZG,ZGHA,18R,CN
iykm-om-k1-kykm,IYKM,OM 27,OM,TERMINAL,110100,,,,,,290.060,,,46.52564,-120.37219,0,K1,KYKM,27,US
iykn-om-k3-kykn,IYKN,OM 31,OM,TERMINAL,109500,,,,,,319.860,,,42.84372,-97.30212,1215,K3,KYKN,31,US
iym-om-gb-gbyd,IYM,OM 32,OM,TERMINAL,109500,,,,,,310.801,,,13.27278,-16.57569,95,GB,GBYD,32,GM
iys-om-sb-sbys,IYS,OM 02C,OM,TERMINAL,109300,,,,,,0.000,,,-22.06750,-47.34067,1959,SB,SBYS,02C,BR
iza-om-ld-ldza,IZA,OM 04,OM,TERMINAL,109500,,,,,,46.715,,,45.69064,15.99002,0,LD,LDZA,04,HR
izd-om-ld-ldzd,IZD,OM 13,OM,TERMINAL,110100,,,,,,135.801,,,44.16919,15.26408,243,LD,LDZD,13,HR
izg-om-ld-ldza,IZG,OM 22,OM,TERMINAL,109100,,,,,,226.714,,,45.80571,16.16454,0,LD,LDZA,22,HR
izj-om-us-ushh,IZJ,OM 24,OM,TERMINAL,110100,,,,,,255.358,,,61.04100,69.18631,0,US,USHH,24,RU
izr-om-ut-utnn,IZR,OM 33,OM,TERMINAL,110300,,,,,,334.683,,,42.44628,59.65036,0,UT,UTNN,33,UZ
izu-om-ut-utff,IZU,OM 18,OM,TERMINAL,109700,,,,,,183.244,,,40.41168,71.74866,0,UT,UTFF,18,UZ
ju-om-sa-sasj,JU,OM 34,OM,TERMINAL,110100,,,,,,330.269,,,-24.46083,-65.05539,0,SA,SASJ,34,AR
kd-om-lk-lkkb,KD,OM 24,OM,TERMINAL,108350,,,,,,242.304,,,50.15258,14.63649,0,LK,LKKB,24,CZ
ke-om-lz-lzkz,KE,OM 01,OM,TERMINAL,109500,,,,,,13.005,,,48.58786,21.21494,755,LZ,LZKZ,01,SK
kee-om-lh-lhke,KEE,OM 30,OM,TERMINAL,109950,,,,,,302.825,,,46.89222,19.80656,0,LH,LHKE,30,HU
kew-om-lh-lhke,KEW,OM 12,OM,TERMINAL,111300,,,,,,123.000,,,46.94486,19.68703,0,LH,LHKE,12,HU
km-om-fw-fwki,KM,OM 14,OM,TERMINAL,109900,,,,,,129.937,,,-13.73722,33.71694,0,FW,FWKI,14,MW
la-om-lk-lkna,LA,OM 30,OM,TERMINAL,111350,,,,,,309.419,,,49.13659,16.17953,0,LK,LKNA,30,CZ
lev-om-li-limz,LEV,OM 21,OM,TERMINAL,110950,,,,,,212.514,,,44.62781,7.69508,0,LI,LIMZ,21,IT
ljb-om-lj-ljlj,LJB,OM 30,OM,TERMINAL,110500,,,,,,306.491,,,46.17322,14.55594,0,LJ,LJLJ,30,SI
lo-om-fl-flkk,LO,OM 10,OM,TERMINAL,110300,,,,,,95.180,,,-15.32306,28.37222,3779,FL,FLKK,10,ZM
lsl-om-es-essl,LSL,OM 11,OM,TERMINAL,108700,,,,,,112.224,,,58.43264,15.55236,0,ES,ESSL,11,SE
lxi-om-lf-lfsx,LXI,OM 11,OM,TERMINAL,108100,,,,,,113.157,,,47.81750,6.24239,0,LF,LFSX,11,FR
mar-om-lj-ljmb,MAR,OM 32,OM,TERMINAL,110100,,,,,,326.202,,,46.42761,15.73650,0,LJ,LJMB,32,SI
mdm-om-lf-lfbm,MDM,OM 27,OM,TERMINAL,110500,,,,,,267.217,,,43.91664,-0.38056,0,LF,LFBM,27,FR
mi-om-ef-efmi,MI,OM 11,OM,TERMINAL,109500,,,,,,112.637,,,61.71285,27.06849,329,EF,EFMI,11,FI
mi-om-lf-lfsg,MI,OM 26,OM,TERMINAL,110900,,,,,,265.071,,,48.33231,6.19381,1084,LF,LFSG,26,FR
mlp-om-li-limc,MLP,OM 35R,OM,TERMINAL,109900,,,,,,349.069,,,45.54581,8.75678,0,LI,LIMC,35R,IT
mp-om-sa-sazm,MP,OM 13,OM,TERMINAL,109500,,,,,,122.777,,,-37.89581,-57.64900,0,SA,SAZM,13,AR
mq-om-es-esmq,MQ,OM 16,OM,TERMINAL,108700,,,,,,152.231,,,56.74744,16.22772,17,ES,ESMQ,16,SE
msk-om-lw-lwsk,MSK,OM 34,OM,TERMINAL,108700,,,,,,345.485,,,41.89444,21.64472,0,LW,LWSK,34,MK
mt-om-es-esmt,MT,OM 19,OM,TERMINAL,110100,,,,,,186.193,,,56.79697,12.84225,0,ES,ESMT,19,SE
nay-om-lf-lfso,NAY,OM 20,OM,TERMINAL,108700,,,,,,199.453,,,48.66308,5.99661,0,LF,LFSO,20,FR
nb-om-vv-vvnb,NB,OM 11L,OM,TERMINAL,110500,,,,,,107.233,,,21.23881,105.74571,98,VV,VVNB,11L,VN
ngg-om-es-esgg,NGG,OM 21,OM,TERMINAL,108500,,,,,,205.961,,,57.73067,12.34431,0,ES,ESGG,21,SE
nkm-om-es-eskm,NKM,OM 16,OM,TERMINAL,109700,,,,,,161.255,,,61.03125,14.46042,0,ES,ESKM,16,SE
nnn-om-es-esnn,NNN,OM 16,OM,TERMINAL,108700,,,,,,160.165,,,62.59825,17.38786,0,ES,ESNN,16,SE
nok-om-es-esok,NOK,OM 21,OM,TERMINAL,110700,,,,,,205.630,,,59.53219,13.42011,0,ES,ESOK,21,SE
oan-om-lf-lfoj,OAN,OM 25,OM,TERMINAL,111300,,,,,,249.277,,,48.01939,1.88639,0,LF,LFOJ,25,FR
ob-om-lz-lzib,OB,OM 31,OM,TERMINAL,110700,,,,,,314.020,,,48.11472,17.29839,436,LZ,LZIB,31,SK
okr-om-lz-lzib,OKR,OM 22,OM,TERMINAL,108300,,,,,,223.838,,,48.22392,17.29036,433,LZ,LZIB,22,SK
oln-om-lf-lfpo,OLN,OM 02,OM,TERMINAL,110300,,,,,,18.311,,,48.65311,2.34722,266,LF,LFPO,02,FR
org-om-lf-lfmo,ORG,OM 14,OM,TERMINAL,109900,,,,,,144.269,,,44.20656,4.80139,269,LF,LFMO,14,FR
pa-om-es-espa,PA,OM 14,OM,TERMINAL,110300,,,,,,137.290,,,65.60225,21.98881,65,ES,ESPA,14,SE
pc-om-sa-saez,PC,OM 11,OM,TERMINAL,110100,,,,,,102.310,,,-34.80486,-58.63342,0,SA,SAEZ,11,AR
pcd-om-lh-lhpa,PCD,OM 34,OM,TERMINAL,108550,,,,,,340.443,,,47.31864,17.52433,0,LH,LHPA,34,HU
pcn-om-lh-lhpa,PCN,OM 16,OM,TERMINAL,108550,,,,,,160.443,,,47.40717,17.47789,0,LH,LHPA,16,HU
pk-om-lk-lkpd,PK,OM 27,OM,TERMINAL,109350,,,,,,272.777,,,50.01109,15.81302,732,LK,LKPD,27,CZ
pr-om-lp-lppr,PR,OM 17,OM,TERMINAL,109900,,,,,,168.851,,,41.34800,-8.70753,228,LP,LPPR,17,PT
ra-om-en-enra,RA,OM 31,OM,TERMINAL,111300,,,,,,79.148,,,66.30716,14.02555,0,EN,ENRA,31,NO
reg-om-li-licr,REG,OM 33,OM,TERMINAL,109300,,,,,,18.994,,,38.01292,15.65028,0,LI,LICR,33,IT
rnc-om-li-lipq,RNC,OM 09,OM,TERMINAL,110750,,,,,,90.444,,,45.82881,13.36022,0,LI,LIPQ,09,IT
sal-om-lf-lfmy,SAL,OM 16,OM,TERMINAL,110900,,,,,,159.712,,,43.68397,5.06969,0,LF,LFMY,16,FR
sdi-om-lf-lfsi,SDI,OM 29,OM,TERMINAL,108900,,,,,,293.095,,,48.60456,5.01208,0,LF,LFSI,29,FR
sf-om-ek-ekvg,SF,OM 12,OM,TERMINAL,109100,,,,,,103.686,,,62.10552,-7.58749,0,EK,EKVG,12,FO
sgg-om-es-esgg,SGG,OM 03,OM,TERMINAL,110300,,,,,,25.962,,,57.59494,12.22042,0,ES,ESGG,03,SE
sj-om-es-esgj,SJ,OM 19,OM,TERMINAL,109900,,,,,,198.043,,,57.82711,14.11233,0,ES,ESGJ,19,SE
sl-om-es-essl,SL,OM 29,OM,TERMINAL,108100,,,,,,292.224,,,58.37939,15.80392,0,ES,ESSL,29,SE
soe-om-es-esoe,SOE,OM 01,OM,TERMINAL,109100,,,,,,11.663,,,59.13394,15.00294,0,ES,ESOE,01,SE
sok-om-es-esok,SOK,OM 03,OM,TERMINAL,109350,,,,,,25.630,,,59.37700,13.27364,0,ES,ESOK,03,SE
sy-om-es-esgr,SY,OM 19,OM,TERMINAL,108300,,,,,,195.688,,,58.52575,14.00989,324,ES,ESGR,19,SE
sza-om-lf-lfks,SZA,OM 18,OM,TERMINAL,109100,,,,,,178.954,,,41.99825,9.40344,40,LF,LFKS,18,FR
tre-om-li-liph,TRE,OM 07,OM,TERMINAL,109300,,,,,,69.220,,,45.62283,12.09561,59,LI,LIPH,07,IT
trh-om-es-esgt,TRH,OM 33,OM,TERMINAL,111900,,,,,,326.133,,,58.26311,12.41461,0,ES,ESGT,33,SE
tt-om-lz-lztt,TT,OM 27,OM,TERMINAL,110100,,,,,,274.141,,,49.06825,20.35339,0,LZ,LZTT,27,SK
tu-om-sa-sant,TU,OM 02,OM,TERMINAL,109900,,,,,,9.722,,,-26.91834,-65.11995,0,SA,SANT,02,AR
ybe-om-ly-lybe,YBE,OM 30,OM,TERMINAL,109900,,,,,,302.028,,,44.77731,20.40272,0,LY,LYBE,30,RS
yub-om-ly-lybe,YUB,OM 12,OM,TERMINAL,110300,,,,,,122.028,,,44.86247,20.20981,0,LY,LYBE,12,RS
yui-om-ly-lypg,YUI,OM 36,OM,TERMINAL,109900,,,,,,4.303,,,42.29883,19.24575,0,LY,LYPG,36,ME
