slug,identifier,name,type,usage,frequency,dme_channel,dme_rx_frequency,dme_tx_frequency,dme_bias,vor_slaved_variation,localizer_heading,glide_slope_angle,reception_range,latitude,longitude,elevation,region,airport,airport_runway,country
abi-tacan-hd,ABI,Djibouti TACAN,TACAN,ENROUTE,114600,93X,1117000,1180000,,2.000,,,130,11.54922,43.15486,40,HD,,,DJ
aho-tacan-li,AHO,Alghero TACAN,TACAN,ENROUTE,109300,30X,1054000,991000,,2.000,,,40,40.63606,8.28956,121,LI,,,IT
aht-tacan-rj,AHT,Ashiya TACAN,TACAN,ENROUTE,108600,23X,1047000,984000,,-8.000,,,130,33.88743,130.64987,98,RJ,,,JP
aki-tacan-lt,AKI,Akhisar TACAN,TACAN,ENROUTE,110200,39X,1063000,1000000,,5.000,,,130,38.81950,27.82722,285,LT,,,TR
akr-tacan-lc,AKR,Akrotiri TACAN,TACAN,ENROUTE,116000,107X,1131000,1194000,,5.000,,,40,34.57939,32.96281,243,LC,,,CY
akt-tacan-rj,AKT,Akeno TACAN,TACAN,ENROUTE,112050,57Y,1081000,1144000,,-7.000,,,130,34.52853,136.67517,20,RJ,,,JP
alt-tacan-ro,ALT,Amami TACAN,TACAN,ENROUTE,115500,102X,1126000,1189000,,-5.000,,,130,28.44347,129.58340,996,RO,,,JP
amb-tacan-yb,AMB,Amberley TACAN,TACAN,ENROUTE,108100,18X,1042000,979000,,11.000,,,130,-27.64153,152.71611,127,YB,,,AU
aml-tacan-lg,AML,Andravida TACAN,TACAN,ENROUTE,133400,61X,1085000,1022000,,4.000,,,130,37.93000,21.28467,55,LG,,,GR
anl-tacan-lg,ANL,Nea Anchialos TACAN,TACAN,ENROUTE,115600,103X,1127000,1190000,,4.000,,,130,39.21367,22.74417,82,LG,,,GR
aog-tacan-le,AOG,Rota TACAN,TACAN,ENROUTE,108600,23X,1047000,984000,,-2.000,,,130,36.64786,-6.34906,114,LE,,,ES
arf-tacan-lt,ARF,Cengiz Topel TACAN,TACAN,ENROUTE,113900,86X,1110000,1173000,,5.000,,,40,40.73778,30.06536,197,LT,,,TR
arh-tacan-k2,ARH,Fort Huachuca TACAN,TACAN,ENROUTE,111600,53X,1077000,1014000,,12.000,,,25,31.58558,-110.33898,4659,K2,,,US
arx-tacan-lg,ARX,Araxos TACAN,TACAN,ENROUTE,112400,71X,1095000,1158000,,4.000,,,130,38.15450,21.42883,62,LG,,,GR
asd-tacan-oa,ASD,Shindand TACAN,TACAN,ENROUTE,111100,48X,1072000,1009000,,2.000,,,40,33.39056,62.26278,3734,OA,,,AF
avd-tacan-lf,AVD,Avord TACAN,TACAN,ENROUTE,110600,43X,1067000,1004000,,0.000,,,130,47.05808,2.62986,603,LF,,,FR
avi-tacan-li,AVI,Aviano TACAN,TACAN,ENROUTE,116400,111X,1135000,1198000,,2.000,,,130,46.02787,12.58688,400,LI,,,IT
bab-tacan-k2,BAB,Beale (Marysville) TACAN,TACAN,ENROUTE,108600,23X,1047000,984000,,16.000,,,40,39.13479,-121.44076,90,K2,,,US
bad-tacan-k4,BAD,Barksdale (Bossier City) TACAN,TACAN,ENROUTE,115800,105X,1129000,1192000,,2.000,,,40,32.50334,-93.66777,162,K4,,,US
bar-tacan-en,BAR,Bardufoss TACAN,TACAN,ENROUTE,113400,81X,1105000,1168000,,9.000,,,130,69.04569,18.58640,448,EN,,,NO
bbe-tacan-eb,BBE,Beauvechain TACAN,TACAN,ENROUTE,116000,107X,1131000,1194000,,1.000,,,130,50.75686,4.76875,343,EB,,,BE
bbl-tacan-eb,BBL,Kleine Brogel TACAN,TACAN,ENROUTE,109600,33X,1057000,994000,,2.000,,,130,51.16753,5.46408,204,EB,,,BE
bdm-tacan-lt,BDM,Bandirma TACAN,TACAN,ENROUTE,111000,47X,1071000,1008000,,5.000,,,25,40.31675,27.98208,170,LT,,,TR
bdn-tacan-eg,BDN,Boscombe Down TACAN,TACAN,ENROUTE,108200,19X,1043000,980000,,0.000,,,130,51.14880,-1.75265,430,EG,,,GB
bej-tacan-lp,BEJ,Beja TACAN,TACAN,ENROUTE,115800,105X,1129000,1192000,,-3.000,,,40,38.12842,-7.92669,700,LP,,,PT
bfs-tacan-eb,BFS,Florennes TACAN,TACAN,ENROUTE,111500,52X,1076000,1013000,,2.000,,,130,50.24142,4.65325,952,EB,,,BE
bix-tacan-k7,BIX,Keesler (Biloxi) TACAN,TACAN,ENROUTE,111800,55X,1079000,1016000,,-2.000,,,25,30.40709,-88.92971,10,K7,,,US
bja-tacan-k6,BJA,Burlington TACAN,TACAN,ENROUTE,112400,71X,1095000,1158000,,-15.000,,,40,44.47693,-73.15676,309,K6,,,US
bkf-tacan-k2,BKF,Buckley (Aurora) TACAN,TACAN,ENROUTE,109600,33X,1057000,994000,,8.000,,,40,39.70739,-104.75239,5593,K2,,,US
bnk-tacan-en,BNK,Banak TACAN,TACAN,ENROUTE,111000,47X,1071000,1008000,,12.000,,,40,70.06544,24.96988,42,EN,,,NO
boo-tacan-en,BOO,Bodo TACAN,TACAN,ENROUTE,110800,45X,1069000,1006000,,6.000,,,130,67.26625,14.36177,128,EN,,,NO
bso-tacan-eg,BSO,Benson TACAN,TACAN,ENROUTE,110000,37X,1061000,998000,,0.000,,,40,51.61464,-1.09931,226,EG,,,GB
bst-tacan-lf,BST,Lanveoc Poulmic TACAN,TACAN,ENROUTE,114700,94X,1118000,1181000,,-1.000,,,40,48.28453,-4.45211,328,LF,,,FR
btn-tacan-vt,BTN,Narathiwat TACAN,TACAN,ENROUTE,115200,99X,1123000,1186000,,-1.000,,,130,6.52333,101.74500,18,VT,,,TH
bue-tacan-et,BUE,Buechel TACAN,TACAN,ENROUTE,117100,118X,1142000,1205000,,2.000,,,130,50.17873,7.06948,1618,ET,,,DE
bzn-tacan-eg,BZN,Brize Norton TACAN,TACAN,ENROUTE,111900,56X,1080000,1017000,,0.000,,,40,51.74820,-1.60350,331,EG,,,GB
caa-tacan-lf,CAA,Cazaux TACAN,TACAN,ENROUTE,110800,45X,1069000,1006000,,0.000,,,40,44.53117,-1.13603,127,LF,,,FR
cam-tacan-li,CAM,Cameri TACAN,TACAN,ENROUTE,115000,97X,1121000,1184000,,3.000,,,130,45.57022,8.65753,702,LI,,,IT
cas-tacan-li,CAS,Caselle TACAN,TACAN,ENROUTE,109500,32X,1056000,993000,,3.000,,,130,45.19381,7.65283,981,LI,,,IT
cbu-tacan-k1,CBU,Columbia (Portland) TACAN,TACAN,ENROUTE,109200,29X,1053000,990000,,20.000,,,130,45.58863,-122.61125,22,K1,,,US
cck-tacan-rc,CCK,Cingcyuangang TACAN,TACAN,ENROUTE,111300,50X,1074000,1011000,,-2.500,,,130,24.26264,120.61786,665,RC,,,TW
cef-tacan-k6,CEF,Westover (Springfield/Chicopee) TACAN,TACAN,ENROUTE,114000,87X,1111000,1174000,,-14.000,,,40,42.19754,-72.52631,241,K6,,,US
cev-tacan-li,CEV,Cervia TACAN,TACAN,ENROUTE,113600,83X,1107000,1170000,,2.000,,,130,44.20647,12.35717,56,LI,,,IT
cgc-tacan-lf,CGC,Cognac Chateaubernard TACAN,TACAN,ENROUTE,116200,109X,1133000,1196000,,0.000,,,130,45.66147,-0.30786,94,LF,,,FR
cgy-tacan-eg,CGY,Coningsby TACAN,TACAN,ENROUTE,111100,48X,1072000,1009000,,0.000,,,130,53.09104,-0.16895,24,EG,,,GB
chj-tacan-rk,CHJ,Cheongju TACAN,TACAN,ENROUTE,110500,42X,1066000,1003000,,-6.900,,,130,36.71000,127.49500,200,RK,,,KR
chm-tacan-vt,CHM,Chiang Mai TACAN,TACAN,ENROUTE,116200,109X,1133000,1196000,,0.000,,,130,18.77000,98.97000,1063,VT,,,TH
chn-tacan-lf,CHN,Chateaudun TACAN,TACAN,ENROUTE,110200,39X,1063000,1000000,,1.000,,,130,48.05581,1.37539,440,LF,,,FR
cig-tacan-lt,CIG,Cigli (Izmir) TACAN,TACAN,ENROUTE,113600,83X,1107000,1170000,,5.000,,,40,38.49494,27.00906,52,LT,,,TR
clu-tacan-lt,CLU,Corlu TACAN,TACAN,ENROUTE,115900,106X,1130000,1193000,,5.000,,,40,41.14644,27.92631,518,LT,,,TR
cof-tacan-k7,COF,Patrick (Cocoa) TACAN,TACAN,ENROUTE,115000,97X,1121000,1184000,,-7.000,,,40,28.23768,-80.61176,5,K7,,,US
cvs-tacan-k2,CVS,Cannon (Clovis) TACAN,TACAN,ENROUTE,111600,53X,1077000,1014000,,7.000,,,40,34.38059,-103.32242,4305,K2,,,US
cvt-tacan-rj,CVT,Choshi TACAN,TACAN,ENROUTE,113600,83X,1107000,1170000,,-7.000,,,130,35.72668,140.79991,236,RJ,,,JP
cwz-tacan-eg,CWZ,Cranwell TACAN,TACAN,ENROUTE,117400,121X,1145000,1208000,,0.000,,,40,53.02867,-0.48552,218,EG,,,GB
dan-tacan-lt,DAN,Incirlik TACAN,TACAN,ENROUTE,108400,21X,1045000,982000,,4.000,,,130,37.01561,35.44819,248,LT,,,TR
dar-tacan-yb,DAR,Darwin TACAN,TACAN,ENROUTE,113700,84X,1108000,1171000,,3.000,,,130,-12.41372,130.88325,157,YB,,,AU
dec-tacan-li,DEC,Decimomannu TACAN,TACAN,ENROUTE,108200,19X,1043000,980000,,1.000,,,130,39.38108,8.96567,194,LI,,,IT
dhk-tacan-k4,DHK,Randolph TACAN,TACAN,ENROUTE,109900,36X,1060000,997000,,5.000,,,40,29.53695,-98.26781,728,K4,,,US
diy-tacan-lt,DIY,Diyarbakir TACAN,TACAN,ENROUTE,110000,37X,1061000,998000,,4.500,,,130,37.89858,40.19553,2251,LT,,,TR
dln-tacan-eh,DLN,Deelen TACAN,TACAN,ENROUTE,112200,59X,1083000,1020000,,2.000,,,40,52.05735,5.87263,158,EH,,,NL
dma-tacan-k2,DMA,Davis-Monthan (Tucson) TACAN,TACAN,ENROUTE,117600,123X,1147000,1210000,,12.000,,,40,32.15992,-110.88091,2662,K2,,,US
dob-tacan-k7,DOB,Dobbins (Marietta) TACAN,TACAN,ENROUTE,113000,77X,1101000,1164000,,-3.000,,,25,33.91465,-84.50731,1009,K7,,,US
dov-tacan-k6,DOV,Dover TACAN,TACAN,ENROUTE,110000,37X,1061000,998000,,-12.000,,,25,39.13240,-75.46741,17,K6,,,US
dwg-tacan-k7,DWG,Warrington (Valparaiso) TACAN,TACAN,ENROUTE,134500,2X,1026000,963000,,0.000,,,40,30.47824,-86.52087,77,K7,,,US
dys-tacan-k4,DYS,Dyess (Abilene) TACAN,TACAN,ENROUTE,133600,63X,1087000,1024000,,5.000,,,40,32.41851,-99.85705,1784,K4,,,US
eck-tacan-k5,ECK,Peck TACAN,TACAN,ENROUTE,114000,87X,1111000,1174000,,-7.000,,,130,43.25589,-82.71793,810,K5,,,US
edf-tacan-pa,EDF,Elmendorf (Anchorage) TACAN,TACAN,ENROUTE,113400,81X,1105000,1168000,,18.000,,,130,61.25501,-149.76917,226,PA,,,US
edn-tacan-ym,EDN,Edinburgh (Adelaide) TACAN,TACAN,ENROUTE,114700,94X,1118000,1181000,,8.000,,,130,-34.70481,138.61244,58,YM,,,AU
efd-tacan-k4,EFD,Ellington (Houston) TACAN,TACAN,ENROUTE,109400,31X,1055000,992000,,5.000,,,40,29.60596,-95.15965,28,K4,,,US
ehv-tacan-eh,EHV,Eindhoven TACAN,TACAN,ENROUTE,117200,119X,1143000,1206000,,1.000,,,130,51.44816,5.37494,100,EH,,,NL
eil-tacan-pa,EIL,Eielson (Fairbanks) TACAN,TACAN,ENROUTE,115100,98X,1122000,1185000,,19.000,,,130,64.65379,-147.09398,542,PA,,,US
elf-tacan-lg,ELF,Elefsis TACAN,TACAN,ENROUTE,108200,19X,1043000,980000,,4.000,,,130,38.06533,23.55867,143,LG,,,GR
esk-tacan-lt,ESK,Eskisehir TACAN,TACAN,ENROUTE,114400,91X,1115000,1178000,,4.000,,,130,39.78367,30.60636,2598,LT,,,TR
esl-tacan-ym,ESL,East Sale TACAN,TACAN,ENROUTE,108100,18X,1042000,979000,,13.000,,,130,-38.10211,147.15447,51,YM,,,AU
eti-tacan-lt,ETI,Ankara-Etimesgut TACAN,TACAN,ENROUTE,116600,113X,1137000,1200000,,5.000,,,130,39.95750,32.67464,2684,LT,,,TR
evs-tacan-en,EVS,Evenes TACAN,TACAN,ENROUTE,134000,67X,1091000,1154000,,8.000,,,130,68.49129,16.67506,103,EN,,,NO
fal-tacan-li,FAL,Falconara (Ancona) TACAN,TACAN,ENROUTE,109800,35X,1059000,996000,,4.000,,,130,43.57686,13.29953,220,LI,,,IT
ffa-tacan-eg,FFA,Fairford TACAN,TACAN,ENROUTE,113400,81X,1105000,1168000,,-2.000,,,130,51.68169,-1.79761,272,EG,,,GB
ffo-tacan-k5,FFO,Patterson (Dayton) TACAN,TACAN,ENROUTE,115200,99X,1123000,1186000,,-4.000,,,25,39.81898,-84.05548,804,K5,,,US
fle-tacan-en,FLE,Flesland TACAN,TACAN,ENROUTE,114500,92X,1116000,1179000,,1.000,,,130,60.30000,5.21360,194,EN,,,NO
fmh-tacan-k6,FMH,Otis (Falmouth) TACAN,TACAN,ENROUTE,115800,105X,1129000,1192000,,-15.000,,,40,41.65961,-70.51395,116,K6,,,US
fmt-tacan-rj,FMT,Hofu TACAN,TACAN,ENROUTE,113000,77X,1101000,1164000,,-8.000,,,130,34.03833,131.54583,7,RJ,,,JP
foe-tacan-k3,FOE,Forbes (Topeka) TACAN,TACAN,ENROUTE,111600,53X,1077000,1014000,,5.000,,,40,38.94737,-95.66118,1043,K3,,,US
fok-tacan-k6,FOK,Suffolk Co (Westhampton Beach) TACAN,TACAN,ENROUTE,111000,47X,1071000,1008000,,-13.000,,,25,40.83777,-72.63184,50,K6,,,US
gbr-tacan-lx,GBR,Gibraltar TACAN,TACAN,ENROUTE,113600,83X,1107000,1170000,,-1.000,,,130,36.14283,-5.34291,1397,LX,,,GI
gft-tacan-rj,GFT,Gifu TACAN,TACAN,ENROUTE,109400,31X,1055000,992000,,-8.000,,,130,35.39167,136.85833,146,RJ,,,JP
ghe-tacan-li,GHE,Ghedi TACAN,TACAN,ENROUTE,110900,46X,1070000,1007000,,2.000,,,130,45.44039,10.26386,393,LI,,,IT
gio-tacan-li,GIO,Gioia TACAN,TACAN,ENROUTE,117800,125X,1149000,1212000,,3.000,,,130,40.80125,16.90125,1270,LI,,,IT
gix-tacan-et,GIX,Geilenkirchen TACAN,TACAN,ENROUTE,108100,18X,1042000,979000,,2.000,,,130,50.96334,6.04519,326,ET,,,DE
got-tacan-rj,GOT,Daigo TACAN,TACAN,ENROUTE,115300,100X,1124000,1187000,,-7.000,,,130,36.74485,140.34956,1480,RJ,,,JP
gra-tacan-li,GRA,Grazzanise TACAN,TACAN,ENROUTE,117500,122X,1146000,1209000,,2.000,,,130,41.06003,14.08872,85,LI,,,IT
grf-tacan-et,GRF,Grafenwohr TACAN,TACAN,ENROUTE,111800,55X,1079000,1016000,,4.000,,,130,49.69127,11.93830,1412,ET,,,DE
grt-tacan-li,GRT,Grottaglie TACAN,TACAN,ENROUTE,116800,115X,1139000,1202000,,4.000,,,40,40.48928,17.41089,242,LI,,,IT
gsb-tacan-k7,GSB,Seymour Johnson TACAN,TACAN,ENROUTE,116500,112X,1136000,1199000,,-8.000,,,40,35.33520,-77.97132,69,K7,,,US
gzr-tacan-eh,GZR,Gilze-Rijen TACAN,TACAN,ENROUTE,116400,111X,1135000,1198000,,1.000,,,40,51.56604,4.93352,46,EH,,,NL
hif-tacan-k2,HIF,Hill (Ogden) TACAN,TACAN,ENROUTE,111200,49X,1073000,1010000,,14.000,,,40,41.12050,-111.96368,4800,K2,,,US
hmn-tacan-k2,HMN,Holloman (Alamogordo) TACAN,TACAN,ENROUTE,114500,92X,1116000,1179000,,10.000,,,40,32.86210,-106.10912,4075,K2,,,US
hnt-tacan-et,HNT,Hohn TACAN,TACAN,ENROUTE,115300,100X,1124000,1187000,,2.000,,,130,54.31083,9.53873,79,ET,,,DE
hnu-tacan-lr,HNU,Heniu TACAN,TACAN,ENROUTE,133600,63X,1087000,1024000,,5.000,,,130,47.27750,24.73528,5400,LR,,,RO
hoz-tacan-et,HOZ,Holzdorf TACAN,TACAN,ENROUTE,117250,119Y,1143000,1080000,,4.000,,,130,51.76672,13.19896,309,ET,,,DE
hrt-tacan-k7,HRT,Hurlburt (Mary Esther) TACAN,TACAN,ENROUTE,110800,45X,1069000,1006000,,0.000,,,25,30.42800,-86.69033,35,K7,,,US
hst-tacan-k7,HST,Homestead TACAN,TACAN,ENROUTE,108200,19X,1043000,980000,,-6.000,,,25,25.48998,-80.37941,3,K7,,,US
hsu-tacan-rc,HSU,Hsinchu TACAN,TACAN,ENROUTE,116300,110X,1134000,1197000,,-3.000,,,130,24.82167,120.93750,25,RC,,,TW
hum-tacan-en,HUM,Hummelfjell TACAN,TACAN,ENROUTE,111000,47X,1071000,1008000,,4.000,,,130,62.43244,11.26842,5062,EN,,,NO
hvt-tacan-rj,HVT,Hachinohe TACAN,TACAN,ENROUTE,108600,23X,1047000,984000,,-8.000,,,130,40.55583,141.47000,151,RJ,,,JP
hxw-tacan-k5,HXW,Screaming Eagle TACAN,TACAN,ENROUTE,114900,96X,1120000,1183000,,-1.000,,,40,36.65930,-87.51114,543,K5,,,US
hye-tacan-lf,HYE,Hyeres Le Palyvestre TACAN,TACAN,ENROUTE,109000,27X,1051000,988000,,1.000,,,130,43.10031,6.14764,32,LF,,,FR
iab-tacan-k3,IAB,Mc Connell (Wichita) TACAN,TACAN,ENROUTE,116500,112X,1136000,1199000,,4.000,,,40,37.62185,-97.26819,1354,K3,,,US
iag-tacan-k6,IAG,Niagara Falls TACAN,TACAN,ENROUTE,111000,47X,1071000,1008000,,-10.000,,,25,43.11254,-78.96024,600,K6,,,US
ifn-tacan-oi,IFN,Esfahan TACAN,TACAN,ENROUTE,117100,118X,1142000,1205000,,4.000,,,40,32.74639,51.82472,5072,OI,,,IR
igl-tacan-et,IGL,Ingolstadt TACAN,TACAN,ENROUTE,111400,51X,1075000,1012000,,4.000,,,130,48.71804,11.56967,1237,ET,,,DE
ijt-tacan-rj,IJT,Iwoto TACAN,TACAN,ENROUTE,109800,35X,1059000,996000,,-3.000,,,130,24.78472,141.31583,356,RJ,,,JP
ins-tacan-k2,INS,Indian Springs TACAN,TACAN,ENROUTE,114000,87X,1111000,1174000,,15.000,,,25,36.58500,-115.67013,3101,K2,,,US
isa-tacan-li,ISA,Istrana TACAN,TACAN,ENROUTE,111700,54X,1078000,1015000,,2.000,,,130,45.68753,12.11708,190,LI,,,IT
ita-tacan-a1,ITA,Terra Nova Bay TACAN,TACAN,ENROUTE,109500,32X,1056000,993000,,0.000,,,130,-74.69144,164.10395,0,A1,,,AQ
itr-tacan-lf,ITR,Istres Le Tube TACAN,TACAN,ENROUTE,115700,104X,1128000,1191000,,1.000,,,130,43.52608,4.92692,77,LF,,,FR
iwt-tacan-rj,IWT,Kuga TACAN,TACAN,ENROUTE,114300,90X,1114000,1177000,,-7.000,,,130,34.07990,132.14731,2145,RJ,,,JP
iwy-tacan-wi,IWY,Iswahyudi (Madiun) TACAN,TACAN,ENROUTE,114800,95X,1119000,1182000,,0.000,,,130,-7.60667,111.43500,361,WI,,,ID
jat-tacan-rj,JAT,Kanoya TACAN,TACAN,ENROUTE,113800,85X,1109000,1172000,,-6.000,,,130,31.36278,130.83028,252,RJ,,,JP
jbt-tacan-rj,JBT,Omura TACAN,TACAN,ENROUTE,114050,87Y,1111000,1048000,,-6.000,,,130,32.92583,129.93222,80,RJ,,,JP
jdt-tacan-rj,JDT,Utsunomiya TACAN,TACAN,ENROUTE,112150,58Y,1082000,1145000,,-7.000,,,130,36.51694,139.87556,406,RJ,,,JP
jen-tacan-k4,JEN,Glen Rose TACAN,TACAN,ENROUTE,115000,97X,1121000,1184000,,6.000,,,40,32.15959,-97.87768,1300,K4,,,US
jet-tacan-rj,JET,Miho (Yonago) TACAN,TACAN,ENROUTE,116700,114X,1138000,1201000,,-8.000,,,130,35.53105,133.09409,1696,RJ,,,JP
jwn-tacan-rk,JWN,Choongwon TACAN,TACAN,ENROUTE,111300,50X,1074000,1011000,,-8.000,,,130,37.03309,127.89192,281,RK,,,KR
kaf-tacan-oa,KAF,Kandahar TACAN,TACAN,ENROUTE,112800,75X,1099000,1162000,,2.000,,,130,31.50306,65.84599,3315,OA,,,AF
kan-tacan-rk,KAN,Kangnung TACAN,TACAN,ENROUTE,111900,56X,1080000,1017000,,-7.000,,,130,37.75833,128.95167,18,RK,,,KR
kar-tacan-ek,KAR,Karup TACAN,TACAN,ENROUTE,110000,37X,1061000,998000,,2.000,,,130,56.29668,9.00860,173,EK,,,DK
khe-tacan-rk,KHE,Kimhae (Busan) TACAN,TACAN,ENROUTE,117000,117X,1141000,1204000,,-7.000,,,130,35.18083,128.94944,13,RK,,,KR
kih-tacan-oi,KIH,Kish Island TACAN,TACAN,ENROUTE,116500,112X,1136000,1199000,,2.000,,,40,26.52331,54.01003,90,OI,,,IR
kin-tacan-rc,KIN,Chin Men TACAN,TACAN,ENROUTE,109200,29X,1053000,990000,,-2.400,,,130,24.42572,118.34883,30,RC,,,TW
kjt-tacan-rj,KJT,Komatsushima TACAN,TACAN,ENROUTE,113550,82Y,1106000,1043000,,-7.000,,,130,34.00417,134.62556,60,RJ,,,JP
klc-tacan-lt,KLC,Kaklic TACAN,TACAN,ENROUTE,116800,115X,1139000,1202000,,4.000,,,130,38.51397,26.97383,23,LT,,,TR
klm-tacan-lg,KLM,Kalamata TACAN,TACAN,ENROUTE,115200,99X,1123000,1186000,,4.000,,,130,37.07800,22.02117,26,LG,,,GR
kon-tacan-lt,KON,Konya TACAN,TACAN,ENROUTE,114100,88X,1112000,1175000,,4.300,,,25,37.99717,32.56261,3428,LT,,,TR
ksy-tacan-k4,KSY,Kelly (San Antonio) TACAN,TACAN,ENROUTE,112000,57X,1081000,1018000,,4.000,,,40,29.39159,-98.58106,686,K4,,,US
ktr-tacan-lg,KTR,Kithira TACAN,TACAN,ENROUTE,109400,31X,1055000,992000,,4.000,,,130,36.30367,22.95167,1250,LG,,,GR
kut-tacan-lt,KUT,Kutahya TACAN,TACAN,ENROUTE,110800,45X,1069000,1006000,,5.000,,,130,39.42994,30.01294,3074,LT,,,TR
kwj-tacan-rk,KWJ,Gwangju TACAN,TACAN,ENROUTE,114100,88X,1112000,1175000,,-7.000,,,130,35.12028,126.80056,100,RK,,,KR
kzt-tacan-rj,KZT,Kisarazu TACAN,TACAN,ENROUTE,110050,37Y,1061000,1124000,,-7.000,,,150,35.39706,139.90450,93,RJ,,,JP
lag-tacan-et,LAG,Laage TACAN,TACAN,ENROUTE,108250,19Y,1043000,1106000,,4.000,,,130,53.91986,12.28642,190,ET,,,DE
laj-tacan-lp,LAJ,Lajes TACAN,TACAN,ENROUTE,110800,45X,1069000,1006000,,-11.000,,,130,38.71333,-27.11542,1800,LP,,,PT
lar-tacan-lg,LAR,Larissa TACAN,TACAN,ENROUTE,109000,27X,1051000,988000,,4.000,,,130,39.65700,22.50917,224,LG,,,GR
lch-tacan-et,LCH,Lechfeld TACAN,TACAN,ENROUTE,108800,25X,1049000,986000,,3.000,,,130,48.19043,10.85899,1841,ET,,,DE
lck-tacan-k5,LCK,Rickenbacker (Columbus) TACAN,TACAN,ENROUTE,134200,69X,1093000,1156000,,-5.000,,,25,39.80819,-82.92883,731,K5,,,US
ldv-tacan-lf,LDV,Landivisiau TACAN,TACAN,ENROUTE,115150,98Y,1122000,1059000,,-1.000,,,130,48.52828,-4.15631,377,LF,,,FR
lee-tacan-eg,LEE,Leeming TACAN,TACAN,ENROUTE,112600,73X,1097000,1160000,,-1.000,,,40,54.29707,-1.53687,132,EG,,,GB
lfi-tacan-k6,LFI,Langley (Hampton) TACAN,TACAN,ENROUTE,112300,70X,1094000,1157000,,-10.000,,,40,37.08556,-76.35940,7,K6,,,US
lgj-tacan-lr,LGJ,Lugoj TACAN,TACAN,ENROUTE,134000,67X,1091000,1154000,,5.000,,,130,45.71972,21.99500,800,LR,,,RO
lht-tacan-rj,LHT,Hamamatsu TACAN,TACAN,ENROUTE,114700,94X,1118000,1181000,,-6.300,,,130,34.74722,137.71000,150,RJ,,,JP
lkh-tacan-eg,LKH,Lakenheath TACAN,TACAN,ENROUTE,110200,39X,1063000,1000000,,-2.000,,,40,52.40642,0.54796,41,EG,,,GB
lki-tacan-k3,LKI,Lakeside (Duluth) TACAN,TACAN,ENROUTE,135400,11X,1035000,972000,,5.000,,,130,46.84385,-92.18592,1424,K3,,,US
lob-tacan-vt,LOB,Lob (Bangkok) TACAN,TACAN,ENROUTE,116800,115X,1139000,1202000,,0.000,,,40,14.87620,100.65986,123,VT,,,TH
loo-tacan-eg,LOO,Linton-On-Ouse TACAN,TACAN,ENROUTE,109000,27X,1051000,988000,,-1.000,,,130,54.05050,-1.24907,44,EG,,,GB
lor-tacan-lf,LOR,Lorient Lann Bihoue TACAN,TACAN,ENROUTE,115800,105X,1129000,1192000,,-1.000,,,130,47.76147,-3.44117,171,LF,,,FR
lrf-tacan-k4,LRF,Jacksonville TACAN,TACAN,ENROUTE,109200,29X,1053000,990000,,1.000,,,40,34.91806,-92.15767,359,K4,,,US
lsm-tacan-eg,LSM,Lossiemouth TACAN,TACAN,ENROUTE,111300,50X,1074000,1011000,,-2.000,,,130,57.71044,-3.32744,42,EG,,,GB
lst-tacan-en,LST,Lista TACAN,TACAN,ENROUTE,109300,30X,1054000,991000,,1.000,,,40,58.10149,6.62581,47,EN,,,NO
lsv-tacan-k2,LSV,Nellis (Las Vegas) TACAN,TACAN,ENROUTE,135500,12X,1036000,973000,,12.000,,,40,36.24466,-115.02508,1863,K2,,,US
luf-tacan-k2,LUF,Luke (Glendale) TACAN,TACAN,ENROUTE,113000,77X,1101000,1164000,,13.000,,,40,33.53768,-112.38021,1076,K2,,,US
luk-tacan-eg,LUK,Leuchars TACAN,TACAN,ENROUTE,110500,42X,1066000,1003000,,-2.000,,,130,56.37282,-2.86366,72,EG,,,GB
lwd-tacan-eh,LWD,Leeuwarden TACAN,TACAN,ENROUTE,114700,94X,1118000,1181000,,2.000,,,130,53.22363,5.75184,14,EH,,,NL
lxi-tacan-lf,LXI,Luxeuil Saint Sauveur TACAN,TACAN,ENROUTE,108200,19X,1043000,980000,,1.000,,,130,47.78317,6.35711,932,LF,,,FR
mam-tacan-eg,MAM,Marham TACAN,TACAN,ENROUTE,108700,24X,1048000,985000,,0.000,,,40,52.64699,0.56092,102,EG,,,GB
mcf-tacan-k7,MCF,Macdill (Tampa) TACAN,TACAN,ENROUTE,111000,47X,1071000,1008000,,-6.000,,,40,27.86116,-82.51351,11,K7,,,US
mdm-tacan-lf,MDM,Marsan (Mont-De-Marsan) TACAN,TACAN,ENROUTE,108700,24X,1048000,985000,,0.000,,,130,43.90994,-0.50439,240,LF,,,FR
mib-tacan-k3,MIB,Deering (Minot) TACAN,TACAN,ENROUTE,114900,96X,1120000,1183000,,7.000,,,130,48.41539,-101.36612,1654,K3,,,US
mij-tacan-k2,MIJ,Michael (Dugway) TACAN,TACAN,ENROUTE,113200,79X,1103000,1166000,,13.000,,,25,40.19179,-112.92235,4347,K2,,,US
mit-tacan-rj,MIT,Mishima TACAN,TACAN,ENROUTE,110600,43X,1067000,1004000,,-6.000,,,130,34.77167,131.13806,652,RJ,,,JP
mjf-tacan-k4,MJF,Arvilla (Greenville) TACAN,TACAN,ENROUTE,109600,33X,1057000,994000,,5.000,,,25,33.06627,-96.06140,550,K4,,,US
mkg-tacan-k5,MKG,Muskegon TACAN,TACAN,ENROUTE,115200,99X,1123000,1186000,,-1.000,,,40,43.16925,-86.03938,659,K5,,,US
mlc-tacan-k4,MLC,Mcalester TACAN,TACAN,ENROUTE,112000,57X,1081000,1018000,,8.000,,,40,34.84944,-95.78234,782,K4,,,US
mld-tacan-eg,MLD,Mildenhall TACAN,TACAN,ENROUTE,115900,106X,1130000,1193000,,-2.000,,,40,52.36334,0.48831,20,EG,,,GB
mlt-tacan-rj,MLT,Minami Torishima TACAN,TACAN,ENROUTE,108600,23X,1047000,984000,,0.000,,,150,24.28944,153.97750,40,RJ,,,JP
mnl-tacan-li,MNL,Amendola TACAN,TACAN,ENROUTE,115250,99Y,1123000,1060000,,4.000,,,40,41.54764,15.68981,217,LI,,,IT
mob-tacan-bi,MOB,Mob TACAN,TACAN,ENROUTE,114800,95X,1119000,1182000,,-13.000,,,25,65.63558,-18.06772,7,BI,,,IS
moj-tacan-lp,MOJ,Montijo TACAN,TACAN,ENROUTE,110000,37X,1061000,998000,,-3.000,,,130,38.70878,-9.03356,100,LP,,,PT
mos-tacan-en,MOS,Mosjoen TACAN,TACAN,ENROUTE,113900,86X,1110000,1173000,,6.000,,,130,65.87768,13.30854,2109,EN,,,NO
mpa-tacan-sf,MPA,Mount Pleasant TACAN,TACAN,ENROUTE,112200,59X,1083000,1020000,,3.000,,,130,-51.82408,-58.45694,230,SF,,,FK
mr-tacan-op,MR,Karachi TACAN,TACAN,ENROUTE,112400,71X,1095000,1158000,,0.000,,,125,24.89722,66.94139,35,OP,,,PK
mtc-tacan-k5,MTC,Selfridge (Mount Clemens) TACAN,TACAN,ENROUTE,133700,64X,1088000,1151000,,-6.000,,,25,42.61289,-82.83177,575,K5,,,US
mtn-tacan-k6,MTN,Martin (Baltimore) TACAN,TACAN,ENROUTE,134100,68X,1092000,1155000,,-11.000,,,125,39.33094,-76.41135,20,K6,,,US
mtr-tacan-lp,MTR,Monte Real TACAN,TACAN,ENROUTE,109600,33X,1057000,994000,,-3.000,,,130,39.83261,-8.89014,300,LP,,,PT
muo-tacan-k1,MUO,Mountain Home TACAN,TACAN,ENROUTE,114000,87X,1111000,1174000,,13.000,,,40,43.04049,-115.87460,2999,K1,,,US
mxf-tacan-k7,MXF,Maxwell (Montgomery) TACAN,TACAN,ENROUTE,115000,97X,1121000,1184000,,-2.000,,,40,32.37937,-86.36836,157,K7,,,US
mxr-tacan-he,MXR,Almaza TACAN,TACAN,ENROUTE,116300,110X,1134000,1197000,,4.000,,,40,30.09219,31.35728,304,HE,,,EG
mxt-tacan-rj,MXT,Matsushima TACAN,TACAN,ENROUTE,114300,90X,1114000,1177000,,-8.000,,,130,38.40389,141.22556,7,RJ,,,JP
nay-tacan-lf,NAY,Nancy Ochey TACAN,TACAN,ENROUTE,116800,115X,1139000,1202000,,1.000,,,130,48.58364,5.95183,1123,LF,,,FR
nbc-tacan-k7,NBC,Beaufort TACAN,TACAN,ENROUTE,110500,42X,1066000,1003000,,-5.000,,,40,32.47903,-80.71733,21,K7,,,US
nbs-tacan-ph,NBS,Barking Sands (Kauai I.) TACAN,TACAN,ENROUTE,112600,73X,1097000,1160000,,10.000,,,130,22.03764,-159.78519,26,PH,,,US
nbw-tacan-mu,NBW,Navy Guantanamo Bay TACAN,TACAN,ENROUTE,114600,93X,1117000,1180000,,-8.000,,,150,19.91008,-75.21843,133,MU,,,CU
nca-tacan-k7,NCA,New River TACAN,TACAN,ENROUTE,115400,101X,1125000,1188000,,-8.000,,,25,34.70714,-77.44030,26,K7,,,US
ndo-tacan-et,NDO,Nordholz TACAN,TACAN,ENROUTE,117100,118X,1142000,1205000,,3.000,,,130,53.76898,8.65355,120,ET,,,DE
nel-tacan-k6,NEL,Lakehurst TACAN,TACAN,ENROUTE,111800,55X,1079000,1016000,,-11.000,,,25,40.03697,-74.35314,87,K6,,,US
neu-tacan-et,NEU,Neuburg TACAN,TACAN,ENROUTE,108900,26X,1050000,987000,,3.000,,,40,48.71253,11.21097,1297,ET,,,DE
neu-tacan-rj,NEU,Iwakuni TACAN,TACAN,ENROUTE,109800,35X,1059000,996000,,-6.000,,,130,34.15841,132.24550,4,RJ,,,JP
nfe-tacan-k6,NFE,Chesapeake TACAN,TACAN,ENROUTE,108250,19Y,1043000,1106000,,-10.000,,,25,36.69744,-76.13703,37,K6,,,US
nfg-tacan-k2,NFG,Camp Pendleton (Oceanside) TACAN,TACAN,ENROUTE,111800,55X,1079000,1016000,,13.000,,,25,33.27459,-117.38639,502,K2,,,US
nfl-tacan-k2,NFL,Fallon TACAN,TACAN,ENROUTE,113500,82X,1106000,1169000,,14.000,,,130,39.41691,-118.70507,3930,K2,,,US
nfo-tacan-ro,NFO,Futenma (Okinawa I.) TACAN,TACAN,ENROUTE,110500,42X,1066000,1003000,,-4.000,,,130,26.26888,127.74304,244,RO,,,JP
nfw-tacan-k4,NFW,NAS JRB Fort Worth (Ft Worth) TACAN,TACAN,ENROUTE,108700,24X,1048000,985000,,4.000,,,40,32.77139,-97.43930,631,K4,,,US
ngf-tacan-ph,NGF,Kaneohe Bay (Mokapu) TACAN,TACAN,ENROUTE,114600,93X,1117000,1180000,,10.000,,,130,21.45620,-157.75676,53,PH,,,US
ngp-tacan-k4,NGP,Truax (Corpus Christi) TACAN,TACAN,ENROUTE,114000,87X,1111000,1174000,,3.000,,,40,27.68628,-97.29474,17,K4,,,US
ngs-tacan-k7,NGS,Santa Rosa (Milton) TACAN,TACAN,ENROUTE,133600,63X,1087000,1024000,,-2.000,,,40,30.61516,-86.93737,147,K7,,,US
ngu-tacan-k6,NGU,Chambers (Norfolk) TACAN,TACAN,ENROUTE,113950,86Y,1110000,1047000,,-10.000,,,40,36.94004,-76.27728,29,K6,,,US
nhk-tacan-k6,NHK,NAS Patuxent River TACAN,TACAN,ENROUTE,110250,39Y,1063000,1126000,,-10.000,,,40,38.28104,-76.41062,17,K6,,,US
nht-tacan-rj,NHT,Nyutabaru TACAN,TACAN,ENROUTE,115000,97X,1121000,1184000,,-6.000,,,130,32.08028,131.45361,255,RJ,,,JP
nid-tacan-k2,NID,China Lake TACAN,TACAN,ENROUTE,111600,53X,1077000,1014000,,14.000,,,40,35.68792,-117.69050,2227,K2,,,US
nip-tacan-k7,NIP,Jacksonville TACAN,TACAN,ENROUTE,108200,19X,1043000,980000,,-6.000,,,40,30.23485,-81.67506,10,K7,,,US
nja-tacan-rj,NJA,Atsugi TACAN,TACAN,ENROUTE,115100,98X,1122000,1185000,,-6.300,,,130,35.44556,139.45389,214,RJ,,,JP
njk-tacan-k2,NJK,El Centro TACAN,TACAN,ENROUTE,111000,47X,1071000,1008000,,11.000,,,40,32.83178,-115.68117,-49,K2,,,US
njt-tacan-rj,NJT,Niijima TACAN,TACAN,ENROUTE,116500,112X,1136000,1199000,,-7.000,,,130,34.34777,139.27179,994,RJ,,,JP
nkt-tacan-k7,NKT,Cherry Point TACAN,TACAN,ENROUTE,112800,75X,1099000,1162000,,-9.000,,,40,34.90226,-76.87479,25,K7,,,US
nkx-tacan-k2,NKX,Miramar (San Diego) TACAN,TACAN,ENROUTE,109600,33X,1057000,994000,,12.000,,,40,32.86975,-117.15486,429,K2,,,US
nlc-tacan-k2,NLC,Navy Lemoore TACAN,TACAN,ENROUTE,113300,80X,1104000,1167000,,14.000,,,130,36.34412,-119.96633,227,K2,,,US
nmm-tacan-k7,NMM,Meridian TACAN,TACAN,ENROUTE,111900,56X,1080000,1017000,,-2.000,,,40,32.57834,-88.54523,308,K7,,,US
nog-tacan-k4,NOG,Orange Grove TACAN,TACAN,ENROUTE,133600,63X,1087000,1024000,,5.000,,,130,27.89532,-98.04263,236,K4,,,US
npa-tacan-k7,NPA,Pensacola TACAN,TACAN,ENROUTE,117200,119X,1143000,1206000,,1.000,,,40,30.35794,-87.31650,17,K7,,,US
nqi-tacan-k4,NQI,Kingsville TACAN,TACAN,ENROUTE,117800,125X,1149000,1212000,,4.000,,,130,27.49924,-97.80560,45,K4,,,US
nqx-tacan-k7,NQX,Navy Key West TACAN,TACAN,ENROUTE,113100,78X,1102000,1165000,,-6.000,,,130,24.58025,-81.68245,41,K7,,,US
nrb-tacan-k7,NRB,Mayport TACAN,TACAN,ENROUTE,111400,51X,1075000,1012000,,-6.000,,,40,30.38861,-81.42308,81,K7,,,US
nrs-tacan-k2,NRS,Imperial Beach TACAN,TACAN,ENROUTE,109200,29X,1053000,990000,,11.000,,,40,32.56417,-117.10975,21,K2,,,US
nsd-tacan-k2,NSD,Beaver (San Diego) TACAN,TACAN,ENROUTE,113900,86X,1110000,1173000,,14.000,,,125,32.87990,-118.44091,2000,K2,,,US
nse-tacan-k7,NSE,Whiting (Milton) TACAN,TACAN,ENROUTE,112300,70X,1094000,1157000,,-2.000,,,40,30.72401,-87.01806,178,K7,,,US
nsi-tacan-k2,NSI,San Nicolas TACAN,TACAN,ENROUTE,110200,39X,1063000,1000000,,12.000,,,40,33.23508,-119.45839,522,K2,,,US
nsy-tacan-li,NSY,Sigonella TACAN,TACAN,ENROUTE,111200,49X,1073000,1010000,,3.000,,,130,37.40033,14.92153,98,LI,,,IT
ntd-tacan-k2,NTD,Point Mugu (Oxnard) TACAN,TACAN,ENROUTE,110600,43X,1067000,1004000,,12.000,,,40,34.12329,-119.12198,7,K2,,,US
ntu-tacan-k6,NTU,Oceana TACAN,TACAN,ENROUTE,116600,113X,1137000,1200000,,-10.000,,,130,36.82422,-76.03705,17,K6,,,US
nuc-tacan-k2,NUC,San Clemente TACAN,TACAN,ENROUTE,117600,123X,1147000,1210000,,12.000,,,40,33.02693,-118.57960,160,K2,,,US
nud-tacan-pa,NUD,Adak TACAN,TACAN,ENROUTE,113000,77X,1101000,1164000,,7.000,,,130,51.87131,-176.67412,379,PA,,,US
nuq-tacan-k2,NUQ,Moffett (Mountain View) TACAN,TACAN,ENROUTE,117600,123X,1147000,1210000,,17.000,,,40,37.43240,-122.05754,4,K2,,,US
nuw-tacan-k1,NUW,Whidbey Island (Oak Harbo TACAN,TACAN,ENROUTE,113800,85X,1109000,1172000,,18.000,,,130,48.35493,-122.66179,51,K1,,,US
nwa-tacan-ym,NWA,Nowra TACAN,TACAN,ENROUTE,116400,111X,1135000,1198000,,13.000,,,130,-34.95006,150.53328,356,YM,,,AU
nyl-tacan-k2,NYL,Yuma TACAN,TACAN,ENROUTE,113700,84X,1108000,1171000,,11.000,,,40,32.64680,-114.61346,193,K2,,,US
nzc-tacan-k7,NZC,Cecil TACAN,TACAN,ENROUTE,114100,88X,1112000,1175000,,-4.000,,,130,30.22035,-81.87091,70,K7,,,US
nzy-tacan-k2,NZY,North Island (San Diego) TACAN,TACAN,ENROUTE,117000,117X,1141000,1204000,,11.000,,,40,32.70254,-117.21623,17,K2,,,US
oct-tacan-rj,OCT,Ozuki (Shimonoseki) TACAN,TACAN,ENROUTE,112150,58Y,1082000,1145000,,-6.000,,,130,34.04417,131.04972,50,RJ,,,JP
odh-tacan-eg,ODH,Odiham TACAN,TACAN,ENROUTE,109600,33X,1057000,994000,,0.000,,,40,51.23291,-0.94848,410,EG,,,GB
off-tacan-k3,OFF,Offutt (Omaha) TACAN,TACAN,ENROUTE,111700,54X,1078000,1015000,,5.000,,,40,41.11723,-95.90001,971,K3,,,US
ojt-tacan-rj,OJT,Onjuku TACAN,TACAN,ENROUTE,115700,104X,1128000,1191000,,-6.000,,,130,35.18414,140.37143,365,RJ,,,JP
okb-tacan-oa,OKB,Kabul TACAN,TACAN,ENROUTE,133800,65X,1089000,1152000,,3.000,,,25,34.56598,69.20598,5875,OA,,,AF
okt-tacan-rj,OKT,Okayama TACAN,TACAN,ENROUTE,115900,106X,1130000,1193000,,-7.000,,,130,34.67128,134.01507,791,RJ,,,JP
omd-tacan-oi,OMD,Omidiyeh TACAN,TACAN,ENROUTE,113600,83X,1107000,1170000,,3.000,,,40,30.85194,49.50528,85,OI,,,IR
omt-tacan-rj,OMT,Ominato TACAN,TACAN,ENROUTE,114850,95Y,1119000,1056000,,-8.000,,,130,41.23083,141.13583,12,RJ,,,JP
orb-tacan-or,ORB,Orbr TACAN,TACAN,ENROUTE,111000,47X,1071000,1008000,,0.000,,,125,36.53138,44.34472,2125,OR,,,IQ
org-tacan-lf,ORG,Orange TACAN,TACAN,ENROUTE,109400,31X,1055000,992000,,2.000,,,130,44.13931,4.86606,191,LF,,,FR
orl-tacan-en,ORL,Orland TACAN,TACAN,ENROUTE,111400,51X,1075000,1012000,,4.000,,,130,63.68109,9.62371,49,EN,,,NO
osb-tacan-et,OSB,Osnabruck TACAN,TACAN,ENROUTE,108350,20Y,1044000,1107000,,3.000,,,130,52.20014,8.28552,417,ET,,,DE
ovr-tacan-lp,OVR,Ovar TACAN,TACAN,ENROUTE,110600,43X,1067000,1004000,,-3.000,,,40,40.88708,-8.64339,120,LP,,,PT
oya-tacan-en,OYA,Andoya TACAN,TACAN,ENROUTE,109100,28X,1052000,989000,,8.000,,,130,69.28628,16.14441,30,EN,,,NO
pam-tacan-k7,PAM,Tyndall (Panama City) TACAN,TACAN,ENROUTE,133700,64X,1088000,1151000,,-4.000,,,130,30.07401,-85.57241,9,K7,,,US
pck-tacan-vt,PCK,Prachuap Khiri Khan TACAN,TACAN,ENROUTE,113700,84X,1108000,1171000,,-0.400,,,130,11.78678,99.79173,33,VT,,,TH
pea-tacan-ym,PEA,Pearce TACAN,TACAN,ENROUTE,112800,75X,1099000,1162000,,-1.000,,,130,-31.67389,116.01750,177,YM,,,AU
pia-tacan-li,PIA,Piacenza TACAN,TACAN,ENROUTE,117400,121X,1145000,1208000,,2.000,,,40,44.91733,9.72047,486,LI,,,IT
pin-tacan-li,PIN,Pisa TACAN,TACAN,ENROUTE,108300,20X,1044000,981000,,2.000,,,40,43.72028,10.43233,75,LI,,,IT
pit-tacan-rc,PIT,Pingtung TACAN,TACAN,ENROUTE,109600,33X,1057000,994000,,-3.000,,,130,22.67073,120.46032,103,RC,,,TW
pla-tacan-ws,PLA,Paya Lebar (Singapore) TACAN,TACAN,ENROUTE,116300,110X,1134000,1197000,,0.000,,,130,1.37333,103.91417,65,WS,,,SG
pob-tacan-k7,POB,Pope (Fayetteville) TACAN,TACAN,ENROUTE,113800,85X,1109000,1172000,,-7.000,,,130,35.16842,-79.01957,205,K7,,,US
prd-tacan-rp,PRD,Laoag TACAN,TACAN,ENROUTE,114100,88X,1112000,1175000,,0.000,,,130,18.40000,120.63333,400,RP,,,PH
prv-tacan-lg,PRV,Preveza TACAN,TACAN,ENROUTE,109200,29X,1053000,990000,,4.000,,,130,38.91972,20.75778,23,LG,,,GR
raa-tacan-or,RAA,Al Asad (Al-Anbar) TACAN,TACAN,ENROUTE,113300,80X,1104000,1167000,,5.000,,,40,33.78739,42.44351,586,OR,,,IQ
rca-tacan-k3,RCA,Ellsworth (Rapid City) TACAN,TACAN,ENROUTE,108800,25X,1049000,986000,,8.000,,,40,44.13909,-103.10174,3197,K3,,,US
rdr-tacan-k3,RDR,Red River (Grand Forks) TACAN,TACAN,ENROUTE,116400,111X,1135000,1198000,,6.000,,,130,47.95706,-97.40602,904,K3,,,US
ric-tacan-ym,RIC,Richmond TACAN,TACAN,ENROUTE,110700,44X,1068000,1005000,,12.000,,,130,-33.60739,150.79889,200,YM,,,AU
riv-tacan-k2,RIV,March (Riverside) TACAN,TACAN,ENROUTE,113000,77X,1101000,1164000,,14.000,,,40,33.90647,-117.27504,1543,K2,,,US
riv-tacan-li,RIV,Rivolto TACAN,TACAN,ENROUTE,110000,37X,1061000,998000,,3.000,,,130,45.99572,13.08839,269,LI,,,IT
rms-tacan-et,RMS,Ramstein TACAN,TACAN,ENROUTE,113400,81X,1105000,1168000,,0.000,,,130,49.43473,7.58565,762,ET,,,DE
rxt-tacan-rp,RXT,Roxas TACAN,TACAN,ENROUTE,113300,80X,1104000,1167000,,0.000,,,130,11.60000,122.75000,10,RP,,,PH
ryg-tacan-en,RYG,Rygge TACAN,TACAN,ENROUTE,113500,82X,1106000,1169000,,4.000,,,130,59.36977,10.81124,214,EN,,,NO
sal-tacan-lf,SAL,Salon De Provence TACAN,TACAN,ENROUTE,115150,98Y,1122000,1059000,,2.000,,,130,43.61183,5.10281,253,LF,,,FR
san-tacan-rk,SAN,Seosan TACAN,TACAN,ENROUTE,111500,52X,1076000,1013000,,-7.000,,,130,36.70898,126.48183,40,RK,,,KR
saz-tacan-li,SAZ,Sarzana TACAN,TACAN,ENROUTE,111100,48X,1072000,1009000,,1.000,,,130,44.07556,9.93889,47,LI,,,IT
scn-tacan-rk,SCN,Sacheon TACAN,TACAN,ENROUTE,110000,37X,1061000,998000,,-6.900,,,130,35.09833,128.07833,25,RK,,,KR
sdi-tacan-lf,SDI,Saint Dizier Robinson TACAN,TACAN,ENROUTE,114000,87X,1111000,1174000,,2.000,,,130,48.63700,4.88919,500,LF,,,FR
sgr-tacan-yb,SGR,Scherger TACAN,TACAN,ENROUTE,113300,80X,1104000,1167000,,5.000,,,125,-12.61970,142.08890,242,YB,,,AU
shp-tacan-k4,SHP,Sheppard (Wichita Falls) TACAN,TACAN,ENROUTE,110800,45X,1069000,1006000,,5.000,,,40,33.98271,-98.48767,1020,K4,,,US
sht-tacan-rj,SHT,Shimofusa (Matsudo) TACAN,TACAN,ENROUTE,108200,19X,1043000,980000,,-7.000,,,130,35.80194,140.00972,122,RJ,,,JP
sig-tacan-li,SIG,Sigonella TACAN,TACAN,ENROUTE,111600,53X,1077000,1014000,,3.000,,,130,37.39586,14.97097,120,LI,,,IT
ska-tacan-k1,SKA,Fairchild (Spokane) TACAN,TACAN,ENROUTE,111400,51X,1075000,1012000,,16.000,,,40,47.61012,-117.66207,2438,K1,,,US
ske-tacan-k5,SKE,Scott (Belleville) TACAN,TACAN,ENROUTE,112200,59X,1083000,1020000,,-2.000,,,25,38.54536,-89.85165,440,K5,,,US
sky-tacan-lg,SKY,Skyros TACAN,TACAN,ENROUTE,116100,108X,1132000,1195000,,4.000,,,130,38.97633,24.49167,44,LG,,,GR
soa-tacan-en,SOA,Sola TACAN,TACAN,ENROUTE,112250,59Y,1083000,1146000,,1.000,,,130,58.87585,5.63534,62,EN,,,NO
sol-tacan-rk,SOL,Seoul TACAN,TACAN,ENROUTE,111200,49X,1073000,1010000,,-8.000,,,130,37.44842,127.11156,67,RK,,,KR
spa-tacan-et,SPA,Spangdahlem TACAN,TACAN,ENROUTE,109500,32X,1056000,993000,,0.000,,,40,49.97899,6.69768,1153,ET,,,DE
sqq-tacan-ey,SQQ,Siauliai TACAN,TACAN,ENROUTE,116300,110X,1134000,1197000,,9.000,,,130,55.89047,23.40239,500,EY,,,LT
srt-tacan-vt,SRT,Surat Thani TACAN,TACAN,ENROUTE,113200,79X,1103000,1166000,,-0.700,,,125,9.13111,99.13472,19,VT,,,TH
ssc-tacan-k7,SSC,Shaw (Sumter) TACAN,TACAN,ENROUTE,110100,38X,1062000,999000,,-8.000,,,40,33.97786,-80.46624,236,K7,,,US
ssj-tacan-le,SSJ,Son San Juan/Palma De Mallorca TACAN,TACAN,ENROUTE,108400,21X,1045000,982000,,1.000,,,40,39.55969,2.73325,49,LE,,,ES
std-tacan-sv,STD,Santo Domingo TACAN,TACAN,ENROUTE,115300,100X,1124000,1187000,,-6.000,,,130,7.57000,-72.01833,1083,SV,,,VE
sto-tacan-lp,STO,Porto Santo TACAN,TACAN,ENROUTE,116300,110X,1134000,1197000,,-9.000,,,130,33.07167,-16.36167,320,LP,,,PT
suu-tacan-k2,SUU,Travis (Fairfield) TACAN,TACAN,ENROUTE,116600,113X,1137000,1200000,,17.000,,,40,38.24556,-121.94508,31,K2,,,US
swg-tacan-et,SWG,Schleswig TACAN,TACAN,ENROUTE,111800,55X,1079000,1016000,,3.000,,,130,54.46355,9.51656,155,ET,,,DE
swn-tacan-rk,SWN,Suwon TACAN,TACAN,ENROUTE,108500,22X,1046000,983000,,-7.000,,,130,37.23991,127.00147,86,RK,,,KR
syt-tacan-lt,SYT,Sivrihisar (Eskisehir) TACAN,TACAN,ENROUTE,109200,29X,1053000,990000,,5.000,,,130,39.44589,31.37408,3222,LT,,,TR
sza-tacan-lf,SZA,Solenzara TACAN,TACAN,ENROUTE,114000,87X,1111000,1174000,,3.000,,,130,41.93747,9.39956,77,LF,,,FR
szl-tacan-k3,SZL,Whiteman (Knob Noster) TACAN,TACAN,ENROUTE,109800,35X,1059000,996000,,1.000,,,40,38.73570,-93.55043,850,K3,,,US
tab-tacan-le,TAB,Albacete TACAN,TACAN,ENROUTE,108000,17X,1041000,978000,,-1.000,,,40,38.94572,-1.86344,2264,LE,,,ES
tas-tacan-ep,TAS,Lask TACAN,TACAN,ENROUTE,108550,22Y,1046000,1109000,,6.000,,,25,51.54994,19.17822,634,EP,,,PL
tbc-tacan-le,TBC,Badajoz TACAN,TACAN,ENROUTE,108800,25X,1049000,986000,,-2.000,,,40,38.89161,-6.81867,607,LE,,,ES
tbr-tacan-le,TBR,Bardenas Reales TACAN,TACAN,ENROUTE,108600,23X,1047000,984000,,0.000,,,40,42.19689,-1.47575,974,LE,,,ES
tcm-tacan-k1,TCM,Mc Chord (Tacoma) TACAN,TACAN,ENROUTE,109600,33X,1057000,994000,,15.000,,,25,47.14767,-122.47504,283,K1,,,US
tcw-tacan-ep,TCW,Cewice TACAN,TACAN,ENROUTE,113950,86Y,1110000,1047000,,5.000,,,25,54.41481,17.76375,505,EP,,,PL
tda-tacan-ep,TDA,Darlowo TACAN,TACAN,ENROUTE,116850,115Y,1139000,1076000,,5.000,,,25,54.40481,16.35817,10,EP,,,PL
tdl-tacan-yb,TDL,Tindal (Katherine) TACAN,TACAN,ENROUTE,112300,70X,1094000,1157000,,3.000,,,130,-14.52344,132.37300,496,YB,,,AU
tdn-tacan-ep,TDN,Deblin TACAN,TACAN,ENROUTE,108800,25X,1049000,986000,,6.000,,,25,51.55381,21.89447,394,EP,,,PL
tet-tacan-rj,TET,Tateyama TACAN,TACAN,ENROUTE,108800,25X,1049000,986000,,-6.000,,,130,34.97083,139.83806,517,RJ,,,JP
tgn-tacan-gc,TGN,Gran Canaria TACAN,TACAN,ENROUTE,115600,103X,1127000,1190000,,-5.000,,,40,27.92342,-15.38950,128,GC,,,ES
tgo-tacan-et,TGO,Tango TACAN,TACAN,ENROUTE,112500,72X,1096000,1159000,,2.000,,,130,48.61841,9.25921,1246,ET,,,DE
tgr-tacan-le,TGR,Granada TACAN,TACAN,ENROUTE,113100,78X,1102000,1165000,,-2.000,,,40,37.13253,-3.63381,2268,LE,,,ES
tgr-tacan-lg,TGR,Tanagra TACAN,TACAN,ENROUTE,108400,21X,1045000,982000,,4.000,,,130,38.34950,23.51750,790,LG,,,GR
thr-tacan-oi,THR,Tehran TACAN,TACAN,ENROUTE,113300,80X,1104000,1167000,,5.000,,,40,35.69800,51.28042,4001,OI,,,IR
tik-tacan-k4,TIK,Tinker (Oklahoma City) TACAN,TACAN,ENROUTE,115800,105X,1129000,1192000,,3.000,,,25,35.43651,-97.37969,1251,K4,,,US
tir-tacan-ep,TIR,Inowroclaw TACAN,TACAN,ENROUTE,109250,29Y,1053000,1116000,,5.000,,,25,52.82386,18.32533,364,EP,,,PL
tit-tacan-ro,TIT,Chinen TACAN,TACAN,ENROUTE,114200,89X,1113000,1176000,,-4.000,,,130,26.16067,127.80109,543,RO,,,JP
tjz-tacan-le,TJZ,Torrejon (Madrid) TACAN,TACAN,ENROUTE,112500,72X,1096000,1159000,,-1.000,,,130,40.49889,-3.44550,1969,LE,,,ES
tkl-tacan-vt,TKL,Takhli TACAN,TACAN,ENROUTE,114800,95X,1119000,1182000,,-1.000,,,130,15.27476,100.29906,114,VT,,,TH
tks-tacan-ep,TKS,Krzesiny (Poznan) TACAN,TACAN,ENROUTE,111500,52X,1076000,1013000,,4.000,,,25,52.33331,16.96767,276,EP,,,PL
tkt-tacan-rj,TKT,Tokachi TACAN,TACAN,ENROUTE,111800,55X,1079000,1016000,,-9.000,,,150,42.89333,143.16583,336,RJ,,,JP
tly-tacan-ep,TLY,Leczyca TACAN,TACAN,ENROUTE,110100,38X,1062000,999000,,5.000,,,40,52.00111,19.14408,423,EP,,,PL
tlz-tacan-gc,TLZ,Lanzarote TACAN,TACAN,ENROUTE,114700,94X,1118000,1181000,,-4.000,,,40,28.94483,-13.60700,65,GC,,,ES
tmb-tacan-ep,TMB,Malbork TACAN,TACAN,ENROUTE,117100,118X,1142000,1205000,,6.000,,,25,54.02494,19.13756,34,EP,,,PL
tmi-tacan-ep,TMI,Miroslawiec TACAN,TACAN,ENROUTE,115350,100Y,1124000,1061000,,5.000,,,25,53.40164,16.07161,495,EP,,,PL
tmm-tacan-ep,TMM,Minsk Mazowiecki TACAN,TACAN,ENROUTE,117050,117Y,1141000,1078000,,6.000,,,25,52.19444,21.66553,604,EP,,,PL
tng-tacan-ws,TNG,Tengah (Singapore) TACAN,TACAN,ENROUTE,113900,86X,1110000,1173000,,0.000,,,130,1.39333,103.71167,50,WS,,,SG
tnt-tacan-rj,TNT,Tachikawa TACAN,TACAN,ENROUTE,115800,105X,1129000,1192000,,-7.000,,,130,35.71657,139.39949,390,RJ,,,JP
tol-tacan-k5,TOL,Toledo TACAN,TACAN,ENROUTE,112500,72X,1096000,1159000,,-5.000,,,40,41.59371,-83.79936,671,K5,,,US
tow-tacan-ep,TOW,Oksywie (Gdynia) TACAN,TACAN,ENROUTE,113500,82X,1106000,1169000,,5.000,,,25,54.58225,18.50644,148,EP,,,PL
tpr-tacan-li,TPR,Pratica Di Mare TACAN,TACAN,ENROUTE,108700,24X,1048000,985000,,3.000,,,130,41.62156,12.49378,135,LI,,,IT
tpw-tacan-ep,TPW,Powidz TACAN,TACAN,ENROUTE,115550,102Y,1126000,1063000,,5.000,,,40,52.37697,17.85036,381,EP,,,PL
tqt-tacan-rj,TQT,Tsuiki TACAN,TACAN,ENROUTE,110400,41X,1065000,1002000,,-7.000,,,130,33.68823,131.03582,55,RJ,,,JP
trl-tacan-le,TRL,Alcantarilla (Murcia) TACAN,TACAN,ENROUTE,116600,113X,1137000,1200000,,-1.000,,,130,37.95031,-1.23006,295,LE,,,ES
trm-tacan-lp,TRM,Lajes TACAN,TACAN,ENROUTE,116200,109X,1133000,1196000,,-11.000,,,130,38.76025,-27.09144,200,LP,,,PT
tsc-tacan-le,TSC,Salamanca TACAN,TACAN,ENROUTE,113300,80X,1104000,1167000,,-2.000,,,25,40.95522,-5.50247,2657,LE,,,ES
tsn-tacan-ep,TSN,Swidwin TACAN,TACAN,ENROUTE,116000,107X,1131000,1194000,,5.000,,,25,53.78289,15.85200,394,EP,,,PL
ttg-tacan-rc,TTG,Taitung TACAN,TACAN,ENROUTE,113800,85X,1109000,1172000,,-2.000,,,130,22.80361,121.18556,121,RC,,,TW
ttm-tacan-ep,TTM,Tomaszow Mazowiecki TACAN,TACAN,ENROUTE,110700,44X,1068000,1005000,,6.000,,,40,51.58761,20.09350,729,EP,,,PL
tur-tacan-lf,TUR,Tours Val De Loire TACAN,TACAN,ENROUTE,113800,85X,1109000,1172000,,0.000,,,130,47.42219,0.73089,387,LF,,,FR
tvl-tacan-yb,TVL,Townsville TACAN,TACAN,ENROUTE,113500,82X,1106000,1169000,,7.000,,,130,-19.27900,146.74253,40,YB,,,AU
tyn-tacan-rc,TYN,Taoyuan TACAN,TACAN,ENROUTE,115800,105X,1129000,1192000,,-3.000,,,130,25.06250,121.24467,147,RC,,,TW
tzt-tacan-rj,TZT,Takamatsu TACAN,TACAN,ENROUTE,117500,122X,1146000,1209000,,-7.000,,,130,34.32617,133.95384,1607,RJ,,,JP
uam-tacan-pg,UAM,Andersen (Yigo) TACAN,TACAN,ENROUTE,111700,54X,1078000,1015000,,2.000,,,130,13.59122,144.94658,616,PG,,,GU
uau-tacan-cy,UAU,Mckay (Thunder Bay) TACAN,TACAN,ENROUTE,112500,72X,1096000,1159000,,-5.000,,,130,48.37342,-89.32878,665,CY,,,CA
uaw-tacan-cy,UAW,Shearwater (Halifax) TACAN,TACAN,ENROUTE,110100,38X,1062000,999000,,-19.000,,,130,44.63315,-63.49996,175,CY,,,CA
ult-tacan-cy,ULT,Alert TACAN,TACAN,ENROUTE,110700,44X,1068000,1005000,,0.000,,,130,82.51731,-62.31153,72,CY,,,CA
uod-tacan-cy,UOD,Cold Lake TACAN,TACAN,ENROUTE,113500,82X,1106000,1169000,,13.000,,,130,54.40861,-110.29583,1806,CY,,,CA
uqq-tacan-cy,UQQ,Comox TACAN,TACAN,ENROUTE,110400,41X,1065000,1002000,,15.000,,,130,49.71250,-124.89444,80,CY,,,CA
utr-tacan-cy,UTR,Trenton TACAN,TACAN,ENROUTE,109700,34X,1058000,995000,,-12.000,,,130,44.12139,-77.52889,285,CY,,,CA
uyr-tacan-cy,UYR,Goose (Goose Bay) TACAN,TACAN,ENROUTE,110300,40X,1064000,1001000,,-21.000,,,130,53.31972,-60.41667,200,CY,,,CA
uzx-tacan-cy,UZX,Greenwood TACAN,TACAN,ENROUTE,117600,123X,1147000,1210000,,-17.000,,,125,44.98333,-64.91944,117,CY,,,CA
vad-tacan-k7,VAD,Moody (Valdosta) TACAN,TACAN,ENROUTE,113300,80X,1104000,1167000,,-3.000,,,130,30.96008,-83.19345,218,K7,,,US
vae-tacan-en,VAE,Vaernes TACAN,TACAN,ENROUTE,109600,33X,1057000,994000,,4.000,,,40,63.45520,10.90042,37,EN,,,NO
vbg-tacan-k2,VBG,Vandenberg (Lompoc) TACAN,TACAN,ENROUTE,112250,59Y,1083000,1146000,,12.000,,,40,34.73256,-120.58306,311,K2,,,US
vct-tacan-rj,VCT,Shimotsushima TACAN,TACAN,ENROUTE,116850,115Y,1139000,1076000,,-6.000,,,130,34.13000,129.28333,601,RJ,,,JP
vkl-tacan-eh,VKL,Volkel TACAN,TACAN,ENROUTE,108300,20X,1044000,981000,,2.000,,,130,51.65543,5.70698,84,EH,,,NL
vln-tacan-eg,VLN,Yeovilton TACAN,TACAN,ENROUTE,111000,47X,1071000,1008000,,-1.000,,,130,51.00501,-2.63874,113,EG,,,GB
vok-tacan-k5,VOK,Volk (Camp Douglas) TACAN,TACAN,ENROUTE,110400,41X,1065000,1002000,,0.000,,,40,43.94283,-90.25905,960,K5,,,US
vyl-tacan-eg,VYL,Valley TACAN,TACAN,ENROUTE,108400,21X,1045000,982000,,-2.000,,,40,53.25742,-4.54412,106,EG,,,GB
wad-tacan-eg,WAD,Waddington TACAN,TACAN,ENROUTE,117100,118X,1142000,1205000,,0.000,,,40,53.16535,-0.52671,231,EG,,,GB
wdt-tacan-eh,WDT,Woensdrecht TACAN,TACAN,ENROUTE,115000,97X,1121000,1184000,,2.000,,,130,51.44740,4.34392,94,EH,,,NL
wib-tacan-et,WIB,Wiesbaden TACAN,TACAN,ENROUTE,114100,88X,1112000,1175000,,2.000,,,130,50.04608,8.31080,453,ET,,,DE
wit-tacan-eg,WIT,Wittering TACAN,TACAN,ENROUTE,117600,123X,1147000,1210000,,0.000,,,130,52.60791,-0.49873,295,EG,,,GB
wlm-tacan-yb,WLM,Williamtown (Newcastle) TACAN,TACAN,ENROUTE,113300,80X,1104000,1167000,,12.000,,,130,-32.79711,151.83311,31,YB,,,AU
wnj-tacan-rk,WNJ,Wonju TACAN,TACAN,ENROUTE,111600,53X,1077000,1014000,,-8.000,,,40,37.43181,127.96211,500,RK,,,KR
wtm-tacan-et,WTM,Wittmundhafen TACAN,TACAN,ENROUTE,113500,82X,1106000,1169000,,3.000,,,130,53.55433,7.72511,61,ET,,,DE
wtn-tacan-eg,WTN,Warton TACAN,TACAN,ENROUTE,113200,79X,1103000,1166000,,-2.000,,,130,53.74175,-2.88516,108,EG,,,GB
wtz-tacan-eg,WTZ,Wattisham TACAN,TACAN,ENROUTE,109300,30X,1054000,991000,,0.000,,,130,52.12193,0.94047,324,EG,,,GB
wun-tacan-et,WUN,Wunstorf TACAN,TACAN,ENROUTE,114850,95Y,1119000,1056000,,3.000,,,130,52.45486,9.42938,196,ET,,,DE
wwt-tacan-rj,WWT,Hofu TACAN,TACAN,ENROUTE,135900,16X,1040000,977000,,-8.000,,,130,34.03826,131.54646,25,RJ,,,JP
xbg-tacan-cy,XBG,Bagotville TACAN,TACAN,ENROUTE,111800,55X,1079000,1016000,,-18.000,,,130,48.32944,-70.99556,531,CY,,,CA
xmt-tacan-rj,XMT,Kowa TACAN,TACAN,ENROUTE,113500,82X,1106000,1169000,,-7.000,,,130,34.70459,136.95743,326,RJ,,,JP
ycn-tacan-rk,YCN,Yecheon TACAN,TACAN,ENROUTE,108900,26X,1050000,987000,,-7.500,,,130,36.63500,128.36667,360,RK,,,KR
yen-tacan-lt,YEN,Yenisehir TACAN,TACAN,ENROUTE,113200,79X,1103000,1166000,,4.000,,,40,40.25733,29.56292,797,LT,,,TR
ylt-tacan-rj,YLT,Iruma TACAN,TACAN,ENROUTE,110600,43X,1067000,1004000,,-8.000,,,130,35.83966,139.41516,295,RJ,,,JP
yok-tacan-rj,YOK,Yokota (Tokyo) TACAN,TACAN,ENROUTE,113800,85X,1109000,1172000,,-7.000,,,130,35.74898,139.35026,438,RJ,,,JP
yzt-tacan-rj,YZT,Shizuhama (Yaizu) TACAN,TACAN,ENROUTE,109200,29X,1053000,990000,,-6.000,,,130,34.81444,138.29583,78,RJ,,,JP
zah-tacan-oi,ZAH,Zahedan TACAN,TACAN,ENROUTE,112900,76X,1100000,1163000,,2.000,,,40,29.46350,60.90447,4509,OI,,,IR
zfx-tacan-a1,ZFX,Phoenix (McMurdo Station) TACAN,TACAN,ENROUTE,113800,85X,1109000,1172000,,0.000,,,130,-77.94710,166.74474,36,A1,,,AQ
zir-tacan-lt,ZIR,Murted TACAN,TACAN,ENROUTE,114500,92X,1116000,1179000,,5.300,,,40,40.08619,32.57600,2812,LT,,,TR
zwd-tacan-a1,ZWD,Williams TACAN,TACAN,ENROUTE,114300,90X,1114000,1177000,,0.000,,,130,-77.88959,167.09300,46,A1,,,AQ
zyt-tacan-rj,ZYT,Chitose (Sapporo) TACAN,TACAN,ENROUTE,109200,29X,1053000,990000,,-9.000,,,130,42.76444,141.67361,89,RJ,,,JP
zza-tacan-le,ZZA,Zaragoza TACAN,TACAN,ENROUTE,133700,64X,1088000,1151000,,0.000,,,130,41.67711,-1.05850,787,LE,,,ES
zzt-tacan-rj,ZZT,Shizuhama TACAN,TACAN,ENROUTE,135900,16X,1040000,977000,,-8.000,,,130,34.81392,138.29555,51,RJ,,,JP
