slug,identifier,name,type,usage,frequency,dme_channel,dme_rx_frequency,dme_tx_frequency,dme_bias,vor_slaved_variation,localizer_heading,glide_slope_angle,reception_range,latitude,longitude,elevation,region,airport,airport_runway,country
aal-vortac-ek,AAL,Aalborg VORTAC,VORTAC,ENROUTE,116700,114X,1138000,1201000,,3.000,,,130,57.10372,9.99558,57,EK,,,DK
abh-vortac-oe,ABH,Abha VORTAC,VORTAC,ENROUTE,112900,76X,1100000,1163000,,2.000,,,130,18.24192,42.65694,6900,OE,,,SA
abi-vortac-k4,ABI,Abilene VORTAC,VORTAC,ENROUTE,113700,84X,1108000,1171000,,10.000,,,130,32.48133,-99.86345,1809,K4,,,US
abq-vortac-k2,ABQ,Albuquerque VORTAC,VORTAC,ENROUTE,113200,79X,1103000,1166000,,13.000,,,130,35.04379,-106.81631,5749,K2,,,US
ach-vortac-k2,ACH,Anton Chico VORTAC,VORTAC,ENROUTE,117800,125X,1149000,1212000,,12.000,,,130,35.11171,-105.03993,5450,K2,,,US
act-vortac-k4,ACT,Waco VORTAC,VORTAC,ENROUTE,115300,100X,1124000,1187000,,9.000,,,130,31.66223,-97.26901,507,K4,,,US
acy-vortac-k6,ACY,Atlantic City VORTAC,VORTAC,ENROUTE,108600,23X,1047000,984000,,-10.000,,,40,39.45587,-74.57631,67,K6,,,US
adm-vortac-k4,ADM,Ardmore VORTAC,VORTAC,ENROUTE,116700,114X,1138000,1201000,,6.000,,,130,34.21159,-97.16823,937,K4,,,US
adw-vortac-k6,ADW,Andrews (Camp Springs) VORTAC,VORTAC,ENROUTE,113100,78X,1102000,1165000,,-10.000,,,40,38.80722,-76.86626,263,K6,,,US
aex-vortac-k4,AEX,Alexandria VORTAC,VORTAC,ENROUTE,116100,108X,1132000,1195000,,3.000,,,130,31.25673,-92.50097,80,K4,,,US
agj-vortac-k4,AGJ,Gooch Springs VORTAC,VORTAC,ENROUTE,112500,72X,1096000,1159000,,5.000,,,130,31.18551,-98.14186,1191,K4,,,US
air-vortac-k5,AIR,Bellaire VORTAC,VORTAC,ENROUTE,117100,118X,1142000,1205000,,-7.000,,,130,40.01702,-80.81723,1307,K5,,,US
ajf-vortac-oe,AJF,Al Jouf VORTAC,VORTAC,ENROUTE,117800,125X,1149000,1212000,,4.000,,,130,29.78953,40.07169,2200,OE,,,SA
akj-vortac-oe,AKJ,Al Kharj VORTAC,VORTAC,ENROUTE,117300,120X,1144000,1207000,,2.000,,,130,24.06833,47.40750,1500,OE,,,SA
akn-vortac-pa,AKN,King Salmon VORTAC,VORTAC,ENROUTE,112800,75X,1099000,1162000,,16.000,,,130,58.72471,-156.75235,95,PA,,,US
alb-vortac-k6,ALB,Albany VORTAC,VORTAC,ENROUTE,115300,100X,1124000,1187000,,-13.000,,,40,42.74728,-73.80319,273,K6,,,US
ald-vortac-ot,ALD,Al Udeid VORTAC,VORTAC,ENROUTE,115200,99X,1123000,1186000,,2.000,,,130,25.09276,51.32587,105,OT,,,QA
alg-vortac-li,ALG,Alghero VORTAC,VORTAC,ENROUTE,113800,85X,1109000,1172000,,2.000,,,130,40.62814,8.24389,1453,LI,,,IT
als-vortac-k2,ALS,Alamosa VORTAC,VORTAC,ENROUTE,113900,86X,1110000,1173000,,13.000,,,130,37.34916,-105.81553,7535,K2,,,US
amg-vortac-k7,AMG,Alma VORTAC,VORTAC,ENROUTE,115100,98X,1122000,1185000,,0.000,,,130,31.53656,-82.50809,194,K7,,,US
ami-vortac-ee,AMI,Amari VORTAC,VORTAC,ENROUTE,115300,100X,1124000,1187000,,8.000,,,130,59.26717,24.24681,100,EE,,,EE
anx-vortac-k3,ANX,Napoleon VORTAC,VORTAC,ENROUTE,114000,87X,1111000,1174000,,7.000,,,40,39.09542,-94.12884,878,K3,,,US
any-vortac-k3,ANY,Anthony VORTAC,VORTAC,ENROUTE,112900,76X,1100000,1163000,,7.000,,,40,37.15898,-98.17078,1393,K3,,,US
ape-vortac-k5,APE,Appleton VORTAC,VORTAC,ENROUTE,116700,114X,1138000,1201000,,-6.000,,,130,40.15106,-82.58830,1354,K5,,,US
apn-vortac-k5,APN,Alpena VORTAC,VORTAC,ENROUTE,108800,25X,1049000,986000,,-7.000,,,40,45.08278,-83.55700,678,K5,,,US
arg-vortac-k4,ARG,Walnut Ridge VORTAC,VORTAC,ENROUTE,114500,92X,1116000,1179000,,4.000,,,130,36.11002,-90.95369,265,K4,,,US
art-vortac-k6,ART,Watertown VORTAC,VORTAC,ENROUTE,109800,35X,1059000,996000,,-12.000,,,40,43.95213,-76.06463,374,K6,,,US
asb-vortac-ok,ASB,Ali Al Salem VORTAC,VORTAC,ENROUTE,116000,107X,1131000,1194000,,4.000,,,40,29.34396,47.51891,457,OK,,,KW
asi-vortac-fh,ASI,Ascension Aux VORTAC,VORTAC,ENROUTE,112200,59X,1083000,1020000,,-17.000,,,130,-7.96988,-14.39734,455,FH,,,SH
atl-vortac-k7,ATL,Atlanta VORTAC,VORTAC,ENROUTE,116900,116X,1140000,1203000,,-5.000,,,150,33.62908,-84.43506,1040,K7,,,US
aty-vortac-k3,ATY,Watertown VORTAC,VORTAC,ENROUTE,116600,113X,1137000,1200000,,9.000,,,40,44.97969,-97.14172,1763,K3,,,US
awk-vortac-pw,AWK,Wake I. VORTAC,VORTAC,ENROUTE,113500,82X,1106000,1169000,,6.000,,,130,19.28658,166.62733,18,PW,,,MH
axc-vortac-k5,AXC,Adders VORTAC,VORTAC,ENROUTE,117200,119X,1143000,1206000,,3.000,,,130,39.73752,-88.85643,708,K5,,,US
ays-vortac-k7,AYS,Waycross VORTAC,VORTAC,ENROUTE,110200,39X,1063000,1000000,,0.000,,,40,31.26942,-82.55644,153,K7,,,US
baf-vortac-k6,BAF,Barnes (Westfield/Springfield) VORTAC,VORTAC,ENROUTE,113000,77X,1101000,1164000,,-14.000,,,40,42.16196,-72.71620,267,K6,,,US
bal-vortac-k6,BAL,Baltimore VORTAC,VORTAC,ENROUTE,115100,98X,1122000,1185000,,-11.000,,,40,39.17106,-76.66126,150,K6,,,US
bam-vortac-k2,BAM,Battle Mountain VORTAC,VORTAC,ENROUTE,112200,59X,1083000,1020000,,13.000,,,130,40.56908,-116.92226,4544,K2,,,US
bce-vortac-k2,BCE,Bryce Canyon VORTAC,VORTAC,ENROUTE,112800,75X,1099000,1162000,,15.000,,,130,37.68919,-112.30390,9039,K2,,,US
bdf-vortac-k5,BDF,Bradford VORTAC,VORTAC,ENROUTE,114700,94X,1118000,1181000,,0.000,,,130,41.15973,-89.58787,810,K5,,,US
bet-vortac-pa,BET,Bethel VORTAC,VORTAC,ENROUTE,114100,88X,1112000,1175000,,14.000,,,130,60.78484,-161.82433,105,PA,,,US
bff-vortac-k3,BFF,Scottsbluff VORTAC,VORTAC,ENROUTE,112600,73X,1097000,1160000,,13.000,,,130,41.89416,-103.48203,4169,K3,,,US
bfm-vortac-k7,BFM,Brookley (Mobile) VORTAC,VORTAC,ENROUTE,112800,75X,1099000,1162000,,4.000,,,40,30.61272,-88.05549,30,K7,,,US
bfv-vortac-k4,BFV,Burns Flat (Clinton) VORTAC,VORTAC,ENROUTE,110000,37X,1061000,998000,,5.000,,,40,35.23694,-99.20617,1780,K4,,,US
bgd-vortac-k4,BGD,Borger VORTAC,VORTAC,ENROUTE,108600,23X,1047000,984000,,11.000,,,40,35.80707,-101.38215,3130,K4,,,US
bgm-vortac-oa,BGM,Bagram VORTAC,VORTAC,ENROUTE,112700,74X,1098000,1161000,,3.000,,,40,34.95038,69.27151,4852,OA,,,AF
bgq-vortac-pa,BGQ,Big Lake VORTAC,VORTAC,ENROUTE,112500,72X,1096000,1159000,,19.000,,,130,61.56943,-149.96716,179,PA,,,US
bgr-vortac-k6,BGR,Bangor VORTAC,VORTAC,ENROUTE,114800,95X,1119000,1182000,,-19.000,,,130,44.84179,-68.87397,360,K6,,,US
bgs-vortac-k4,BGS,Big Spring VORTAC,VORTAC,ENROUTE,117200,119X,1143000,1206000,,11.000,,,130,32.38559,-101.48368,2670,K4,,,US
bha-vortac-oe,BHA,Al Baha VORTAC,VORTAC,ENROUTE,113500,82X,1106000,1169000,,3.000,,,130,20.29247,41.62914,5500,OE,,,SA
bib-vortac-k5,BIB,Bible Grove VORTAC,VORTAC,ENROUTE,109000,27X,1051000,988000,,3.000,,,40,38.92034,-88.48181,535,K5,,,US
big-vortac-pa,BIG,Big Delta VORTAC,VORTAC,ENROUTE,114900,96X,1120000,1183000,,23.000,,,130,64.00446,-145.71725,1230,PA,,,US
bil-vortac-k1,BIL,Billings VORTAC,VORTAC,ENROUTE,114500,92X,1116000,1179000,,14.000,,,130,45.80856,-108.62465,3811,K1,,,US
bka-vortac-pa,BKA,Biorka Island (Sitka) VORTAC,VORTAC,ENROUTE,113800,85X,1109000,1172000,,20.000,,,130,56.85941,-135.55131,260,PA,,,US
bld-vortac-k2,BLD,Boulder City VORTAC,VORTAC,ENROUTE,116700,114X,1138000,1201000,,15.000,,,130,35.99579,-114.86358,3642,K2,,,US
blh-vortac-k2,BLH,Blythe VORTAC,VORTAC,ENROUTE,117400,121X,1145000,1208000,,14.000,,,130,33.59606,-114.76127,410,K2,,,US
blv-vortac-fa,BLV,Bloemfontein VORTAC,VORTAC,ENROUTE,114100,88X,1112000,1175000,,-22.000,,,130,-29.10066,26.30064,4416,FA,,,ZA
bna-vortac-k7,BNA,Nashville VORTAC,VORTAC,ENROUTE,114100,88X,1112000,1175000,,-2.000,,,130,36.13696,-86.68477,566,K7,,,US
boi-vortac-k1,BOI,Boise VORTAC,VORTAC,ENROUTE,113300,80X,1104000,1167000,,17.000,,,130,43.55281,-116.19213,2877,K1,,,US
bqn-vortac-tj,BQN,Borinquen VORTAC,VORTAC,ENROUTE,113500,82X,1106000,1169000,,-10.000,,,150,18.49800,-67.10835,214,TJ,,,PR
brd-vortac-li,BRD,Brindisi VORTAC,VORTAC,ENROUTE,113200,79X,1103000,1166000,,3.000,,,130,40.61083,18.00278,85,LI,,,IT
bro-vortac-k4,BRO,Brownsville VORTAC,VORTAC,ENROUTE,116300,110X,1134000,1197000,,9.000,,,150,25.92407,-97.37527,10,K4,,,US
brv-vortac-k6,BRV,Brooke VORTAC,VORTAC,ENROUTE,114500,92X,1116000,1179000,,-9.000,,,40,38.33626,-77.35287,145,K6,,,US
bsr-vortac-k2,BSR,Big Sur VORTAC,VORTAC,ENROUTE,114000,87X,1111000,1174000,,16.000,,,40,36.18129,-121.64211,4080,K2,,,US
btg-vortac-k1,BTG,Battle Ground VORTAC,VORTAC,ENROUTE,116600,113X,1137000,1200000,,21.000,,,130,45.74781,-122.59154,253,K1,,,US
bty-vortac-k2,BTY,Beatty VORTAC,VORTAC,ENROUTE,114700,94X,1118000,1181000,,16.000,,,130,36.80060,-116.74764,2928,K2,,,US
bum-vortac-k3,BUM,Butler VORTAC,VORTAC,ENROUTE,115900,106X,1130000,1193000,,7.000,,,130,38.27208,-94.48826,890,K3,,,US
bvl-vortac-k2,BVL,Bonneville VORTAC,VORTAC,ENROUTE,112300,70X,1094000,1157000,,12.000,,,130,40.72610,-113.75742,4220,K2,,,US
bvt-vortac-k5,BVT,Boiler (Lafayette) VORTAC,VORTAC,ENROUTE,115100,98X,1122000,1185000,,1.000,,,130,40.55617,-87.06937,752,K5,,,US
bxk-vortac-k2,BXK,Buckeye VORTAC,VORTAC,ENROUTE,110600,43X,1067000,1004000,,14.000,,,40,33.45346,-112.82459,1060,K2,,,US
byp-vortac-k4,BYP,Bonham VORTAC,VORTAC,ENROUTE,114600,93X,1117000,1180000,,6.000,,,130,33.53749,-96.23409,700,K4,,,US
bza-vortac-k2,BZA,Bard (Yuma) VORTAC,VORTAC,ENROUTE,116800,115X,1139000,1202000,,14.000,,,130,32.76811,-114.60295,130,K2,,,US
cae-vortac-k7,CAE,Columbia VORTAC,VORTAC,ENROUTE,114700,94X,1118000,1181000,,-2.000,,,130,33.85725,-81.05390,409,K7,,,US
cbm-vortac-k7,CBM,Caledonia (Columbus) VORTAC,VORTAC,ENROUTE,115200,99X,1123000,1186000,,0.000,,,40,33.64153,-88.43857,250,K7,,,US
ccv-vortac-k6,CCV,Cape Charles VORTAC,VORTAC,ENROUTE,112200,59X,1083000,1020000,,-10.000,,,40,37.34754,-75.99765,10,K6,,,US
cdb-vortac-pa,CDB,Cold Bay VORTAC,VORTAC,ENROUTE,112600,73X,1097000,1160000,,10.000,,,130,55.26729,-162.77400,99,PA,,,US
cdc-vortac-li,CDC,Caraffa VORTAC,VORTAC,ENROUTE,117300,120X,1144000,1207000,,3.000,,,130,38.75586,16.36914,3274,LI,,,IT
cds-vortac-k4,CDS,Childress VORTAC,VORTAC,ENROUTE,117000,117X,1141000,1204000,,10.000,,,130,34.36906,-100.28903,1920,K4,,,US
cec-vortac-k2,CEC,Crescent City VORTAC,VORTAC,ENROUTE,109000,27X,1051000,988000,,14.000,,,40,41.77958,-124.24085,55,K2,,,US
cew-vortac-k7,CEW,Crestview VORTAC,VORTAC,ENROUTE,115900,106X,1130000,1193000,,3.000,,,150,30.82617,-86.67914,255,K7,,,US
cgt-vortac-k5,CGT,Chicago Heights VORTAC,VORTAC,ENROUTE,114200,89X,1113000,1176000,,2.000,,,40,41.51001,-87.57155,634,K5,,,US
chs-vortac-k7,CHS,Charleston VORTAC,VORTAC,ENROUTE,113500,82X,1106000,1169000,,-5.000,,,150,32.89432,-80.03781,40,K7,,,US
cim-vortac-k2,CIM,Cimarron VORTAC,VORTAC,ENROUTE,116400,111X,1135000,1198000,,13.000,,,130,36.49140,-104.87200,6550,K2,,,US
civ-vortac-eb,CIV,Chievres VORTAC,VORTAC,ENROUTE,113200,79X,1103000,1166000,,1.000,,,130,50.57397,3.83289,184,EB,,,BE
cju-vortac-rk,CJU,Jeju VORTAC,VORTAC,ENROUTE,116100,108X,1132000,1195000,,-7.000,,,130,33.38461,126.62411,2800,RK,,,KR
ckh-vortac-ph,CKH,Koko Head VORTAC,VORTAC,ENROUTE,113900,86X,1110000,1173000,,11.000,,,130,21.26511,-157.70298,640,PH,,,US
cll-vortac-k4,CLL,College Station VORTAC,VORTAC,ENROUTE,113300,80X,1104000,1167000,,8.000,,,40,30.60500,-96.42068,264,K4,,,US
cme-vortac-k2,CME,Chisum (Roswell) VORTAC,VORTAC,ENROUTE,116100,108X,1132000,1195000,,12.000,,,130,33.33748,-104.62124,3772,K2,,,US
cmi-vortac-k5,CMI,Champaign VORTAC,VORTAC,ENROUTE,110000,37X,1061000,998000,,3.000,,,40,40.03453,-88.27606,745,K5,,,US
cnm-vortac-k2,CNM,Carlsbad VORTAC,VORTAC,ENROUTE,116300,110X,1134000,1197000,,12.000,,,40,32.25661,-104.22604,3257,K2,,,US
cnx-vortac-k2,CNX,Corona VORTAC,VORTAC,ENROUTE,115500,102X,1126000,1189000,,13.000,,,130,34.36702,-105.67801,6412,K2,,,US
cot-vortac-k4,COT,Cotulla VORTAC,VORTAC,ENROUTE,115800,105X,1129000,1192000,,9.000,,,40,28.46202,-99.11854,520,K4,,,US
cqy-vortac-k4,CQY,Cedar Creek VORTAC,VORTAC,ENROUTE,114800,95X,1119000,1182000,,6.000,,,40,32.18572,-96.21810,400,K4,,,US
cre-vortac-k7,CRE,Grand Strand VORTAC,VORTAC,ENROUTE,114400,91X,1115000,1178000,,-3.000,,,40,33.81384,-78.72452,27,K7,,,US
crg-vortac-k7,CRG,Craig (Jacksonville) VORTAC,VORTAC,ENROUTE,114500,92X,1116000,1179000,,-3.000,,,150,30.33888,-81.50993,42,K7,,,US
crp-vortac-k4,CRP,Corpus Christi VORTAC,VORTAC,ENROUTE,115500,102X,1126000,1189000,,9.000,,,150,27.90377,-97.44488,60,K4,,,US
csg-vortac-k7,CSG,Columbus VORTAC,VORTAC,ENROUTE,117100,118X,1142000,1205000,,1.000,,,40,32.61525,-85.01763,630,K7,,,US
csi-vortac-k4,CSI,Center Point (Kerrville) VORTAC,VORTAC,ENROUTE,117500,122X,1146000,1209000,,8.000,,,130,29.92236,-99.21449,2079,K4,,,US
csn-vortac-k6,CSN,Casanova VORTAC,VORTAC,ENROUTE,116300,110X,1134000,1197000,,-6.000,,,130,38.64120,-77.86550,442,K6,,,US
cty-vortac-k7,CTY,Cross City VORTAC,VORTAC,ENROUTE,112000,57X,1081000,1018000,,-2.000,,,40,29.59900,-83.04879,34,K7,,,US
cva-vortac-k3,CVA,Davenport VORTAC,VORTAC,ENROUTE,113800,85X,1109000,1172000,,4.000,,,40,41.70855,-90.48331,767,K3,,,US
cvg-vortac-k5,CVG,Cincinnati VORTAC,VORTAC,ENROUTE,117300,120X,1144000,1207000,,-4.000,,,40,39.01598,-84.70335,879,K5,,,US
cvi-vortac-k7,CVI,Cofield VORTAC,VORTAC,ENROUTE,114600,93X,1117000,1180000,,-9.000,,,40,36.37291,-76.87154,65,K7,,,US
cwk-vortac-k4,CWK,Centex VORTAC,VORTAC,ENROUTE,112800,75X,1099000,1162000,,6.000,,,130,30.37855,-97.52985,594,K4,,,US
cyn-vortac-k6,CYN,Coyle VORTAC,VORTAC,ENROUTE,113400,81X,1105000,1168000,,-10.000,,,130,39.81734,-74.43162,203,K6,,,US
cys-vortac-k1,CYS,Cheyenne VORTAC,VORTAC,ENROUTE,113100,78X,1102000,1165000,,13.000,,,130,41.21097,-104.77291,6211,K1,,,US
czq-vortac-k2,CZQ,Clovis (Fresno) VORTAC,VORTAC,ENROUTE,112900,76X,1100000,1163000,,15.000,,,130,36.88432,-119.81514,359,K2,,,US
dag-vortac-k2,DAG,Daggett VORTAC,VORTAC,ENROUTE,113200,79X,1103000,1166000,,15.000,,,40,34.96246,-116.57817,1760,K2,,,US
das-vortac-k4,DAS,Daisetta VORTAC,VORTAC,ENROUTE,116900,116X,1140000,1203000,,5.000,,,130,30.18971,-94.64498,76,K4,,,US
dbn-vortac-k7,DBN,Dublin VORTAC,VORTAC,ENROUTE,113100,78X,1102000,1165000,,-5.000,,,40,32.56346,-82.83004,306,K7,,,US
dbq-vortac-k3,DBQ,Dubuque VORTAC,VORTAC,ENROUTE,115800,105X,1129000,1192000,,4.000,,,130,42.40147,-90.70907,1051,K3,,,US
dbs-vortac-k1,DBS,Dubois VORTAC,VORTAC,ENROUTE,116900,116X,1140000,1203000,,15.000,,,130,44.08885,-112.20934,4920,K1,,,US
ddc-vortac-k3,DDC,Dodge City VORTAC,VORTAC,ENROUTE,108200,19X,1043000,980000,,8.000,,,40,37.85056,-100.00564,2566,K3,,,US
dgc-vortac-rj,DGC,Fukuoka VORTAC,VORTAC,ENROUTE,114500,92X,1116000,1179000,,-8.000,,,130,33.67621,130.38963,65,RJ,,,JP
dgd-vortac-k3,DGD,Dogwood VORTAC,VORTAC,ENROUTE,109400,31X,1055000,992000,,1.000,,,40,37.02347,-92.87692,1600,K3,,,US
dha-vortac-oe,DHA,Dhahran VORTAC,VORTAC,ENROUTE,117200,119X,1143000,1206000,,2.000,,,40,26.26078,50.14019,100,OE,,,SA
dhp-vortac-k7,DHP,Dolphin (Miami) VORTAC,VORTAC,ENROUTE,113900,86X,1110000,1173000,,-4.000,,,130,25.79996,-80.34904,6,K7,,,US
dht-vortac-k4,DHT,Dalhart VORTAC,VORTAC,ENROUTE,112000,57X,1081000,1018000,,12.000,,,40,36.09146,-102.54464,4020,K4,,,US
dik-vortac-k3,DIK,Dickinson VORTAC,VORTAC,ENROUTE,112900,76X,1100000,1163000,,14.000,,,130,46.86004,-102.77350,2527,K3,,,US
dkb-vortac-ed,DKB,Dinkelsbuehl VORTAC,VORTAC,ENROUTE,117800,125X,1149000,1212000,,2.000,,,130,49.14275,10.23831,1791,ED,,,DE
dlf-vortac-k4,DLF,Laughlin (Del Rio) VORTAC,VORTAC,ENROUTE,114400,91X,1115000,1178000,,7.000,,,130,29.36089,-100.77173,1072,K4,,,US
dlh-vortac-k3,DLH,Duluth VORTAC,VORTAC,ENROUTE,112600,73X,1097000,1160000,,5.000,,,130,46.80216,-92.20287,1428,K3,,,US
dll-vortac-k5,DLL,Dells (Baraboo) VORTAC,VORTAC,ENROUTE,117000,117X,1141000,1204000,,3.000,,,130,43.55083,-89.76362,1022,K5,,,US
dmn-vortac-k2,DMN,Deming VORTAC,VORTAC,ENROUTE,108600,23X,1047000,984000,,12.000,,,40,32.27555,-107.60550,4200,K2,,,US
dnv-vortac-k5,DNV,Danville VORTAC,VORTAC,ENROUTE,111000,47X,1071000,1008000,,2.000,,,40,40.29377,-87.55726,699,K5,,,US
dqo-vortac-k6,DQO,Dupont (Wilmington) VORTAC,VORTAC,ENROUTE,114000,87X,1111000,1174000,,-10.000,,,40,39.67814,-75.60709,70,K6,,,US
drk-vortac-k2,DRK,Drake (Prescott) VORTAC,VORTAC,ENROUTE,114100,88X,1112000,1175000,,14.000,,,130,34.70255,-112.48034,4966,K2,,,US
dsd-vortac-k1,DSD,Deschutes (Redmond) VORTAC,VORTAC,ENROUTE,117600,123X,1147000,1210000,,18.000,,,130,44.25276,-121.30355,4103,K1,,,US
dsm-vortac-k3,DSM,Des Moines VORTAC,VORTAC,ENROUTE,117500,122X,1146000,1209000,,7.000,,,130,41.43762,-93.64856,951,K3,,,US
dta-vortac-k2,DTA,Delta VORTAC,VORTAC,ENROUTE,116100,108X,1132000,1195000,,16.000,,,130,39.30221,-112.50556,4642,K2,,,US
dug-vortac-k2,DUG,Douglas VORTAC,VORTAC,ENROUTE,108800,25X,1049000,986000,,13.000,,,40,31.47267,-109.60205,4131,K2,,,US
dvc-vortac-k2,DVC,Dove Creek VORTAC,VORTAC,ENROUTE,114600,93X,1117000,1180000,,14.000,,,130,37.80874,-108.93127,6990,K2,,,US
dvv-vortac-k2,DVV,Mile High (Denver) VORTAC,VORTAC,ENROUTE,114700,94X,1118000,1181000,,8.000,,,150,39.89469,-104.62434,5279,K2,,,US
dwn-vortac-k3,DWN,Darwin VORTAC,VORTAC,ENROUTE,109000,27X,1051000,988000,,7.000,,,40,45.08746,-94.45385,1130,K3,,,US
dyr-vortac-k7,DYR,Dyersburg VORTAC,VORTAC,ENROUTE,116800,115X,1139000,1202000,,3.000,,,40,36.01855,-89.31769,389,K7,,,US
eau-vortac-k5,EAU,Eau Claire VORTAC,VORTAC,ENROUTE,113650,83Y,1107000,1044000,,4.000,,,130,44.89767,-91.47854,904,K5,,,US
edw-vortac-k2,EDW,Edwards VORTAC,VORTAC,ENROUTE,116400,111X,1135000,1198000,,12.000,,,25,34.98236,-117.73261,2378,K2,,,US
eed-vortac-k2,EED,Needles VORTAC,VORTAC,ENROUTE,115200,99X,1123000,1186000,,15.000,,,130,34.76600,-114.47410,620,K2,,,US
een-vortac-k6,EEN,Keene VORTAC,VORTAC,ENROUTE,109400,31X,1055000,992000,,-14.000,,,40,42.79428,-72.29178,1380,K6,,,US
ehf-vortac-k2,EHF,Shafter (Bakersfield) VORTAC,VORTAC,ENROUTE,115400,101X,1125000,1188000,,14.000,,,130,35.48456,-119.09729,549,K2,,,US
eic-vortac-k4,EIC,Belcher (Shreveport) VORTAC,VORTAC,ENROUTE,117400,121X,1145000,1208000,,7.000,,,130,32.77136,-93.80993,190,K4,,,US
ekn-vortac-k6,EKN,Elkins VORTAC,VORTAC,ENROUTE,114200,89X,1113000,1176000,,-7.000,,,40,38.91444,-80.09927,2160,K6,,,US
elb-vortac-li,ELB,Elba VORTAC,VORTAC,ENROUTE,114700,94X,1118000,1181000,,3.000,,,130,42.73069,10.39572,1388,LI,,,IT
elp-vortac-k4,ELP,El Paso VORTAC,VORTAC,ENROUTE,115200,99X,1123000,1186000,,12.000,,,150,31.81591,-106.28188,4023,K4,,,US
elw-vortac-k7,ELW,Electric City (Anderson) VORTAC,VORTAC,ENROUTE,108600,23X,1047000,984000,,0.000,,,40,34.41919,-82.78468,736,K7,,,US
emg-vortac-k4,EMG,Elm Grove VORTAC,VORTAC,ENROUTE,111200,49X,1073000,1010000,,7.000,,,40,32.40041,-93.59515,155,K4,,,US
emi-vortac-k6,EMI,Westminster VORTAC,VORTAC,ENROUTE,117900,126X,1150000,1213000,,-8.000,,,130,39.49501,-76.97857,820,K6,,,US
emp-vortac-k3,EMP,Emporia VORTAC,VORTAC,ENROUTE,112800,75X,1099000,1162000,,8.000,,,40,38.29114,-96.13812,1220,K3,,,US
end-vortac-k4,END,Vance (Enid) VORTAC,VORTAC,ENROUTE,115400,101X,1125000,1188000,,5.000,,,130,36.34497,-97.91836,1276,K4,,,US
eni-vortac-k2,ENI,Mendocino (Ukiah) VORTAC,VORTAC,ENROUTE,112300,70X,1094000,1157000,,16.000,,,130,39.05322,-123.27433,2985,K2,,,US
enl-vortac-k5,ENL,Centralia VORTAC,VORTAC,ENROUTE,115000,97X,1121000,1184000,,4.000,,,130,38.42000,-89.15900,546,K5,,,US
enn-vortac-pa,ENN,Nenana VORTAC,VORTAC,ENROUTE,115800,105X,1129000,1192000,,21.000,,,130,64.59001,-149.07287,1600,PA,,,US
eno-vortac-k6,ENO,Smyrna (Kenton) VORTAC,VORTAC,ENROUTE,111400,51X,1075000,1012000,,-9.000,,,40,39.23165,-75.51597,15,K6,,,US
eon-vortac-k5,EON,Peotone VORTAC,VORTAC,ENROUTE,113200,79X,1103000,1166000,,2.000,,,40,41.26963,-87.79105,689,K5,,,US
eph-vortac-k1,EPH,Ephrata VORTAC,VORTAC,ENROUTE,112600,73X,1097000,1160000,,21.000,,,130,47.37792,-119.42400,1250,K1,,,US
eri-vortac-k6,ERI,Erie VORTAC,VORTAC,ENROUTE,109400,31X,1055000,992000,,-6.000,,,40,42.01740,-80.29270,797,K6,,,US
esc-vortac-mh,ESC,Coronel Enrique Soto Cano VORTAC,VORTAC,ENROUTE,114900,96X,1120000,1183000,,2.000,,,130,14.39195,-87.62210,2058,MH,,,HN
etg-vortac-k6,ETG,Keating VORTAC,VORTAC,ENROUTE,116000,107X,1131000,1194000,,-10.000,,,130,41.21495,-78.14276,2250,K6,,,US
euf-vortac-k7,EUF,Eufaula VORTAC,VORTAC,ENROUTE,109200,29X,1053000,990000,,2.000,,,40,31.95025,-85.13048,284,K7,,,US
eug-vortac-k1,EUG,Eugene VORTAC,VORTAC,ENROUTE,112900,76X,1100000,1163000,,15.000,,,130,44.12090,-123.22283,364,K1,,,US
evx-vortac-lf,EVX,Evreux Fauville VORTAC,VORTAC,ENROUTE,112400,71X,1095000,1158000,,1.000,,,130,49.03169,1.22086,503,LF,,,FR
ewm-vortac-k4,EWM,Newman VORTAC,VORTAC,ENROUTE,112400,71X,1095000,1158000,,12.000,,,40,31.95179,-106.27246,4041,K4,,,US
eyw-vortac-k7,EYW,Key West VORTAC,VORTAC,ENROUTE,113500,82X,1106000,1169000,,1.000,,,150,24.58588,-81.80048,10,K7,,,US
fai-vortac-pa,FAI,Fairbanks VORTAC,VORTAC,ENROUTE,108600,23X,1047000,984000,,21.000,,,130,64.80007,-148.01198,1526,PA,,,US
fak-vortac-k6,FAK,Flat Rock VORTAC,VORTAC,ENROUTE,113300,80X,1104000,1167000,,-6.000,,,130,37.52851,-77.82822,460,K6,,,US
fam-vortac-k3,FAM,Farmington VORTAC,VORTAC,ENROUTE,115700,104X,1128000,1191000,,1.000,,,130,37.67346,-90.23406,1222,K3,,,US
fbc-vortac-k5,FBC,Flag City VORTAC,VORTAC,ENROUTE,108200,19X,1043000,980000,,-2.000,,,40,40.95533,-83.75602,823,K5,,,US
ffm-vortac-ed,FFM,Frankfurt VORTAC,VORTAC,ENROUTE,114200,89X,1113000,1176000,,2.000,,,130,50.05374,8.63709,491,ED,,,DE
ffu-vortac-k2,FFU,Fairfield (Provo) VORTAC,VORTAC,ENROUTE,116600,113X,1137000,1200000,,16.000,,,130,40.27489,-111.94053,7690,K2,,,US
fgt-vortac-k3,FGT,Farmington VORTAC,VORTAC,ENROUTE,115700,104X,1128000,1191000,,6.000,,,130,44.63094,-93.18205,926,K3,,,US
fim-vortac-k2,FIM,Fillmore VORTAC,VORTAC,ENROUTE,112500,72X,1096000,1159000,,15.000,,,40,34.35669,-118.88129,2200,K2,,,US
fjc-vortac-k6,FJC,Allentown VORTAC,VORTAC,ENROUTE,117500,122X,1146000,1209000,,-10.000,,,40,40.72669,-75.45474,681,K6,,,US
fkn-vortac-k6,FKN,Franklin VORTAC,VORTAC,ENROUTE,110600,43X,1067000,1004000,,-9.000,,,40,36.71423,-77.01238,84,K6,,,US
flo-vortac-k7,FLO,Florence VORTAC,VORTAC,ENROUTE,115200,99X,1123000,1186000,,-3.000,,,130,34.23297,-79.65716,104,K7,,,US
fmg-vortac-k2,FMG,Mustang (Reno) VORTAC,VORTAC,ENROUTE,117900,126X,1150000,1213000,,16.000,,,130,39.53128,-119.65608,5950,K2,,,US
fnt-vortac-k5,FNT,Flint VORTAC,VORTAC,ENROUTE,116900,116X,1140000,1203000,,-6.000,,,130,42.96677,-83.74697,772,K5,,,US
fod-vortac-k3,FOD,Fort Dodge VORTAC,VORTAC,ENROUTE,113500,82X,1106000,1169000,,7.000,,,130,42.61113,-94.29482,1164,K3,,,US
fot-vortac-k2,FOT,Fortuna VORTAC,VORTAC,ENROUTE,114000,87X,1111000,1174000,,19.000,,,40,40.67128,-124.23454,391,K2,,,US
fqf-vortac-k2,FQF,Falcon (Denver) VORTAC,VORTAC,ENROUTE,116300,110X,1134000,1197000,,11.000,,,150,39.69014,-104.62097,5789,K2,,,US
fra-vortac-k2,FRA,Friant VORTAC,VORTAC,ENROUTE,115600,103X,1127000,1190000,,17.000,,,40,37.10442,-119.59545,2380,K2,,,US
fsd-vortac-k3,FSD,Sioux Falls VORTAC,VORTAC,ENROUTE,115000,97X,1121000,1184000,,9.000,,,130,43.64948,-96.78112,1571,K3,,,US
fsm-vortac-k4,FSM,Fort Smith VORTAC,VORTAC,ENROUTE,110400,41X,1065000,1002000,,7.000,,,40,35.38842,-94.27152,430,K4,,,US
fst-vortac-k4,FST,Fort Stockton VORTAC,VORTAC,ENROUTE,116900,116X,1140000,1203000,,11.000,,,150,30.95211,-102.97571,2893,K4,,,US
fti-vortac-k2,FTI,Fort Union VORTAC,VORTAC,ENROUTE,117300,120X,1144000,1207000,,13.000,,,130,35.65755,-105.13560,6876,K2,,,US
ftz-vortac-k3,FTZ,Foristell VORTAC,VORTAC,ENROUTE,110800,45X,1069000,1006000,,5.000,,,40,38.69433,-90.97127,819,K3,,,US
fuz-vortac-k4,FUZ,Ranger (Dallas-Fort Worth) VORTAC,VORTAC,ENROUTE,115700,104X,1128000,1191000,,6.000,,,130,32.88945,-97.17942,637,K4,,,US
fwa-vortac-k5,FWA,Fort Wayne VORTAC,VORTAC,ENROUTE,117800,125X,1149000,1212000,,-6.000,,,130,40.97906,-85.18806,793,K5,,,US
fyu-vortac-pa,FYU,Fort Yukon VORTAC,VORTAC,ENROUTE,114400,91X,1115000,1178000,,20.000,,,130,66.57425,-145.27666,449,PA,,,US
gas-vortac-oe,GAS,Gassim VORTAC,VORTAC,ENROUTE,117100,118X,1142000,1205000,,3.000,,,130,26.29808,43.77961,2200,OE,,,SA
gbn-vortac-k2,GBN,Gila Bend VORTAC,VORTAC,ENROUTE,116600,113X,1137000,1200000,,14.000,,,130,32.95627,-112.67427,790,K2,,,US
gck-vortac-k3,GCK,Garden City VORTAC,VORTAC,ENROUTE,113300,80X,1104000,1167000,,11.000,,,130,37.91900,-100.72501,2878,K3,,,US
gcv-vortac-k7,GCV,Greene Co. (Leakesville) VORTAC,VORTAC,ENROUTE,115700,104X,1128000,1191000,,5.000,,,130,31.09796,-88.48613,300,K7,,,US
ged-vortac-ed,GED,Gedern VORTAC,VORTAC,ENROUTE,110800,45X,1069000,1006000,,2.000,,,130,50.41195,9.24916,1631,ED,,,DE
gef-vortac-k7,GEF,Greenville VORTAC,VORTAC,ENROUTE,109000,27X,1051000,988000,,1.000,,,40,30.55134,-83.78313,220,K7,,,US
geg-vortac-k1,GEG,Spokane VORTAC,VORTAC,ENROUTE,115500,102X,1126000,1189000,,21.000,,,130,47.56495,-117.62689,2756,K1,,,US
gep-vortac-k3,GEP,Gopher (Minneapolis) VORTAC,VORTAC,ENROUTE,117300,120X,1144000,1207000,,6.000,,,130,45.14569,-93.37318,877,K3,,,US
gfs-vortac-k2,GFS,Goffs VORTAC,VORTAC,ENROUTE,114400,91X,1115000,1178000,,15.000,,,40,35.13114,-115.17644,4000,K2,,,US
ggg-vortac-k4,GGG,Gregg Co. (Longview) VORTAC,VORTAC,ENROUTE,112900,76X,1100000,1163000,,7.000,,,130,32.41776,-94.75319,329,K4,,,US
ggt-vortac-k6,GGT,Georgetown VORTAC,VORTAC,ENROUTE,117800,125X,1149000,1212000,,-11.000,,,40,42.78896,-75.82675,2040,K6,,,US
gij-vortac-k5,GIJ,Gipper (Niles) VORTAC,VORTAC,ENROUTE,115400,101X,1125000,1188000,,0.000,,,130,41.76861,-86.31845,803,K5,,,US
gld-vortac-k3,GLD,Goodland VORTAC,VORTAC,ENROUTE,115100,98X,1122000,1185000,,12.000,,,130,39.38787,-101.69230,3654,K3,,,US
gmn-vortac-k2,GMN,Gorman VORTAC,VORTAC,ENROUTE,116100,108X,1132000,1195000,,16.000,,,40,34.80403,-118.86136,4920,K2,,,US
gnv-vortac-k7,GNV,Gators VORTAC,VORTAC,ENROUTE,116200,109X,1133000,1196000,,-4.000,,,40,29.69211,-82.27297,128,K7,,,US
gpt-vortac-k7,GPT,Gulfport VORTAC,VORTAC,ENROUTE,109000,27X,1051000,988000,,2.000,,,40,30.40683,-89.07678,25,K7,,,US
gqo-vortac-k7,GQO,Choo Choo (Chattanooga) VORTAC,VORTAC,ENROUTE,115800,105X,1129000,1192000,,1.000,,,130,34.96128,-85.15337,1014,K7,,,US
grb-vortac-k5,GRB,Green Bay VORTAC,VORTAC,ENROUTE,115500,102X,1126000,1189000,,1.000,,,130,44.55516,-88.19486,767,K5,,,US
grd-vortac-k7,GRD,Greenwood VORTAC,VORTAC,ENROUTE,115500,102X,1126000,1189000,,-1.000,,,40,34.25157,-82.15415,630,K7,,,US
gro-vortac-li,GRO,Grosseto VORTAC,VORTAC,ENROUTE,109850,35Y,1059000,1122000,,2.000,,,130,42.76089,11.07731,75,LI,,,IT
gry-vortac-oe,GRY,Guriat VORTAC,VORTAC,ENROUTE,114700,94X,1118000,1181000,,4.000,,,130,31.41264,37.28656,1700,OE,,,SA
gsh-vortac-k5,GSH,Goshen VORTAC,VORTAC,ENROUTE,113700,84X,1108000,1171000,,0.000,,,130,41.52516,-86.02795,852,K5,,,US
gso-vortac-k7,GSO,Greensboro VORTAC,VORTAC,ENROUTE,116200,109X,1133000,1196000,,-3.000,,,130,36.04569,-79.97637,908,K7,,,US
gtc-vortac-rj,GTC,Niigata VORTAC,VORTAC,ENROUTE,115500,102X,1126000,1189000,,-8.000,,,130,37.95829,139.11489,39,RJ,,,JP
gtf-vortac-k1,GTF,Great Falls VORTAC,VORTAC,ENROUTE,115100,98X,1122000,1185000,,16.000,,,130,47.44998,-111.41216,3672,K1,,,US
gtk-vortac-mb,GTK,Grand Turk VORTAC,VORTAC,ENROUTE,114200,89X,1113000,1176000,,-11.000,,,130,21.44066,-71.13437,36,MB,,,TC
gup-vortac-k2,GUP,Gallup VORTAC,VORTAC,ENROUTE,115100,98X,1122000,1185000,,14.000,,,130,35.47600,-108.87261,7053,K2,,,US
gus-vortac-k5,GUS,Grissom (Peru) VORTAC,VORTAC,ENROUTE,108450,21Y,1045000,1108000,,-2.000,,,25,40.64491,-86.15171,808,K5,,,US
gve-vortac-k6,GVE,Gordonsville VORTAC,VORTAC,ENROUTE,115600,103X,1127000,1190000,,-6.000,,,130,38.01360,-78.15303,383,K6,,,US
gvo-vortac-k2,GVO,Gaviota VORTAC,VORTAC,ENROUTE,113800,85X,1109000,1172000,,16.000,,,40,34.53132,-120.09109,2616,K2,,,US
gxu-vortac-k6,GXU,Mc Guire (Wrightstown) VORTAC,VORTAC,ENROUTE,110600,43X,1067000,1004000,,-12.000,,,40,40.00948,-74.59651,119,K6,,,US
hab-vortac-oi,HAB,Hamadan VORTAC,VORTAC,ENROUTE,115400,101X,1125000,1188000,,3.500,,,125,35.20944,48.65861,5730,OI,,,IR
ham-vortac-ed,HAM,Hamburg VORTAC,VORTAC,ENROUTE,113100,78X,1102000,1165000,,3.000,,,130,53.68558,10.20500,185,ED,,,DE
har-vortac-k6,HAR,Harrisburg VORTAC,VORTAC,ENROUTE,112500,72X,1096000,1159000,,-10.000,,,40,40.30224,-77.06956,1301,K6,,,US
hbr-vortac-k4,HBR,Hobart VORTAC,VORTAC,ENROUTE,111800,55X,1079000,1016000,,10.000,,,40,34.86656,-99.06339,1472,K4,,,US
hcm-vortac-k6,HCM,Harcum VORTAC,VORTAC,ENROUTE,108800,25X,1049000,986000,,-7.000,,,40,37.44866,-76.71135,8,K6,,,US
hct-vortac-k3,HCT,Hayes Center VORTAC,VORTAC,ENROUTE,117700,124X,1148000,1211000,,11.000,,,130,40.45406,-100.92357,3010,K3,,,US
hec-vortac-k2,HEC,Hector VORTAC,VORTAC,ENROUTE,112700,74X,1098000,1161000,,15.000,,,130,34.79702,-116.46292,1853,K2,,,US
hfr-vortac-oe,HFR,Hafr Al Batin (Al Qaisumah) VORTAC,VORTAC,ENROUTE,113100,78X,1102000,1165000,,3.000,,,130,28.35722,46.11742,1200,OE,,,SA
hil-vortac-oe,HIL,Hail VORTAC,VORTAC,ENROUTE,113500,82X,1106000,1169000,,4.000,,,130,27.42508,41.68278,3400,OE,,,SA
hkc-vortac-rj,HKC,Kagoshima VORTAC,VORTAC,ENROUTE,113300,80X,1104000,1167000,,-6.000,,,130,31.69722,130.58294,1909,RJ,,,JP
hlc-vortac-k3,HLC,Hill City VORTAC,VORTAC,ENROUTE,113700,84X,1108000,1171000,,8.000,,,130,39.25875,-100.22585,2690,K3,,,US
hli-vortac-k7,HLI,Holly Springs VORTAC,VORTAC,ENROUTE,112400,71X,1095000,1158000,,3.000,,,40,34.77024,-89.49652,624,K7,,,US
hln-vortac-k1,HLN,Helena VORTAC,VORTAC,ENROUTE,117700,124X,1148000,1211000,,16.000,,,130,46.60682,-111.95347,3826,K1,,,US
hlv-vortac-k3,HLV,Hallsville VORTAC,VORTAC,ENROUTE,114200,89X,1113000,1176000,,6.000,,,40,39.11354,-92.12823,920,K3,,,US
hml-vortac-k3,HML,Humboldt VORTAC,VORTAC,ENROUTE,112400,71X,1095000,1158000,,9.000,,,130,48.86919,-97.11709,798,K3,,,US
hmv-vortac-k7,HMV,Holston Mountain VORTAC,VORTAC,ENROUTE,114600,93X,1117000,1180000,,-4.000,,,40,36.43706,-82.12960,4321,K7,,,US
hnl-vortac-ph,HNL,Honolulu VORTAC,VORTAC,ENROUTE,114800,95X,1119000,1182000,,11.000,,,130,21.30832,-157.93041,5,PH,,,US
hnn-vortac-k6,HNN,Henderson VORTAC,VORTAC,ENROUTE,115900,106X,1130000,1193000,,-3.000,,,130,38.75413,-82.02617,880,K6,,,US
hob-vortac-k2,HOB,Hobbs VORTAC,VORTAC,ENROUTE,111000,47X,1071000,1008000,,11.000,,,40,32.63824,-103.26930,3664,K2,,,US
hon-vortac-k3,HON,Huron VORTAC,VORTAC,ENROUTE,117600,123X,1147000,1210000,,10.000,,,40,44.44007,-98.31106,1300,K3,,,US
hpw-vortac-k6,HPW,Hopewell VORTAC,VORTAC,ENROUTE,112000,57X,1081000,1018000,,-6.000,,,40,37.32887,-77.11594,70,K6,,,US
hqm-vortac-k1,HQM,Hoquiam VORTAC,VORTAC,ENROUTE,117700,124X,1148000,1211000,,19.000,,,130,46.94704,-124.14927,10,K1,,,US
hrs-vortac-k7,HRS,Harris VORTAC,VORTAC,ENROUTE,109800,35X,1059000,996000,,0.000,,,40,34.94300,-83.91567,3658,K7,,,US
hrv-vortac-k4,HRV,Harvey (New Orleans) VORTAC,VORTAC,ENROUTE,114100,88X,1112000,1175000,,2.000,,,130,29.85019,-90.00298,2,K4,,,US
hsa-vortac-oe,HSA,Al Ahsa VORTAC,VORTAC,ENROUTE,116600,113X,1137000,1200000,,2.000,,,130,25.27914,49.48403,600,OE,,,SA
hto-vortac-k6,HTO,Hampton (East Hampton) VORTAC,VORTAC,ENROUTE,113600,83X,1107000,1170000,,-13.000,,,130,40.91899,-72.31671,22,K6,,,US
huc-vortac-rj,HUC,Hyakuri VORTAC,VORTAC,ENROUTE,113300,80X,1104000,1167000,,-8.000,,,130,36.18701,140.41373,162,RJ,,,JP
huh-vortac-k1,HUH,Whatcom VORTAC,VORTAC,ENROUTE,113000,77X,1101000,1164000,,20.000,,,130,48.94529,-122.57926,82,K1,,,US
hup-vortac-k4,HUP,Hudspeth VORTAC,VORTAC,ENROUTE,115000,97X,1121000,1184000,,12.000,,,40,31.56870,-105.37632,4390,K4,,,US
hve-vortac-k2,HVE,Hanksville VORTAC,VORTAC,ENROUTE,115900,106X,1130000,1193000,,15.000,,,130,38.41681,-110.69974,4431,K2,,,US
hys-vortac-k3,HYS,Hays VORTAC,VORTAC,ENROUTE,110400,41X,1065000,1002000,,10.000,,,40,38.84766,-99.27679,1990,K3,,,US
hzn-vortac-k2,HZN,Hazen VORTAC,VORTAC,ENROUTE,114100,88X,1112000,1175000,,17.000,,,40,39.51640,-118.99769,4085,K2,,,US
iah-vortac-k4,IAH,Humble (Houston) VORTAC,VORTAC,ENROUTE,116600,113X,1137000,1200000,,5.000,,,130,29.95692,-95.34572,81,K4,,,US
ict-vortac-k3,ICT,Wichita VORTAC,VORTAC,ENROUTE,113800,85X,1109000,1172000,,7.000,,,130,37.74526,-97.58383,1471,K3,,,US
idu-vortac-k4,IDU,Industry VORTAC,VORTAC,ENROUTE,110200,39X,1063000,1000000,,8.000,,,40,29.95606,-96.56219,419,K4,,,US
ifi-vortac-k4,IFI,Kingfisher VORTAC,VORTAC,ENROUTE,114700,94X,1118000,1181000,,9.000,,,130,35.80527,-98.00392,1112,K4,,,US
igb-vortac-k7,IGB,Bigbee (Columbus) VORTAC,VORTAC,ENROUTE,116200,109X,1133000,1196000,,4.000,,,40,33.48549,-88.51359,245,K7,,,US
ihd-vortac-k6,IHD,Indian Head VORTAC,VORTAC,ENROUTE,108200,19X,1043000,980000,,-6.000,,,40,39.97424,-79.35837,2820,K6,,,US
iiu-vortac-k5,IIU,Louisville VORTAC,VORTAC,ENROUTE,114800,95X,1119000,1182000,,1.000,,,130,38.10346,-85.57744,721,K5,,,US
ila-vortac-k2,ILA,Williams VORTAC,VORTAC,ENROUTE,114400,91X,1115000,1178000,,18.000,,,40,39.07117,-122.02727,49,K2,,,US
ilc-vortac-k2,ILC,Wilson Creek VORTAC,VORTAC,ENROUTE,116300,110X,1134000,1197000,,16.000,,,130,38.25019,-114.39423,9318,K2,,,US
ilm-vortac-k7,ILM,Wilmington VORTAC,VORTAC,ENROUTE,117000,117X,1141000,1204000,,-7.000,,,150,34.35165,-77.87438,29,K7,,,US
ink-vortac-k4,INK,Wink VORTAC,VORTAC,ENROUTE,112100,58X,1082000,1019000,,11.000,,,130,31.87476,-103.24378,2860,K4,,,US
inw-vortac-k2,INW,Winslow VORTAC,VORTAC,ENROUTE,112600,73X,1097000,1160000,,14.000,,,130,35.06160,-110.79502,4913,K2,,,US
ipl-vortac-k2,IPL,Imperial VORTAC,VORTAC,ENROUTE,115900,106X,1130000,1193000,,14.000,,,130,32.74887,-115.50858,-18,K2,,,US
irk-vortac-k3,IRK,Kirksville VORTAC,VORTAC,ENROUTE,114600,93X,1117000,1180000,,6.000,,,130,40.13502,-92.59171,986,K3,,,US
irq-vortac-k7,IRQ,Colliers VORTAC,VORTAC,ENROUTE,113900,86X,1110000,1173000,,-4.000,,,130,33.70735,-82.16206,420,K7,,,US
irw-vortac-k4,IRW,Will Rogers (Oklahoma City) VORTAC,VORTAC,ENROUTE,114100,88X,1112000,1175000,,7.000,,,130,35.35860,-97.60923,1230,K4,,,US
iso-vortac-k7,ISO,Kinston VORTAC,VORTAC,ENROUTE,109600,33X,1057000,994000,,-5.000,,,40,35.37095,-77.55831,70,K7,,,US
ist-vortac-lt,IST,Istanbul VORTAC,VORTAC,ENROUTE,112500,72X,1096000,1159000,,5.000,,,130,40.96147,28.81069,163,LT,,,TR
ito-vortac-ph,ITO,Hilo VORTAC,VORTAC,ENROUTE,116900,116X,1140000,1203000,,11.000,,,130,19.72136,-155.01094,23,PH,,,US
iwa-vortac-k2,IWA,Willie (Phoenix) VORTAC,VORTAC,ENROUTE,113300,80X,1104000,1167000,,13.000,,,40,33.30318,-111.65144,1366,K2,,,US
jct-vortac-k4,JCT,Junction VORTAC,VORTAC,ENROUTE,116000,107X,1131000,1194000,,8.000,,,130,30.59802,-99.81748,2282,K4,,,US
jdw-vortac-oe,JDW,King Abdulaziz (Jeddah) VORTAC,VORTAC,ENROUTE,115300,100X,1124000,1187000,,3.000,,,130,21.71231,39.12311,100,OE,,,SA
jli-vortac-k2,JLI,Julian VORTAC,VORTAC,ENROUTE,114000,87X,1111000,1174000,,15.000,,,40,33.14046,-116.58594,5560,K2,,,US
kad-vortac-ro,KAD,Kadena (Okinawa) VORTAC,VORTAC,ENROUTE,112000,57X,1081000,1018000,,-4.000,,,130,26.35671,127.76854,126,RO,,,JP
kae-vortac-rk,KAE,Gangwon VORTAC,VORTAC,ENROUTE,115600,103X,1127000,1190000,,-8.000,,,130,37.70075,128.75375,3400,RK,,,KR
kam-vortac-oe,KAM,Khamis Mushait VORTAC,VORTAC,ENROUTE,115900,106X,1130000,1193000,,2.000,,,130,18.30781,42.81231,6800,OE,,,SA
kcc-vortac-rj,KCC,Nagoya VORTAC,VORTAC,ENROUTE,114200,89X,1113000,1176000,,-8.000,,,130,35.26527,136.91493,83,RJ,,,JP
kec-vortac-rj,KEC,Kushimoto VORTAC,VORTAC,ENROUTE,112900,76X,1100000,1163000,,-7.000,,,130,33.44774,135.79449,150,RJ,,,JP
kfa-vortac-oe,KFA,Dammam VORTAC,VORTAC,ENROUTE,112300,70X,1094000,1157000,,3.000,,,130,26.49753,49.77861,100,OE,,,SA
kfb-vortac-oe,KFB,King Faisal Naval Base VORTAC,VORTAC,ENROUTE,113100,78X,1102000,1165000,,3.000,,,130,21.34661,39.17114,100,OE,,,SA
kfv-vortac-bi,KFV,Keflavik VORTAC,VORTAC,ENROUTE,112800,75X,1099000,1162000,,-14.000,,,130,63.98289,-22.61514,200,BI,,,IS
kia-vortac-oe,KIA,Riyadh VORTAC,VORTAC,ENROUTE,113300,80X,1104000,1167000,,3.000,,,130,24.88606,46.75939,2000,OE,,,SA
kmc-vortac-oe,KMC,King Saud Ab (Hafr Al Batin) VORTAC,VORTAC,ENROUTE,115900,106X,1130000,1193000,,3.000,,,130,27.88058,45.55569,1400,OE,,,SA
kmc-vortac-rj,KMC,Komatsu VORTAC,VORTAC,ENROUTE,112000,57X,1081000,1018000,,-8.000,,,130,36.39647,136.40425,18,RJ,,,JP
koa-vortac-ph,KOA,Kona (Kailua/Kona) VORTAC,VORTAC,ENROUTE,112100,58X,1082000,1019000,,11.000,,,130,19.71724,-156.04492,36,PH,,,US
kok-vortac-eb,KOK,Koksy VORTAC,VORTAC,ENROUTE,114500,92X,1116000,1179000,,0.000,,,130,51.09472,2.65167,39,EB,,,BE
kpo-vortac-rk,KPO,Pohang VORTAC,VORTAC,ENROUTE,112500,72X,1096000,1159000,,-8.000,,,130,35.97719,129.47453,800,RK,,,KR
kuz-vortac-rk,KUZ,Kunsan VORTAC,VORTAC,ENROUTE,112800,75X,1099000,1162000,,-7.000,,,130,35.91036,126.61137,22,RK,,,KR
kxc-vortac-ro,KXC,Kumejima VORTAC,VORTAC,ENROUTE,116700,114X,1138000,1201000,,-5.000,,,130,26.37187,126.72206,54,RO,,,JP
lal-vortac-k7,LAL,Lakeland VORTAC,VORTAC,ENROUTE,116000,107X,1131000,1194000,,1.000,,,130,27.98620,-82.01391,134,K7,,,US
las-vortac-k2,LAS,Las Vegas VORTAC,VORTAC,ENROUTE,116900,116X,1140000,1203000,,15.000,,,150,36.07970,-115.15980,2136,K2,,,US
lax-vortac-k2,LAX,Los Angeles VORTAC,VORTAC,ENROUTE,113600,83X,1107000,1170000,,15.000,,,150,33.93315,-118.43201,182,K2,,,US
lbb-vortac-k4,LBB,Lubbock VORTAC,VORTAC,ENROUTE,109200,29X,1053000,990000,,11.000,,,40,33.70495,-101.91401,3310,K4,,,US
lbl-vortac-k3,LBL,Liberal VORTAC,VORTAC,ENROUTE,112300,70X,1094000,1157000,,11.000,,,130,37.04439,-100.97120,2891,K3,,,US
lbv-vortac-k7,LBV,La Belle VORTAC,VORTAC,ENROUTE,110400,41X,1065000,1002000,,1.000,,,40,26.82819,-81.39144,30,K7,,,US
lby-vortac-k7,LBY,Eaton (Hattiesburg) VORTAC,VORTAC,ENROUTE,110600,43X,1067000,1004000,,5.000,,,40,31.41868,-89.33760,290,K7,,,US
lcc-vortac-li,LCC,Lecce VORTAC,VORTAC,ENROUTE,112800,75X,1099000,1162000,,3.000,,,130,40.24728,18.13072,233,LI,,,IT
lch-vortac-k4,LCH,Lake Charles VORTAC,VORTAC,ENROUTE,113400,81X,1105000,1168000,,7.000,,,150,30.14151,-93.10557,20,K4,,,US
lcu-vortac-k2,LCU,Lucin VORTAC,VORTAC,ENROUTE,113600,83X,1107000,1170000,,17.000,,,130,41.36295,-113.84062,4400,K2,,,US
ldk-vortac-k7,LDK,Crimson VORTAC,VORTAC,ENROUTE,117800,125X,1149000,1212000,,3.000,,,40,33.25886,-87.53689,370,K7,,,US
ldn-vortac-k6,LDN,Linden VORTAC,VORTAC,ENROUTE,114300,90X,1114000,1177000,,-6.000,,,40,38.85440,-78.20557,2435,K6,,,US
lev-vortac-k4,LEV,Leeville (Grand Isle) VORTAC,VORTAC,ENROUTE,113500,82X,1106000,1169000,,2.000,,,150,29.17523,-90.10402,2,K4,,,US
lfk-vortac-k4,LFK,Lufkin VORTAC,VORTAC,ENROUTE,112100,58X,1082000,1019000,,5.000,,,130,31.16244,-94.71683,207,K4,,,US
lft-vortac-k4,LFT,Lafayette VORTAC,VORTAC,ENROUTE,109800,35X,1059000,996000,,3.000,,,40,30.19381,-91.99257,36,K4,,,US
lgc-vortac-k7,LGC,La Grange VORTAC,VORTAC,ENROUTE,115600,103X,1127000,1190000,,1.000,,,130,33.04912,-85.20622,798,K7,,,US
lhs-vortac-k2,LHS,Lake Hughes VORTAC,VORTAC,ENROUTE,114350,90Y,1114000,1051000,,15.000,,,130,34.68297,-118.57694,5790,K2,,,US
lib-vortac-k7,LIB,Liberty VORTAC,VORTAC,ENROUTE,113000,77X,1101000,1164000,,-3.000,,,40,35.81162,-79.61259,828,K7,,,US
lih-vortac-ph,LIH,Lihue VORTAC,VORTAC,ENROUTE,113500,82X,1106000,1169000,,11.000,,,130,21.96527,-159.33810,101,PH,,,US
lit-vortac-k4,LIT,Little Rock VORTAC,VORTAC,ENROUTE,113900,86X,1110000,1173000,,5.000,,,130,34.67767,-92.18053,240,K4,,,US
lkv-vortac-k1,LKV,Lakeview VORTAC,VORTAC,ENROUTE,112000,57X,1081000,1018000,,19.000,,,130,42.49284,-120.50711,7465,K1,,,US
llc-vortac-k2,LLC,Lovelock VORTAC,VORTAC,ENROUTE,116500,112X,1136000,1199000,,16.000,,,40,40.12526,-118.57759,4790,K2,,,US
llo-vortac-k4,LLO,Llano VORTAC,VORTAC,ENROUTE,108200,19X,1043000,980000,,8.000,,,40,30.79634,-98.78739,1207,K4,,,US
lmt-vortac-k1,LMT,Klamath Falls VORTAC,VORTAC,ENROUTE,115900,106X,1130000,1193000,,17.000,,,130,42.15314,-121.72753,4090,K1,,,US
lnk-vortac-k3,LNK,Lincoln VORTAC,VORTAC,ENROUTE,116100,108X,1132000,1195000,,9.000,,,130,40.92379,-96.74201,1370,K3,,,US
lny-vortac-ph,LNY,Lanai (Lanai City) VORTAC,VORTAC,ENROUTE,117700,124X,1148000,1211000,,11.000,,,130,20.76450,-156.96889,1250,PH,,,US
loa-vortac-k4,LOA,Leona VORTAC,VORTAC,ENROUTE,110800,45X,1069000,1006000,,8.000,,,40,31.12402,-95.96796,346,K4,,,US
lrd-vortac-k4,LRD,Laredo VORTAC,VORTAC,ENROUTE,117400,121X,1145000,1208000,,9.000,,,150,27.47874,-99.41768,583,K4,,,US
lsu-vortac-k4,LSU,Fighting Tiger (Baton Rouge) VORTAC,VORTAC,ENROUTE,116500,112X,1136000,1199000,,6.000,,,40,30.48513,-91.29407,20,K4,,,US
lts-vortac-k4,LTS,Altus VORTAC,VORTAC,ENROUTE,109800,35X,1059000,996000,,5.000,,,40,34.66293,-99.27116,1361,K4,,,US
lvl-vortac-k6,LVL,Lawrenceville VORTAC,VORTAC,ENROUTE,112900,76X,1100000,1163000,,-8.000,,,40,36.81804,-77.90297,350,K6,,,US
lvz-vortac-k6,LVZ,Wilkes-Barre VORTAC,VORTAC,ENROUTE,111600,53X,1077000,1014000,,-10.000,,,40,41.27280,-75.68947,2118,K6,,,US
maf-vortac-k4,MAF,Midland VORTAC,VORTAC,ENROUTE,114800,95X,1119000,1182000,,11.000,,,40,32.00934,-102.19039,2860,K4,,,US
mai-vortac-k7,MAI,Marianna VORTAC,VORTAC,ENROUTE,114000,87X,1111000,1174000,,0.000,,,40,30.78619,-85.12447,128,K7,,,US
map-vortac-k3,MAP,Maples VORTAC,VORTAC,ENROUTE,113400,81X,1105000,1168000,,6.000,,,40,37.59077,-91.78857,1374,K3,,,US
mar-vortac-sv,MAR,Maracaibo VORTAC,VORTAC,ENROUTE,115700,104X,1128000,1191000,,-9.000,,,130,10.58136,-71.71469,239,SV,,,VE
maw-vortac-k3,MAW,Malden VORTAC,VORTAC,ENROUTE,111200,49X,1073000,1010000,,3.000,,,40,36.55511,-89.91142,280,K3,,,US
mcb-vortac-k7,MCB,Mc Comb VORTAC,VORTAC,ENROUTE,116700,114X,1138000,1201000,,3.000,,,130,31.30445,-90.25820,440,K7,,,US
mcg-vortac-pa,MCG,Mcgrath VORTAC,VORTAC,ENROUTE,115500,102X,1126000,1189000,,19.000,,,130,62.95103,-155.61138,344,PA,,,US
mci-vortac-k3,MCI,Kansas City VORTAC,VORTAC,ENROUTE,113250,79Y,1103000,1040000,,5.000,,,130,39.28528,-94.73706,1060,K3,,,US
mcn-vortac-k7,MCN,Macon VORTAC,VORTAC,ENROUTE,114200,89X,1113000,1176000,,1.000,,,130,32.69119,-83.64718,344,K7,,,US
mcy-vortac-k2,MCY,Mickey (Mercury) VORTAC,VORTAC,ENROUTE,115700,104X,1128000,1191000,,13.000,,,25,37.24251,-115.79240,4451,K2,,,US
mei-vortac-k7,MEI,Meridian VORTAC,VORTAC,ENROUTE,117000,117X,1141000,1204000,,5.000,,,130,32.37844,-88.80427,578,K7,,,US
mem-vortac-k7,MEM,Memphis VORTAC,VORTAC,ENROUTE,117500,122X,1146000,1209000,,1.000,,,130,35.01511,-89.98320,363,K7,,,US
mfd-vortac-k5,MFD,Mansfield VORTAC,VORTAC,ENROUTE,108800,25X,1049000,986000,,-3.000,,,40,40.86861,-82.59096,1222,K5,,,US
mgm-vortac-k7,MGM,Montgomery VORTAC,VORTAC,ENROUTE,112100,58X,1082000,1019000,,3.000,,,130,32.22228,-86.31973,271,K7,,,US
mhz-vortac-k7,MHZ,Magnolia (Madison) VORTAC,VORTAC,ENROUTE,113200,79X,1103000,1166000,,-1.000,,,130,32.43407,-90.09977,407,K7,,,US
mip-vortac-k6,MIP,Milton VORTAC,VORTAC,ENROUTE,109200,29X,1053000,990000,,-9.000,,,40,41.02339,-76.66529,1000,K6,,,US
mis-vortac-rj,MIS,Misawa VORTAC,VORTAC,ENROUTE,115400,101X,1125000,1188000,,-8.000,,,130,40.70382,141.38111,142,RJ,,,JP
mjc-vortac-ro,MJC,Miyakojima VORTAC,VORTAC,ENROUTE,113450,81Y,1105000,1042000,,-4.000,,,130,24.77739,125.29341,152,RO,,,JP
mkk-vortac-ph,MKK,Molokai (Kaunakakai) VORTAC,VORTAC,ENROUTE,116100,108X,1132000,1195000,,11.000,,,130,21.13811,-157.16742,1421,PH,,,US
mlf-vortac-k2,MLF,Milford VORTAC,VORTAC,ENROUTE,112100,58X,1082000,1019000,,16.000,,,130,38.36036,-113.01323,4980,K2,,,US
mlu-vortac-k4,MLU,Monroe VORTAC,VORTAC,ENROUTE,117200,119X,1143000,1206000,,3.000,,,40,32.51688,-92.03601,76,K4,,,US
mmb-vortac-k4,MMB,Mitbee (Gage) VORTAC,VORTAC,ENROUTE,115600,103X,1127000,1190000,,10.000,,,130,36.34373,-99.88012,2426,K4,,,US
mmm-vortac-k2,MMM,Mormon Mesa VORTAC,VORTAC,ENROUTE,114300,90X,1114000,1177000,,16.000,,,40,36.76925,-114.27745,2106,K2,,,US
mmt-vortac-k7,MMT,Mc Entire (Columbia) VORTAC,VORTAC,ENROUTE,113200,79X,1103000,1166000,,-8.000,,,40,33.92409,-80.80234,248,K7,,,US
mqo-vortac-k2,MQO,Morro Bay (San Luis Obispo) VORTAC,VORTAC,ENROUTE,112400,71X,1095000,1158000,,16.000,,,40,35.25226,-120.75957,1463,K2,,,US
mqp-vortac-k4,MQP,Millsap (Mineral Wells) VORTAC,VORTAC,ENROUTE,117700,124X,1148000,1211000,,9.000,,,130,32.72618,-97.99744,900,K4,,,US
mrb-vortac-k6,MRB,Martinsburg VORTAC,VORTAC,ENROUTE,112100,58X,1082000,1019000,,-7.000,,,40,39.38557,-77.84836,600,K6,,,US
mrh-vortac-oo,MRH,Masirah VORTAC,VORTAC,ENROUTE,113800,85X,1109000,1172000,,0.000,,,40,20.67433,58.89617,80,OO,,,OM
msl-vortac-k7,MSL,Muscle Shoals VORTAC,VORTAC,ENROUTE,116500,112X,1136000,1199000,,1.000,,,40,34.70687,-87.49152,583,K7,,,US
msn-vortac-k5,MSN,Madison VORTAC,VORTAC,ENROUTE,108600,23X,1047000,984000,,3.000,,,40,43.14484,-89.33970,857,K5,,,US
mss-vortac-k6,MSS,Massena VORTAC,VORTAC,ENROUTE,114100,88X,1112000,1175000,,-14.000,,,130,44.91442,-74.72272,198,K6,,,US
mva-vortac-k2,MVA,Mina VORTAC,VORTAC,ENROUTE,115100,98X,1122000,1185000,,17.000,,,130,38.56530,-118.03285,7860,K2,,,US
mvc-vortac-k7,MVC,Monroeville VORTAC,VORTAC,ENROUTE,116800,115X,1139000,1202000,,4.000,,,40,31.45932,-87.35254,420,K7,,,US
mxe-vortac-k6,MXE,Modena VORTAC,VORTAC,ENROUTE,113200,79X,1103000,1166000,,-9.000,,,40,39.91805,-75.67082,473,K6,,,US
mzb-vortac-k2,MZB,Mission Bay (San Diego) VORTAC,VORTAC,ENROUTE,117800,125X,1149000,1212000,,15.000,,,130,32.78221,-117.22543,10,K2,,,US
nej-vortac-oe,NEJ,Nejran VORTAC,VORTAC,ENROUTE,116700,114X,1138000,1201000,,2.000,,,130,17.60686,44.41558,4000,OE,,,SA
nhc-vortac-ro,NHC,Naha VORTAC,VORTAC,ENROUTE,116500,112X,1136000,1199000,,-5.000,,,130,26.20853,127.64287,57,RO,,,JP
njl-vortac-oe,NJL,King Abdulaziz Naval Base VORTAC,VORTAC,ENROUTE,114800,95X,1119000,1182000,,3.000,,,40,26.94333,49.70544,100,OE,,,SA
nkw-vortac-fj,NKW,Diego Garcia VORTAC,VORTAC,ENROUTE,112000,57X,1081000,1018000,,-8.000,,,130,-7.31667,72.41167,13,FJ,,,IO
nph-vortac-rk,NPH,Navy (Pohang) VORTAC,VORTAC,ENROUTE,109600,33X,1057000,994000,,-8.000,,,130,35.98636,129.40883,117,RK,,,KR
ntm-vortac-ed,NTM,Nattenheim VORTAC,VORTAC,ENROUTE,115300,100X,1124000,1187000,,1.000,,,130,50.01586,6.53179,1388,ED,,,DE
nvo-vortac-ed,NVO,Noervenich VORTAC,VORTAC,ENROUTE,116200,109X,1133000,1196000,,2.000,,,130,50.82267,6.63654,430,ED,,,DE
oal-vortac-k2,OAL,Coaldale VORTAC,VORTAC,ENROUTE,117700,124X,1148000,1211000,,17.000,,,130,38.00326,-117.77045,4800,K2,,,US
obh-vortac-k3,OBH,Wolbach VORTAC,VORTAC,ENROUTE,114800,95X,1119000,1182000,,7.000,,,130,41.37574,-98.35359,2010,K3,,,US
obv-vortac-fa,OBV,Overberg VORTAC,VORTAC,ENROUTE,115400,101X,1125000,1188000,,-25.000,,,130,-34.55612,20.24714,43,FA,,,ZA
ocf-vortac-k7,OCF,Ocala VORTAC,VORTAC,ENROUTE,113700,84X,1108000,1171000,,0.000,,,40,29.17748,-82.22633,78,K7,,,US
ocn-vortac-k2,OCN,Oceanside VORTAC,VORTAC,ENROUTE,115300,100X,1124000,1187000,,15.000,,,130,33.24063,-117.41772,52,K2,,,US
odi-vortac-k3,ODI,Nodine VORTAC,VORTAC,ENROUTE,117900,126X,1150000,1213000,,1.000,,,130,43.91233,-91.46752,1282,K3,,,US
oed-vortac-k1,OED,Rogue Valley (Medford) VORTAC,VORTAC,ENROUTE,113600,83X,1107000,1170000,,19.000,,,130,42.47957,-122.91293,2083,K1,,,US
ogd-vortac-k2,OGD,Ogden VORTAC,VORTAC,ENROUTE,115700,104X,1128000,1191000,,14.000,,,130,41.22409,-112.09824,4225,K2,,,US
ogg-vortac-ph,OGG,Maui (Kahului) VORTAC,VORTAC,ENROUTE,115100,98X,1122000,1185000,,11.000,,,130,20.90647,-156.42095,24,PH,,,US
okk-vortac-k5,OKK,Kokomo VORTAC,VORTAC,ENROUTE,113500,82X,1106000,1169000,,-5.000,,,130,40.52778,-86.05800,826,K5,,,US
okw-vortac-k7,OKW,Brookwood VORTAC,VORTAC,ENROUTE,111000,47X,1071000,1008000,,0.000,,,40,33.23789,-87.24987,655,K7,,,US
olm-vortac-k1,OLM,Olympia VORTAC,VORTAC,ENROUTE,113400,81X,1105000,1168000,,19.000,,,130,46.97164,-122.90183,200,K1,,,US
omn-vortac-k7,OMN,Ormond Beach VORTAC,VORTAC,ENROUTE,112600,73X,1097000,1160000,,0.000,,,150,29.30325,-81.11270,19,K7,,,US
onc-vortac-ro,ONC,Erabu (Okierabu I) VORTAC,VORTAC,ENROUTE,113100,78X,1102000,1165000,,-5.000,,,130,27.43288,128.69896,218,RO,,,JP
onl-vortac-k3,ONL,O'Neill VORTAC,VORTAC,ENROUTE,113900,86X,1110000,1173000,,10.000,,,130,42.47050,-98.68693,2028,K3,,,US
onm-vortac-k2,ONM,Socorro VORTAC,VORTAC,ENROUTE,116800,115X,1139000,1202000,,13.000,,,130,34.33890,-106.82047,4910,K2,,,US
onp-vortac-k1,ONP,Newport VORTAC,VORTAC,ENROUTE,117100,118X,1142000,1205000,,15.000,,,130,44.57535,-124.06059,147,K1,,,US
ood-vortac-k6,OOD,Woodstown VORTAC,VORTAC,ENROUTE,112800,75X,1099000,1162000,,-10.000,,,40,39.63608,-75.30306,147,K6,,,US
oom-vortac-k5,OOM,Hoosier (Bloomington) VORTAC,VORTAC,ENROUTE,110200,39X,1063000,1000000,,-2.000,,,40,39.14382,-86.61302,845,K5,,,US
orf-vortac-k6,ORF,Norfolk VORTAC,VORTAC,ENROUTE,116900,116X,1140000,1203000,,-7.000,,,150,36.89191,-76.20033,20,K6,,,US
orl-vortac-k7,ORL,Orlando VORTAC,VORTAC,ENROUTE,112200,59X,1083000,1020000,,0.000,,,130,28.54272,-81.33501,102,K7,,,US
ort-vortac-pa,ORT,Northway VORTAC,VORTAC,ENROUTE,116300,110X,1134000,1197000,,24.000,,,130,62.94720,-141.91261,1779,PA,,,US
osh-vortac-k5,OSH,Oshkosh VORTAC,VORTAC,ENROUTE,116750,114Y,1138000,1075000,,2.000,,,130,43.99043,-88.55593,781,K5,,,US
ott-vortac-k6,OTT,Nottingham VORTAC,VORTAC,ENROUTE,113700,84X,1108000,1171000,,-10.000,,,40,38.70587,-76.74475,210,K6,,,US
ovr-vortac-k3,OVR,Omaha VORTAC,VORTAC,ENROUTE,116300,110X,1134000,1197000,,8.000,,,130,41.16717,-95.73685,1300,K3,,,US
pbi-vortac-k7,PBI,Palm Beach VORTAC,VORTAC,ENROUTE,115700,104X,1128000,1191000,,-3.000,,,150,26.68006,-80.08649,16,K7,,,US
pdt-vortac-k1,PDT,Pendleton VORTAC,VORTAC,ENROUTE,114700,94X,1118000,1181000,,14.000,,,130,45.69842,-118.93871,1575,K1,,,US
pdz-vortac-k2,PDZ,Paradise (Ontario) VORTAC,VORTAC,ENROUTE,112200,59X,1083000,1020000,,15.000,,,130,33.91834,-117.53000,1432,K2,,,US
per-vortac-k4,PER,Pioneer (Ponca City) VORTAC,VORTAC,ENROUTE,113200,79X,1103000,1166000,,6.000,,,130,36.74653,-97.16016,1054,K4,,,US
pgo-vortac-k4,PGO,Rich Mountain (Page) VORTAC,VORTAC,ENROUTE,113500,82X,1106000,1169000,,4.000,,,40,34.68046,-94.60900,2700,K4,,,US
pgy-vortac-k2,PGY,Poggi (San Diego) VORTAC,VORTAC,ENROUTE,116450,111Y,1135000,1072000,,14.000,,,130,32.61034,-116.97910,576,K2,,,US
pia-vortac-k5,PIA,Peoria VORTAC,VORTAC,ENROUTE,115200,99X,1123000,1186000,,4.000,,,40,40.68007,-89.79275,731,K5,,,US
pie-vortac-k7,PIE,Saint Petersburg VORTAC,VORTAC,ENROUTE,116400,111X,1135000,1198000,,-5.000,,,150,27.90776,-82.68431,6,K7,,,US
pir-vortac-k3,PIR,Pierre VORTAC,VORTAC,ENROUTE,112500,72X,1096000,1159000,,11.000,,,40,44.39456,-100.16281,1791,K3,,,US
pke-vortac-k2,PKE,Parker VORTAC,VORTAC,ENROUTE,117900,126X,1150000,1213000,,15.000,,,130,34.10197,-114.68207,1000,K2,,,US
pln-vortac-k5,PLN,Pellston VORTAC,VORTAC,ENROUTE,111800,55X,1079000,1016000,,-6.000,,,40,45.63065,-84.66411,835,K5,,,US
pmd-vortac-k2,PMD,Palmdale VORTAC,VORTAC,ENROUTE,114500,92X,1116000,1179000,,15.000,,,130,34.63140,-118.06382,2498,K2,,,US
pnh-vortac-k4,PNH,Panhandle VORTAC,VORTAC,ENROUTE,116600,113X,1137000,1200000,,8.000,,,130,35.23506,-101.69903,3595,K4,,,US
pnz-vortac-li,PNZ,Ponza VORTAC,VORTAC,ENROUTE,114600,93X,1117000,1180000,,3.000,,,130,40.91186,12.95742,682,LI,,,IT
pom-vortac-k2,POM,Pomona VORTAC,VORTAC,ENROUTE,110400,41X,1065000,1002000,,15.000,,,40,34.07839,-117.78708,1266,K2,,,US
prb-vortac-k2,PRB,Paso Robles VORTAC,VORTAC,ENROUTE,114300,90X,1114000,1177000,,16.000,,,40,35.67246,-120.62711,817,K2,,,US
psa-vortac-oe,PSA,Prince Sultan VORTAC,VORTAC,ENROUTE,115400,101X,1125000,1188000,,2.000,,,40,24.07392,47.58328,1600,OE,,,SA
psb-vortac-k6,PSB,Philipsburg VORTAC,VORTAC,ENROUTE,115500,102X,1126000,1189000,,-10.000,,,130,40.91626,-77.99272,2443,K6,,,US
psk-vortac-k6,PSK,Pulaski (Dublin) VORTAC,VORTAC,ENROUTE,116800,115X,1139000,1202000,,-6.000,,,130,37.08771,-80.71290,2120,K6,,,US
psn-vortac-rk,PSN,Busan VORTAC,VORTAC,ENROUTE,114000,87X,1111000,1174000,,-8.000,,,130,35.12250,128.99944,1900,RK,,,KR
psp-vortac-k2,PSP,Palm Springs VORTAC,VORTAC,ENROUTE,115500,102X,1126000,1189000,,13.000,,,40,33.87001,-116.42978,1600,K2,,,US
psx-vortac-k4,PSX,Palacios VORTAC,VORTAC,ENROUTE,117300,120X,1144000,1207000,,8.000,,,150,28.76442,-96.30618,6,K4,,,US
ptw-vortac-k6,PTW,Pottstown VORTAC,VORTAC,ENROUTE,116500,112X,1136000,1199000,,-9.000,,,40,40.22223,-75.56025,285,K6,,,US
pub-vortac-k2,PUB,Pueblo VORTAC,VORTAC,ENROUTE,116700,114X,1138000,1201000,,8.000,,,130,38.29425,-104.42945,4756,K2,,,US
pwe-vortac-k3,PWE,Pawnee City VORTAC,VORTAC,ENROUTE,112400,71X,1095000,1158000,,5.000,,,130,40.20035,-96.20628,1360,K3,,,US
pxn-vortac-k2,PXN,Panoche VORTAC,VORTAC,ENROUTE,112600,73X,1097000,1160000,,16.000,,,40,36.71546,-120.77868,2060,K2,,,US
pxr-vortac-k2,PXR,Phoenix VORTAC,VORTAC,ENROUTE,115600,103X,1127000,1190000,,12.000,,,150,33.43302,-111.97020,1182,K2,,,US
pxt-vortac-k6,PXT,Patuxent (Patuxent River) VORTAC,VORTAC,ENROUTE,117600,123X,1147000,1210000,,-10.000,,,40,38.28786,-76.40023,18,K6,,,US
pxv-vortac-k5,PXV,Pocket City (Evansville) VORTAC,VORTAC,ENROUTE,113300,80X,1104000,1167000,,3.000,,,130,37.92832,-87.76238,385,K5,,,US
rap-vortac-k3,RAP,Rapid City VORTAC,VORTAC,ENROUTE,112300,70X,1094000,1157000,,13.000,,,130,43.97604,-103.01233,3157,K3,,,US
ras-vortac-oe,RAS,Ras Mishab VORTAC,VORTAC,ENROUTE,116400,111X,1135000,1198000,,3.000,,,130,28.07794,48.61467,100,OE,,,SA
rav-vortac-k6,RAV,Ravine VORTAC,VORTAC,ENROUTE,114600,93X,1117000,1180000,,-11.000,,,40,40.55339,-76.59938,1750,K6,,,US
rbl-vortac-k2,RBL,Red Bluff VORTAC,VORTAC,ENROUTE,115700,104X,1128000,1191000,,18.000,,,130,40.09891,-122.23635,321,K2,,,US
rbv-vortac-k6,RBV,Robbinsville VORTAC,VORTAC,ENROUTE,113800,85X,1109000,1172000,,-10.000,,,130,40.20240,-74.49502,248,K6,,,US
rdu-vortac-k7,RDU,Raleigh-Durham VORTAC,VORTAC,ENROUTE,117200,119X,1143000,1206000,,-9.000,,,130,35.87252,-78.78334,429,K7,,,US
ric-vortac-k6,RIC,Richmond VORTAC,VORTAC,ENROUTE,114100,88X,1112000,1175000,,-9.000,,,130,37.50235,-77.32027,158,K6,,,US
rim-vortac-li,RIM,Rimini VORTAC,VORTAC,ENROUTE,116200,109X,1133000,1196000,,3.000,,,130,44.01517,12.61664,71,LI,,,IT
riy-vortac-oe,RIY,King Salman Ab (Riyadh) VORTAC,VORTAC,ENROUTE,114500,92X,1116000,1179000,,3.000,,,40,24.71953,46.72414,2000,OE,,,SA
rmg-vortac-k7,RMG,Rome VORTAC,VORTAC,ENROUTE,115400,101X,1125000,1188000,,1.000,,,130,34.16256,-85.11941,1148,K7,,,US
rnd-vortac-k4,RND,Randolph VORTAC,VORTAC,ENROUTE,112300,70X,1094000,1157000,,5.000,,,25,29.51917,-98.28517,734,K4,,,US
rod-vortac-k5,ROD,Rosewood VORTAC,VORTAC,ENROUTE,117500,122X,1146000,1209000,,-5.000,,,130,40.28780,-84.04310,1080,K5,,,US
roe-vortac-ek,ROE,Ronne VORTAC,VORTAC,ENROUTE,112000,57X,1081000,1018000,,4.000,,,130,55.06558,14.75869,79,EK,,,DK
rqz-vortac-k7,RQZ,Rocket (Huntsville) VORTAC,VORTAC,ENROUTE,112200,59X,1083000,1020000,,2.000,,,40,34.79724,-86.63385,1198,K7,,,US
rrs-vortac-k7,RRS,Wiregrass (Dothan) VORTAC,VORTAC,ENROUTE,111600,53X,1077000,1014000,,2.000,,,40,31.28459,-85.43121,345,K7,,,US
rsg-vortac-k4,RSG,Rocksprings VORTAC,VORTAC,ENROUTE,114550,92Y,1116000,1053000,,10.000,,,130,30.01460,-100.29984,2310,K4,,,US
rsk-vortac-k2,RSK,Rattlesnake (Farmington) VORTAC,VORTAC,ENROUTE,115300,100X,1124000,1187000,,14.000,,,130,36.74839,-108.09890,5821,K2,,,US
rsw-vortac-k7,RSW,Lee County (Fort Myers) VORTAC,VORTAC,ENROUTE,111800,55X,1079000,1016000,,-2.000,,,40,26.52988,-81.77577,25,K7,,,US
rzc-vortac-k4,RZC,Razorback (Fayetteville) VORTAC,VORTAC,ENROUTE,116400,111X,1135000,1198000,,4.000,,,130,36.24643,-94.12139,1332,K4,,,US
rzs-vortac-k2,RZS,San Marcus (Santa Barbara) VORTAC,VORTAC,ENROUTE,114900,96X,1120000,1183000,,14.000,,,130,34.50953,-119.77099,3598,K2,,,US
sac-vortac-k2,SAC,Sacramento VORTAC,VORTAC,ENROUTE,115200,99X,1123000,1186000,,17.000,,,130,38.44374,-121.55165,3,K2,,,US
saf-vortac-k2,SAF,Santa Fe VORTAC,VORTAC,ENROUTE,110600,43X,1067000,1004000,,13.000,,,40,35.54054,-106.06494,6268,K2,,,US
sat-vortac-k4,SAT,San Antonio VORTAC,VORTAC,ENROUTE,116800,115X,1139000,1202000,,8.000,,,130,29.64403,-98.46132,1159,K4,,,US
sav-vortac-k7,SAV,Savannah VORTAC,VORTAC,ENROUTE,115950,106Y,1130000,1067000,,-6.000,,,150,32.14627,-81.19911,22,K7,,,US
sax-vortac-k6,SAX,Sparta VORTAC,VORTAC,ENROUTE,115700,104X,1128000,1191000,,-11.000,,,130,41.06754,-74.53831,1400,K6,,,US
sbv-vortac-k6,SBV,South Boston VORTAC,VORTAC,ENROUTE,110400,41X,1065000,1002000,,-5.000,,,40,36.67504,-79.01450,520,K6,,,US
sby-vortac-k6,SBY,Salisbury VORTAC,VORTAC,ENROUTE,111200,49X,1073000,1010000,,-12.000,,,40,38.34501,-75.51058,48,K6,,,US
sdo-vortac-k2,SDO,Sod House VORTAC,VORTAC,ENROUTE,114300,90X,1114000,1177000,,18.000,,,40,41.40706,-118.03472,4161,K2,,,US
sdz-vortac-k7,SDZ,Sandhills (Southern Pines) VORTAC,VORTAC,ENROUTE,111800,55X,1079000,1016000,,-3.000,,,40,35.21548,-79.58794,588,K7,,,US
sea-vortac-k1,SEA,Seattle VORTAC,VORTAC,ENROUTE,116800,115X,1139000,1202000,,19.000,,,150,47.43537,-122.30962,354,K1,,,US
sel-vortac-rk,SEL,Anyang VORTAC,VORTAC,ENROUTE,115500,102X,1126000,1189000,,-8.000,,,130,37.41361,126.92836,900,RK,,,KR
sfl-vortac-k4,SFL,Salt Flat VORTAC,VORTAC,ENROUTE,113000,77X,1101000,1164000,,12.000,,,40,31.74812,-105.08681,3730,K4,,,US
sgd-vortac-k2,SGD,Scaggs Island (Napa) VORTAC,VORTAC,ENROUTE,112100,58X,1082000,1019000,,17.000,,,40,38.17936,-122.37315,5,K2,,,US
sgf-vortac-k3,SGF,Springfield VORTAC,VORTAC,ENROUTE,116900,116X,1140000,1203000,,4.000,,,130,37.35595,-93.33404,1240,K3,,,US
sha-vortac-oe,SHA,Sharurah VORTAC,VORTAC,ENROUTE,114300,90X,1114000,1177000,,1.000,,,130,17.47025,47.13394,2400,OE,,,SA
sia-vortac-ob,SIA,Isa Ab (Bahrain) VORTAC,VORTAC,ENROUTE,117600,123X,1147000,1210000,,2.000,,,40,25.92183,50.59051,136,OB,,,BH
sie-vortac-k6,SIE,Sea Isle VORTAC,VORTAC,ENROUTE,114800,95X,1119000,1182000,,-9.000,,,130,39.09551,-74.80034,8,K6,,,US
sji-vortac-k7,SJI,Semmes (Mobile) VORTAC,VORTAC,ENROUTE,115300,100X,1124000,1187000,,5.000,,,150,30.72598,-88.35929,190,K7,,,US
sjn-vortac-k2,SJN,St Johns VORTAC,VORTAC,ENROUTE,112300,70X,1094000,1157000,,12.000,,,130,34.42404,-109.14353,6840,K2,,,US
sjt-vortac-k4,SJT,San Angelo VORTAC,VORTAC,ENROUTE,115100,98X,1122000,1185000,,10.000,,,130,31.37496,-100.45487,1886,K4,,,US
sju-vortac-tj,SJU,San Juan VORTAC,VORTAC,ENROUTE,114000,87X,1111000,1174000,,-11.000,,,150,18.44628,-65.98951,6,TJ,,,PR
skr-vortac-ek,SKR,Vojens/Skrydstrup VORTAC,VORTAC,ENROUTE,110400,41X,1065000,1002000,,2.000,,,130,55.22894,9.21406,138,EK,,,DK
sli-vortac-k2,SLI,Seal Beach (Los Alamitos) VORTAC,VORTAC,ENROUTE,115700,104X,1128000,1191000,,15.000,,,40,33.78330,-118.05476,23,K2,,,US
sln-vortac-k3,SLN,Salina VORTAC,VORTAC,ENROUTE,117100,118X,1142000,1205000,,7.000,,,130,38.92514,-97.62133,1316,K3,,,US
slt-vortac-k6,SLT,Slate Run VORTAC,VORTAC,ENROUTE,113900,86X,1110000,1173000,,-8.000,,,130,41.51276,-77.97011,2310,K6,,,US
sns-vortac-k2,SNS,Salinas VORTAC,VORTAC,ENROUTE,117300,120X,1144000,1207000,,17.000,,,130,36.66384,-121.60319,80,K2,,,US
sok-vortac-ph,SOK,South Kauai VORTAC,VORTAC,ENROUTE,115400,101X,1125000,1188000,,11.000,,,130,21.90039,-159.52887,602,PH,,,US
sot-vortac-k7,SOT,Snowbird VORTAC,VORTAC,ENROUTE,108800,25X,1049000,986000,,-4.000,,,40,35.79010,-83.05237,4239,K7,,,US
sot-vortac-rk,SOT,Songtan VORTAC,VORTAC,ENROUTE,116900,116X,1140000,1203000,,-7.800,,,130,37.09436,127.03166,40,RK,,,KR
spa-vortac-k7,SPA,Spartanburg VORTAC,VORTAC,ENROUTE,115700,104X,1128000,1191000,,-2.000,,,130,35.03363,-81.92701,935,K7,,,US
spi-vortac-k5,SPI,Spinner (Springfield) VORTAC,VORTAC,ENROUTE,112700,74X,1098000,1161000,,-1.000,,,130,39.83973,-89.67774,586,K5,,,US
sps-vortac-k4,SPS,Wichita Falls VORTAC,VORTAC,ENROUTE,112700,74X,1098000,1161000,,10.000,,,130,33.98729,-98.59347,1133,K4,,,US
sqs-vortac-k7,SQS,Sidon VORTAC,VORTAC,ENROUTE,114700,94X,1118000,1181000,,3.000,,,130,33.46385,-90.27735,127,K7,,,US
sra-vortac-lp,SRA,Sintra VORTAC,VORTAC,ENROUTE,112100,58X,1082000,1019000,,-2.000,,,130,38.82906,-9.34008,500,LP,,,PT
ssi-vortac-k7,SSI,Brunswick (St Simons I) VORTAC,VORTAC,ENROUTE,109800,35X,1059000,996000,,-4.000,,,40,31.05051,-81.44596,6,K7,,,US
sso-vortac-k2,SSO,San Simon VORTAC,VORTAC,ENROUTE,115400,101X,1125000,1188000,,13.000,,,130,32.26924,-109.26309,3600,K2,,,US
ssr-vortac-pa,SSR,Sisters Island VORTAC,VORTAC,ENROUTE,114000,87X,1111000,1174000,,20.000,,,130,58.17766,-135.25886,40,PA,,,US
stj-vortac-k3,STJ,Saint Joseph (St Joseph) VORTAC,VORTAC,ENROUTE,115500,102X,1126000,1189000,,8.000,,,130,39.96058,-94.92522,1159,K3,,,US
stl-vortac-k3,STL,Saint Louis VORTAC,VORTAC,ENROUTE,117400,121X,1145000,1208000,,1.000,,,130,38.86069,-90.48237,450,K3,,,US
stv-vortac-k4,STV,Stonewall VORTAC,VORTAC,ENROUTE,113800,85X,1109000,1172000,,8.000,,,130,30.20676,-98.70576,1530,K4,,,US
suc-vortac-rj,SUC,Shimizu VORTAC,VORTAC,ENROUTE,115200,99X,1123000,1186000,,-7.000,,,130,32.75597,132.99665,1480,RJ,,,JP
sug-vortac-k7,SUG,Sugarloaf Mt. (Asheville) VORTAC,VORTAC,ENROUTE,112200,59X,1083000,1020000,,-2.000,,,40,35.40651,-82.26861,3970,K7,,,US
sux-vortac-k3,SUX,Sioux City VORTAC,VORTAC,ENROUTE,116500,112X,1136000,1199000,,9.000,,,40,42.34452,-96.32364,1087,K3,,,US
svm-vortac-k5,SVM,Salem VORTAC,VORTAC,ENROUTE,114300,90X,1114000,1177000,,-3.000,,,40,42.40864,-83.59390,956,K5,,,US
swl-vortac-k6,SWL,Snow Hill VORTAC,VORTAC,ENROUTE,112400,71X,1095000,1158000,,-8.000,,,40,38.05659,-75.46390,34,K6,,,US
sxc-vortac-k2,SXC,Santa Catalina VORTAC,VORTAC,ENROUTE,111400,51X,1075000,1012000,,15.000,,,40,33.37506,-118.41991,2090,K2,,,US
sya-vortac-pa,SYA,Shemya VORTAC,VORTAC,ENROUTE,109000,27X,1051000,988000,,3.000,,,130,52.71827,174.06207,67,PA,,,US
syr-vortac-k6,SYR,Syracuse VORTAC,VORTAC,ENROUTE,117000,117X,1141000,1204000,,-11.000,,,130,43.16052,-76.20456,453,K6,,,US
szw-vortac-k7,SZW,Seminole VORTAC,VORTAC,ENROUTE,117500,122X,1146000,1209000,,2.000,,,150,30.55623,-84.37394,178,K7,,,US
tas-vortac-k2,TAS,Taos VORTAC,VORTAC,ENROUTE,117600,123X,1147000,1210000,,13.000,,,40,36.60877,-105.90632,7860,K2,,,US
tay-vortac-k7,TAY,Taylor VORTAC,VORTAC,ENROUTE,112900,76X,1100000,1163000,,-3.000,,,130,30.50464,-82.55290,140,K7,,,US
tbc-vortac-k2,TBC,Tuba City VORTAC,VORTAC,ENROUTE,113500,82X,1106000,1169000,,15.000,,,130,36.12132,-111.26959,5060,K2,,,US
tbk-vortac-oe,TBK,Tabuk VORTAC,VORTAC,ENROUTE,115700,104X,1128000,1191000,,4.000,,,130,28.36469,36.61025,2600,OE,,,SA
tcc-vortac-k2,TCC,Tucumcari VORTAC,VORTAC,ENROUTE,113600,83X,1107000,1170000,,12.000,,,130,35.18221,-103.59858,4035,K2,,,US
tch-vortac-k2,TCH,Wasatch VORTAC,VORTAC,ENROUTE,116800,115X,1139000,1202000,,16.000,,,130,40.85026,-111.98191,4216,K2,,,US
tcs-vortac-k2,TCS,Truth Or Consequences VORTAC,VORTAC,ENROUTE,112700,74X,1098000,1161000,,13.000,,,150,33.28250,-107.28055,4905,K2,,,US
tfd-vortac-k2,TFD,Stanfield (Casa Grande) VORTAC,VORTAC,ENROUTE,114800,95X,1119000,1182000,,12.000,,,130,32.88586,-111.90873,1316,K2,,,US
tgu-vortac-rk,TGU,Dalseong VORTAC,VORTAC,ENROUTE,112200,59X,1083000,1020000,,-8.000,,,130,35.80983,128.59078,2200,RK,,,KR
ths-vortac-k6,THS,Saint Thomas VORTAC,VORTAC,ENROUTE,115000,97X,1121000,1184000,,-7.000,,,40,39.93323,-77.95094,2338,K6,,,US
tht-vortac-bg,THT,Thule VORTAC,VORTAC,ENROUTE,111000,47X,1071000,1008000,,0.000,,,130,76.54242,-68.23923,1337,BG,,,GL
thx-vortac-k4,THX,Three Rivers VORTAC,VORTAC,ENROUTE,111400,51X,1075000,1012000,,8.000,,,40,28.50500,-98.15047,266,K4,,,US
tif-vortac-oe,TIF,Taif VORTAC,VORTAC,ENROUTE,112700,74X,1098000,1161000,,3.000,,,130,21.48647,40.54725,4800,OE,,,SA
tnp-vortac-k2,TNP,Twentynine Palms VORTAC,VORTAC,ENROUTE,114200,89X,1113000,1176000,,15.000,,,40,34.11223,-115.76991,1374,K2,,,US
top-vortac-k3,TOP,Topeka VORTAC,VORTAC,ENROUTE,117800,125X,1149000,1212000,,5.000,,,40,39.13708,-95.54917,1075,K3,,,US
tou-vortac-k1,TOU,Tatoosh (Neah Bay) VORTAC,VORTAC,ENROUTE,112200,59X,1083000,1020000,,22.000,,,130,48.29990,-124.62704,1652,K1,,,US
toy-vortac-k5,TOY,Troy VORTAC,VORTAC,ENROUTE,116000,107X,1131000,1194000,,4.000,,,40,38.73915,-89.91859,576,K5,,,US
tph-vortac-k2,TPH,Tonopah VORTAC,VORTAC,ENROUTE,117200,119X,1143000,1206000,,17.000,,,40,38.03064,-117.03351,5344,K2,,,US
tqq-vortac-k2,TQQ,Silverbow (Tonopah) VORTAC,VORTAC,ENROUTE,113000,77X,1101000,1164000,,16.000,,,25,37.79040,-116.77927,5542,K2,,,US
trm-vortac-k2,TRM,Thermal VORTAC,VORTAC,ENROUTE,116200,109X,1133000,1196000,,13.000,,,130,33.62810,-116.16019,-124,K2,,,US
trp-vortac-li,TRP,Trapani VORTAC,VORTAC,ENROUTE,108800,25X,1049000,986000,,2.000,,,130,37.89597,12.51319,139,LI,,,IT
trv-vortac-k7,TRV,Treasure (Vero Beach) VORTAC,VORTAC,ENROUTE,117300,120X,1144000,1207000,,-7.000,,,130,27.67843,-80.48973,20,K7,,,US
tsc-vortac-rj,TSC,Tokushima VORTAC,VORTAC,ENROUTE,114900,96X,1120000,1183000,,-7.000,,,130,34.12972,134.60861,17,RJ,,,JP
tth-vortac-k5,TTH,Terre Haute VORTAC,VORTAC,ENROUTE,115300,100X,1124000,1187000,,2.000,,,130,39.48894,-87.24901,606,K5,,,US
tul-vortac-k4,TUL,Tulsa VORTAC,VORTAC,ENROUTE,114400,91X,1115000,1178000,,8.000,,,130,36.19625,-95.78809,788,K4,,,US
tus-vortac-k2,TUS,Tucson VORTAC,VORTAC,ENROUTE,116000,107X,1131000,1194000,,12.000,,,150,32.09520,-110.91486,2671,K2,,,US
tut-vortac-ns,TUT,Pago Pago VORTAC,VORTAC,ENROUTE,112500,72X,1096000,1159000,,12.000,,,130,-14.33259,-170.70828,7,NS,,,AS
twf-vortac-k1,TWF,Twin Falls VORTAC,VORTAC,ENROUTE,115800,105X,1129000,1192000,,18.000,,,40,42.47986,-114.48945,4140,K1,,,US
txc-vortac-k2,TXC,Thurman VORTAC,VORTAC,ENROUTE,112900,76X,1100000,1163000,,12.000,,,40,39.69832,-103.21494,4890,K2,,,US
txk-vortac-k4,TXK,Texarkana VORTAC,VORTAC,ENROUTE,116300,110X,1134000,1197000,,7.000,,,130,33.51388,-94.07324,270,K4,,,US
txo-vortac-k4,TXO,Texico VORTAC,VORTAC,ENROUTE,112200,59X,1083000,1020000,,11.000,,,130,34.49513,-102.83966,4060,K4,,,US
tyi-vortac-k7,TYI,Tar River (Rocky Mount) VORTAC,VORTAC,ENROUTE,117800,125X,1149000,1212000,,-5.000,,,40,35.97673,-77.70373,73,K7,,,US
uca-vortac-k6,UCA,Utica VORTAC,VORTAC,ENROUTE,111200,49X,1073000,1010000,,-12.000,,,40,43.02651,-75.16452,1420,K6,,,US
uin-vortac-k5,UIN,Quincy VORTAC,VORTAC,ENROUTE,113600,83X,1107000,1170000,,5.000,,,130,39.84788,-91.27893,715,K5,,,US
ujn-vortac-rk,UJN,Uljin VORTAC,VORTAC,ENROUTE,115300,100X,1124000,1187000,,-8.000,,,40,36.77644,129.45747,295,RK,,,KR
ukw-vortac-k4,UKW,Bowie VORTAC,VORTAC,ENROUTE,117150,118Y,1142000,1079000,,6.000,,,130,33.53589,-97.82128,1102,K4,,,US
unz-vortac-pg,UNZ,Nimitz VORTAC,VORTAC,ENROUTE,115800,105X,1129000,1192000,,2.000,,,130,13.45455,144.73332,675,PG,,,GU
upp-vortac-ph,UPP,Upolu Point (Hawi) VORTAC,VORTAC,ENROUTE,112300,70X,1094000,1157000,,11.000,,,130,20.20054,-155.84327,1760,PH,,,US
van-vortac-k7,VAN,Vance VORTAC,VORTAC,ENROUTE,110400,41X,1065000,1002000,,-6.000,,,40,33.47483,-80.44864,135,K7,,,US
vbt-vortac-wm,VBT,Butterworth VORTAC,VORTAC,ENROUTE,113300,80X,1104000,1167000,,0.000,,,130,5.47700,100.39328,8,WM,,,MY
vfl-vortac-lp,VFL,Horta VORTAC,VORTAC,ENROUTE,112700,74X,1098000,1161000,,-10.000,,,130,38.51942,-28.62356,500,LP,,,PT
vge-vortac-le,VGE,Getafe (Madrid) VORTAC,VORTAC,ENROUTE,112050,57Y,1081000,1144000,,-1.000,,,130,40.28983,-3.72617,2067,LE,,,ES
vgk-vortac-wm,VGK,Gong Kedak VORTAC,VORTAC,ENROUTE,116100,108X,1132000,1195000,,0.000,,,125,5.79722,102.47861,19,WM,,,MY
vhp-vortac-k5,VHP,Brickyard VORTAC,VORTAC,ENROUTE,116300,110X,1134000,1197000,,1.000,,,130,39.81473,-86.36750,872,K5,,,US
vil-vortac-li,VIL,Villafranca VORTAC,VORTAC,ENROUTE,115800,105X,1129000,1192000,,2.000,,,40,45.40789,10.90625,269,LI,,,IT
vkn-vortac-wm,VKN,Kuantan VORTAC,VORTAC,ENROUTE,113700,84X,1108000,1171000,,0.000,,,130,3.77306,103.21083,58,WM,,,MY
vln-vortac-cy,VLN,Lumsden VORTAC,VORTAC,ENROUTE,114200,89X,1113000,1176000,,10.000,,,130,50.66694,-104.88972,1900,CY,,,CA
vna-vortac-k7,VNA,Vienna VORTAC,VORTAC,ENROUTE,116500,112X,1136000,1199000,,1.000,,,40,32.21344,-83.49726,300,K7,,,US
vsj-vortac-le,VSJ,San Javier VORTAC,VORTAC,ENROUTE,113000,77X,1101000,1164000,,0.000,,,130,37.77975,-0.81275,98,LE,,,ES
vuz-vortac-k7,VUZ,Vulcan (Birmingham) VORTAC,VORTAC,ENROUTE,114400,91X,1115000,1178000,,2.000,,,130,33.67013,-86.89984,743,K7,,,US
vxv-vortac-k7,VXV,Volunteer (Knoxville) VORTAC,VORTAC,ENROUTE,116400,111X,1135000,1198000,,-3.000,,,130,35.90484,-83.89473,1290,K7,,,US
wej-vortac-oe,WEJ,Wejh VORTAC,VORTAC,ENROUTE,113900,86X,1110000,1173000,,3.000,,,130,26.17933,36.48811,200,OE,,,SA
xac-vortac-rj,XAC,Oshima VORTAC,VORTAC,ENROUTE,113100,78X,1102000,1165000,,-7.000,,,130,34.71225,139.41402,2088,RJ,,,JP
ykm-vortac-k1,YKM,Yakima VORTAC,VORTAC,ENROUTE,116000,107X,1131000,1194000,,21.000,,,130,46.57024,-120.44464,984,K1,,,US
ymj-vortac-cy,YMJ,Moose Jaw VORTAC,VORTAC,ENROUTE,113400,81X,1105000,1168000,,10.000,,,130,50.33111,-105.56333,1898,CY,,,CA
yng-vortac-k5,YNG,Youngstown VORTAC,VORTAC,ENROUTE,109000,27X,1051000,988000,,-5.000,,,40,41.33102,-80.67466,1159,K5,,,US
yqb-vortac-cy,YQB,Quebec VORTAC,VORTAC,ENROUTE,112800,75X,1099000,1162000,,-16.000,,,130,46.70531,-71.62626,237,CY,,,CA
yrk-vortac-k5,YRK,York VORTAC,VORTAC,ENROUTE,112800,75X,1099000,1162000,,-5.000,,,40,38.64413,-82.97834,1040,K5,,,US
ywg-vortac-cy,YWG,Winnipeg VORTAC,VORTAC,ENROUTE,115500,102X,1126000,1189000,,3.000,,,130,49.92778,-97.23917,800,CY,,,CA
yxe-vortac-cy,YXE,Saskatoon VORTAC,VORTAC,ENROUTE,116200,109X,1133000,1196000,,11.000,,,130,52.18111,-106.71972,1670,CY,,,CA
yzf-vortac-cy,YZF,Yellowknife VORTAC,VORTAC,ENROUTE,115500,102X,1126000,1189000,,17.000,,,130,62.46428,-114.43666,712,CY,,,CA
zbv-vortac-my,ZBV,Bimini VORTAC,VORTAC,ENROUTE,116700,114X,1138000,1201000,,-4.000,,,150,25.70417,-79.29444,49,MY,,,BS